{"type":"FeatureCollection","features":[{"type":"Feature","geometry":{"type":"Point","coordinates":[14.279797,48.304535]},"properties":{"historic":"monument","name":"Kulturdenkmal Plakette"}},{"type":"Feature","geometry":{"type":"Point","coordinates":[14.279539,48.304477]},"properties":{"description":"Erbaut 799 erweitert 1448 Madonnenfresko 15. Jahrhundert","information":"history","name":"Martinskirche","tourism":"information"}},{"type":"Feature","geometry":{"type":"Point","coordinates":[13.686212,47.390608]},"properties":{"entrance":"service","wheelchair":"no"}},{"type":"Feature","geometry":{"type":"Point","coordinates":[13.68641,47.390666]},"properties":{"entrance":"main","wheelchair":"no"}},{"type":"Feature","geometry":{"type":"Point","coordinates":[13.686293,47.390687]},"properties":{"entrance":"yes","wheelchair":"yes"}},{"type":"Feature","geometry":{"type":"Point","coordinates":[16.404006,48.189085]},"properties":{"historic":"monument","name":"Stier"}},{"type":"Feature","geometry":{"type":"LineString","coordinates":[[16.30507,48.24173],[16.305045,48.241651],[16.305139,48.24164],[16.305161,48.241719],[16.30507,48.24173]]},"properties":{"building":"temple","historic":"monument","image":"http://upload.wikimedia.org/wikipedia/commons/e/e1/Schlo%C3%9F_P%C3%B6tzleinsdorf_012.jpg","name":"Tempel"}},{"type":"Feature","geometry":{"type":"LineString","coordinates":[[16.359243,48.19997],[16.359268,48.200051],[16.359101,48.200074],[16.35911,48.200106],[16.359277,48.200083],[16.3593,48.200156]]},"properties":{"architect":"Max Hegele","architect:wikidata":"Q1912651","building:architecture":"art_nouveau","foot":"yes","handrail":"yes","heritage":"2","heritage:operator":"bda","highway":"steps","historic":"monument","incline":"up","lit":"yes","name":"Fillgraderstiege","ramp":"no","ref:at:bda":"10534","source":"wien.gv.at","start_date":"1907","step_count":"40","surface":"paving_stones","tactile_paving":"no","wikidata":"Q390534","wikipedia":"de:Fillgraderstiege"}},{"type":"Feature","geometry":{"type":"LineString","coordinates":[[15.166733,48.604554],[15.166727,48.604583],[15.166686,48.604591],[15.166656,48.604573],[15.166664,48.604546],[15.166703,48.604537],[15.166733,48.604554]]},"properties":{"addr:postcode":"3910","alt_name":"Pestsäule","artist:wikidata":"Q1692856","artist_name":"Johann Caspar Högl","heritage":"2","heritage:operator":"bda","historic":"monument","name":"Dreifaltigkeitssäule","ref:at:bda":"76227","source":"plan.at 2009,geoimage.at","start_date":"1727","wikidata":"Q55265983","wikimedia_commons":"Category:Dreifaltigkeitssäule Zwettl"}},{"type":"Feature","geometry":{"type":"LineString","coordinates":[[16.903558,48.135561],[16.9034,48.135421],[16.90394,48.135149],[16.904079,48.135271],[16.903954,48.135334],[16.903876,48.135265],[16.90374,48.135333],[16.903757,48.135348],[16.903648,48.135403],[16.90358,48.135438],[16.903621,48.135474],[16.903679,48.135445],[16.903719,48.13548],[16.903558,48.135561]]},"properties":{"addr:city":"Bad Deutsch-Altenburg","addr:country":"AT","addr:housenumber":"5","addr:postcode":"2405","addr:street":"Pfarrer Maurergasse","at_bev:addr_date":"2021-04-01","building":"yes","fixme":"Ist das wirklich ein historic=monument? Mit dem Namen \"Johannesstatue\"?","historic":"monument","name":"Johannesstatue","source":"plan.at 2009,geoimage.at"}},{"type":"Feature","geometry":{"type":"LineString","coordinates":[[16.340221,47.739696],[16.340234,47.739677],[16.340221,47.739666],[16.3402,47.739686],[16.340221,47.739696]]},"properties":{"historic":"monument","name":"Kriegerdenkmal"}},{"type":"Feature","geometry":{"type":"LineString","coordinates":[[16.779268,48.016061],[16.779288,48.016013],[16.779249,48.016005],[16.77927,48.015954],[16.779315,48.015962],[16.779318,48.015954],[16.77927,48.015946],[16.779279,48.015924],[16.779585,48.01598],[16.779577,48.015999],[16.779542,48.015992],[16.779539,48.015997],[16.779572,48.016003],[16.779549,48.01606],[16.779507,48.016052],[16.779487,48.016101],[16.779416,48.016089],[16.779384,48.016083],[16.779341,48.016075],[16.779268,48.016061]]},"properties":{"access":"yes","addr:postcode":"2460","heritage":"2","heritage:operator":"bda","historic":"monument","inscription":"Den im Weltkriege Gefallenen","memorial":"war_memorial","name":"Kriegerdenkmal","ref:at:bda":"29918","source":"plan.at 2009","start_date":"1916","wikidata":"Q37949181","wikimedia_commons":"File:GuentherZ 2011-01-22 0068 Bruckneudorf Kriegerdenkmal.jpg"}},{"type":"Feature","geometry":{"type":"LineString","coordinates":[[15.967573,47.281927],[15.967557,47.281907],[15.96756,47.281881],[15.967472,47.281863],[15.967476,47.281852],[15.967611,47.281879],[15.967664,47.281868],[15.967714,47.281881],[15.967676,47.281913],[15.967663,47.28193],[15.967642,47.281939],[15.967602,47.28194],[15.967573,47.281927]]},"properties":{"building":"yes","height":"6 m","historic":"monument","name":"Alleeturm","source":"plan.at 2009"}},{"type":"Feature","geometry":{"type":"LineString","coordinates":[[14.424501,48.022049],[14.424682,48.022028],[14.424706,48.022118],[14.424525,48.022139],[14.424501,48.022049]]},"properties":{"addr:city":"Sankt Ulrich bei Steyr","addr:country":"AT","addr:housenumber":"8","addr:postcode":"4400","addr:street":"Pfarrplatz","historic":"monument","name":"Friedensdenkmal","source":"plan.at 2009"}},{"type":"Feature","geometry":{"type":"LineString","coordinates":[[16.372625,48.217903],[16.372481,48.217813],[16.372686,48.217679],[16.372795,48.217753],[16.372821,48.217771],[16.372625,48.217903]]},"properties":{"addr:city":"Wien","addr:country":"AT","addr:housenumber":"26","addr:postcode":"1020","addr:street":"Obere Donaustraße","amenity":"restaurant","architect":"Otto Wagner","building":"yes","contact:website":"http://ottowagnerschuetzenhaus.at","fixme":"what should be the base level for this building to get its floor count above/below ground level?","historic":"monument","name":"Schützenhaus","opening_hours":"Mo-Fr 16:00-23:00","website":"https://www.geschichtewiki.wien.gv.at/Sch%C3%BCtzenhaus","wikidata":"Q38010979","wikipedia":"de:Wehranlage und Schleuse Kaiserbad"}},{"type":"Feature","geometry":{"type":"LineString","coordinates":[[16.356753,48.205627],[16.356866,48.205633],[16.356903,48.20566],[16.356919,48.205695],[16.356836,48.20575],[16.356795,48.205762],[16.35675,48.205745],[16.356735,48.205702],[16.356753,48.205627]]},"properties":{"artist:wikidata":"Q21032849","artist_name":"Franz Vogl","description:en":"(1790-1836) Austrian actor and dramatist. (Source: Wikipedia:en)","heritage":"2","heritage:operator":"bda","historic":"monument","name":"Ferdinand Raimund","ref:at:bda":"27448","ref:wien:kultur":"43384","start_date":"1898-06-01","subject:wikidata":"Q45025","subject:wikipedia":"de:Ferdinand Raimund","wikidata":"Q21163253"}},{"type":"Feature","geometry":{"type":"LineString","coordinates":[[11.403557,47.279227],[11.403645,47.279275],[11.403681,47.279339],[11.403686,47.279348],[11.40367,47.279434],[11.403654,47.279446],[11.403589,47.2795],[11.403477,47.279518],[11.403353,47.279507],[11.403265,47.279456],[11.403223,47.279376],[11.403252,47.279288],[11.403335,47.279233],[11.403436,47.27921],[11.403513,47.279219],[11.403557,47.279227]]},"properties":{"addr:city":"Innsbruck","addr:country":"AT","addr:housenumber":"39","addr:postcode":"6020","addr:street":"Rennweg","building":"yes","description":"ehemaliges Riesenrundgemälde","historic":"monument","name":"Rotunde"}},{"type":"Feature","geometry":{"type":"LineString","coordinates":[[16.494342,48.159052],[16.494398,48.159059],[16.494735,48.159091],[16.494872,48.159104],[16.495085,48.159127],[16.495028,48.1594],[16.494815,48.159377],[16.494678,48.159365],[16.494282,48.159326],[16.494342,48.159052]]},"properties":{"addr:city":"Wien","addr:country":"AT","addr:housenumber":"1","addr:postcode":"1110","addr:street":"1. Molostraße","building":"granary","historic":"monument","name":"Rhenus-Agrarspeicher","start_date":"1939","website":"https://www.agrarspeicher.at/standorte/wien-albern/"}},{"type":"Feature","geometry":{"type":"LineString","coordinates":[[16.499417,48.15957],[16.499404,48.159629],[16.499364,48.159807],[16.499353,48.159857],[16.499899,48.159911],[16.500063,48.159928],[16.500107,48.159733],[16.500213,48.159743],[16.500229,48.15967],[16.500122,48.15966],[16.500126,48.159641],[16.500115,48.159641],[16.499974,48.159626],[16.499962,48.159625],[16.499417,48.15957]]},"properties":{"building":"granary","historic":"monument","name":"Getreidespeicher","start_date":"1939"}},{"type":"Feature","geometry":{"type":"LineString","coordinates":[[16.49766,48.159393],[16.498203,48.159448],[16.498219,48.15945],[16.498369,48.159465],[16.498306,48.159756],[16.498138,48.159739],[16.497595,48.159683],[16.497607,48.15963],[16.497648,48.159447],[16.49766,48.159393]]},"properties":{"building":"granary","historic":"monument","name":"Getreidespeicher","start_date":"1939"}},{"type":"Feature","geometry":{"type":"LineString","coordinates":[[16.212373,47.343257],[16.212538,47.343292],[16.212486,47.343403],[16.212321,47.343368],[16.212373,47.343257]]},"properties":{"access":"yes","building":"yes","heritage":"2","heritage:operator":"bda","historic":"monument","name":"Anschlussmahnmal Oberschützen","ref:at:bda":"8303","start_date":"1939","wikidata":"Q569339","wikimedia_commons":"Category:Anschlussdenkmal Oberschützen","wikipedia":"de:Anschlussdenkmal"}},{"type":"Feature","geometry":{"type":"LineString","coordinates":[[13.827383,48.550275],[13.827383,48.550208],[13.827477,48.550208],[13.827477,48.550275],[13.827383,48.550275]]},"properties":{"addr:city":"Pfarrkirchen im Mühlkreis","addr:country":"AT","addr:housenumber":"19","addr:postcode":"4144","addr:street":"Amesedt","building":"granary","building:de":"kornhaus","historic":"monument","name":"Getreidekasten"}},{"type":"Feature","geometry":{"type":"LineString","coordinates":[[13.689018,47.390656],[13.689058,47.390671],[13.689114,47.390657],[13.689141,47.390621],[13.689122,47.390583],[13.689084,47.390571],[13.689117,47.390526],[13.689051,47.390505],[13.689044,47.390516],[13.688924,47.390476],[13.688931,47.390466],[13.688881,47.390449],[13.688875,47.390456],[13.68875,47.390415],[13.688751,47.390412],[13.688738,47.390408],[13.688704,47.390456],[13.688638,47.390433],[13.688625,47.390449],[13.688614,47.390444],[13.68859,47.390477],[13.688601,47.390481],[13.688591,47.390491],[13.688661,47.390516],[13.688636,47.390551],[13.688631,47.390549],[13.688622,47.390561],[13.688637,47.390567],[13.688642,47.390563],[13.688763,47.390605],[13.688754,47.390615],[13.688802,47.390633],[13.688809,47.390625],[13.688934,47.390666],[13.688925,47.390678],[13.688985,47.390699],[13.689018,47.390656]]},"properties":{"addr:city":"Schladming","addr:housenumber":"71","addr:postcode":"8970","addr:street":"Martin-Luther-Straße","alt_name":"Evangelische Kirche Schladming","amenity":"place_of_worship","building":"church","denomination":"lutheran","heritage":"2","heritage:operator":"bda","historic":"monument","name":"Evang. Peter-und-Paul-Kirche","name:etymology":"Simon Petrus","name:etymology:wikidata":"Q33923","on_the_list:wikipedia":"de:Liste der denkmalgeschützten Objekte in Schladming","ref:at:bda":"57568","religion":"christian","tourism":"attraction","wheelchair":"yes","wikidata":"Q2073536"}},{"type":"Feature","geometry":{"type":"LineString","coordinates":[[13.690621,47.392722],[13.690622,47.392702],[13.690524,47.3927],[13.690525,47.39267],[13.690455,47.392669],[13.690454,47.392694],[13.690355,47.392693],[13.690351,47.392811],[13.690452,47.392812],[13.690452,47.392826],[13.690543,47.392828],[13.690544,47.392814],[13.690617,47.392815],[13.690618,47.392794],[13.690698,47.392795],[13.690701,47.392723],[13.690621,47.392722]]},"properties":{"addr:city":"Schladming","addr:country":"AT","addr:housenumber":"45","addr:postcode":"8970","addr:street":"Coburgstraße","amenity":"townhall","building":"yes","heritage":"2","heritage:operator":"bda","historic":"monument","name":"Rathaus","on_the_list:wikipedia":"de:Liste der denkmalgeschützten Objekte in Schladming","ref:at:bda":"103087","wikidata":"Q37725942"}},{"type":"Feature","geometry":{"type":"LineString","coordinates":[[16.360717,48.204377],[16.360569,48.204485],[16.360577,48.204545],[16.360743,48.204637],[16.360826,48.204634],[16.360963,48.204526],[16.360956,48.204468],[16.360798,48.204375],[16.360717,48.204377]]},"properties":{"architect":"Carl von Hasenauer","artist:wikidata":"Q84541;Q268977","artist_name":"Carl von Hasenauer;Caspar von Zumbusch","description:en":"Large statue of Empress Maria Theresa with supporting figures.","height":"19.36","heritage":"2","heritage:operator":"bda","historic":"monument","name":"Maria-Theresien-Denkmal","name:en":"Maria Theresia Memorial","name:ko":"마리아 테레지아 기념상","name:ru":"Памятник Марии Терезии","name:zh":"瑪莉亞泰瑞莎雕像","ref:at:bda":"20136","ref:wien:kultur":"47989","start_date":"1888-05-13","subject:wikidata":"Q131706","tourism":"attraction","website":"https://www.geschichtewiki.wien.gv.at/Maria-Theresien-Denkmal","wikidata":"Q21234884","wikipedia":"de:Maria-Theresien-Denkmal","year_of_construction":"1887"}},{"type":"Feature","geometry":{"type":"LineString","coordinates":[[13.617589,47.704733],[13.617683,47.704736],[13.617688,47.704672],[13.617593,47.704669],[13.617589,47.704733]]},"properties":{"alt_name":"Kaiser-Franz-Josef-Warte","historic":"monument","man_made":"tower","name":"Siriuskogelwarte","start_date":"1885","tourism":"viewpoint","tower:type":"observation","wheelchair":"no","wikidata":"Q2290092","wikimedia_commons":"Category:Siriuskogelwarte"}},{"type":"Feature","geometry":{"type":"LineString","coordinates":[[16.352047,48.210112],[16.352024,48.21011],[16.352074,48.209941],[16.352096,48.209944],[16.352242,48.209964],[16.352338,48.209976],[16.352446,48.209989],[16.352488,48.209995],[16.352554,48.210006],[16.352493,48.210176],[16.352047,48.210112]]},"properties":{"historic":"monument","name":"Barockhaus zur heiligen Dreifaltigkeit"}},{"type":"Feature","geometry":{"type":"LineString","coordinates":[[16.369418,48.209438],[16.369523,48.209495],[16.369393,48.20957],[16.369335,48.209604],[16.369293,48.209626],[16.369208,48.209558],[16.369418,48.209438]]},"properties":{"building":"yes","description":"Ehemaliger Pfarrhof der Peterskirche","height":"24.5","heritage":"2","heritage:operator":"bda","historic":"monument","name":"Pfarrhof St. Peter","ref:at:bda":"40816","source":"ViennaGIS","start_date":"1697","wikidata":"Q37996211"}},{"type":"Feature","geometry":{"type":"LineString","coordinates":[[16.293578,48.270382],[16.293559,48.270377],[16.293544,48.270377],[16.293532,48.27038],[16.293507,48.270365],[16.293476,48.270388],[16.293502,48.270403],[16.293501,48.270407],[16.293501,48.270413],[16.293504,48.270419],[16.293508,48.270425],[16.293514,48.270431],[16.293524,48.270437],[16.293535,48.270439],[16.293543,48.270439],[16.293554,48.270439],[16.293559,48.27044],[16.293583,48.270452],[16.293626,48.270419],[16.293599,48.270405],[16.293596,48.2704],[16.29359,48.270391],[16.293578,48.270382]]},"properties":{"building":"yes","ele":"542","height":"27","heritage":"2","heritage:operator":"bda","historic":"monument","man_made":"tower","name":"Habsburgwarte","operator":"ÖTK","ref:at:bda":"41927","tourism":"viewpoint","tower:type":"observation","tower:type:de":"Aussichtsturm","wheelchair":"no","wikidata":"Q1567009","wikimedia_commons":"Category:Habsburgwarte","wikipedia":"de:Habsburgwarte"}},{"type":"Feature","geometry":{"type":"LineString","coordinates":[[11.394212,47.265664],[11.394196,47.26566],[11.394193,47.265666],[11.394185,47.265664],[11.394179,47.265676],[11.394188,47.265678],[11.394185,47.265683],[11.394201,47.265686],[11.394204,47.265681],[11.394213,47.265683],[11.394218,47.265671],[11.394209,47.26567],[11.394212,47.265664]]},"properties":{"building":"yes","building:colour":"#CDB0AA","building:facade:material":"stone","height":"3 m","historic":"monument"}},{"type":"Feature","geometry":{"type":"LineString","coordinates":[[16.233337,48.011739],[16.233309,48.011773],[16.23336,48.011792],[16.233388,48.011759],[16.233337,48.011739]]},"properties":{"building":"yes","historic":"monument","name":"Mozarttempel","wikidata":"Q61499984","wikimedia_commons":"Category:Mozarttempel, Kurpark Baden"}},{"type":"Feature","geometry":{"type":"LineString","coordinates":[[16.457234,48.22188],[16.457316,48.22182],[16.457202,48.221751],[16.45712,48.221808],[16.457234,48.22188]]},"properties":{"building":"yes","historic":"monument","note":"Haus steht unter Denkmalschutz"}},{"type":"Feature","geometry":{"type":"LineString","coordinates":[[13.913979,46.692572],[13.914025,46.692559],[13.914064,46.69257],[13.914084,46.692595],[13.914078,46.692622],[13.914046,46.692642],[13.913999,46.692642],[13.913968,46.692622],[13.913962,46.692594],[13.913979,46.692572]]},"properties":{"building":"yes","fixme":"tower:type","historic":"monument","man_made":"tower","name":"Englischer Turm"}},{"type":"Feature","geometry":{"type":"LineString","coordinates":[[14.998388,48.196554],[14.99838,48.196523],[14.998446,48.196516],[14.998454,48.196547],[14.998388,48.196554]]},"properties":{"building":"yes","historic":"monument"}},{"type":"Feature","geometry":{"type":"LineString","coordinates":[[13.844079,46.613623],[13.844073,46.613684],[13.844279,46.613691],[13.844285,46.613643],[13.844079,46.613623]]},"properties":{"addr:city":"Villach","addr:country":"AT","addr:housenumber":"30","addr:postcode":"9500","addr:street":"Widmanngasse","historic":"monument","name":"Eschey-Hof"}},{"type":"Feature","geometry":{"type":"LineString","coordinates":[[14.773117,47.96223],[14.773114,47.962194],[14.773086,47.962168],[14.773086,47.962144],[14.773107,47.962124],[14.773149,47.962108],[14.773179,47.962118],[14.773192,47.962127],[14.773209,47.962145],[14.773278,47.962151],[14.773307,47.962154],[14.7733,47.962177],[14.773358,47.962201],[14.773331,47.962258],[14.773117,47.96223]]},"properties":{"alt_name":"Lutherturm","building":"yes","building:colour":"#eedbc0","height":"10","heritage":"2","heritage:operator":"bda","historic":"monument","name":"Ehemalige Johanneskapelle","related:wikipedia":"de:Liste der denkmalgeschützten Objekte in Waidhofen an der Ybbs","roof:material":"roof_tiles","roof:shape":"hipped","wikidata":"Q38105026"}},{"type":"Feature","geometry":{"type":"LineString","coordinates":[[16.311056,48.259571],[16.311021,48.259599],[16.311025,48.259602],[16.310987,48.259631],[16.310987,48.259637],[16.310979,48.259643],[16.310978,48.259662],[16.310995,48.259673],[16.311025,48.259674],[16.311038,48.259665],[16.311047,48.259666],[16.311087,48.259634],[16.311099,48.25964],[16.311133,48.259612],[16.311056,48.259571]]},"properties":{"access":"no","artwork_type":"architecture","building":"chapel","heritage":"2","heritage:operator":"bda","historic":"monument","name":"Sisi-Kapelle","ref:at:bda":"23002","start_date":"1856","tourism":"artwork","wikidata":"Q877298","wikimedia_commons":"Category:Sisi-Kapelle","wikipedia":"de:Sisi-Kapelle"}},{"type":"Feature","geometry":{"type":"LineString","coordinates":[[13.686393,47.390525],[13.686502,47.390614],[13.68641,47.390666],[13.686326,47.390713],[13.686293,47.390687],[13.686203,47.390614],[13.686212,47.390608],[13.686222,47.390602],[13.686236,47.390614],[13.686393,47.390525]]},"properties":{"addr:city":"Schladming","addr:country":"AT","addr:housenumber":"110","addr:street":"Talbachgasse","building":"yes","description":"Heimatmuseum, ehem. Bruderlade (Knappenspital)","heritage":"2","heritage:operator":"bda","historic":"monument","name":"Stadtmuseum","on_the_list:wikipedia":"de:Liste der denkmalgeschützten Objekte in Schladming","ref:at:bda":"103132","source:addr":"wikipedia","tourism":"museum","website":"https://museum.schladming.at/","wikidata":"Q37726419"}},{"type":"Feature","geometry":{"type":"LineString","coordinates":[[14.289685,48.299784],[14.289688,48.299739],[14.289611,48.299737],[14.289608,48.299781],[14.289685,48.299784]]},"properties":{"alt_name":"Brunnen der Menschenrechte;Jubiläumsbrunnen Friedensplatz","amenity":"fountain","height":"2.8","historic":"monument","name":"Menschenrechtsbrunnen"}},{"type":"Feature","geometry":{"type":"LineString","coordinates":[[14.286474,48.305854],[14.286433,48.305873],[14.286413,48.305867],[14.286409,48.305834],[14.286427,48.305825],[14.286472,48.305839],[14.286474,48.305854]]},"properties":{"build_year":"1723","height":"20","heritage":"yes","historic":"monument","image":"https://commons.wikimedia.org/wiki/File:Linz_Dreifaltigkeitssaeule-04.jpg","material":"stone","name":"Dreifaltigkeitssäule","name:en":"Trinity Column","tourism":"attraction","wheelchair":"yes","wikidata":"Q1257756","wikipedia":"de:Dreifaltigkeitssäule (Linz)"}},{"type":"Feature","geometry":{"type":"LineString","coordinates":[[14.279487,48.304539],[14.279751,48.304637],[14.279773,48.304639],[14.279794,48.304635],[14.279811,48.304626],[14.279823,48.304614],[14.279825,48.304601],[14.27982,48.304586],[14.279805,48.304573],[14.279774,48.304562],[14.279797,48.304535],[14.279729,48.304509],[14.279704,48.304538],[14.279539,48.304477],[14.279487,48.304539]]},"properties":{"addr:city":"Linz","addr:country":"AT","addr:postcode":"4020","addr:street":"Römerstraße","amenity":"place_of_worship","building":"church","description":"Martinskirche ältester erhaltener Kirchenbau","historic":"monument","name":"Martinskirche","name:en":"St. Martin’s Church","religion":"christian","start_date":"799","website":"https://de.wikipedia.org/wiki/Martinskirche_%28Linz%29","wheelchair":"limited","wikidata":"Q1905704"}},{"type":"Feature","geometry":{"type":"LineString","coordinates":[[15.748158,47.616692],[15.74825,47.616614],[15.748385,47.616687],[15.748294,47.616765],[15.748158,47.616692]]},"properties":{"addr:city":"Spital am Semmering","addr:country":"AT","addr:housenumber":"1a","addr:postcode":"8684","addr:street":"Obere Bahnstraße","building":"train_station","heritage":"2","heritage:operator":"bda","historic":"monument","image":"http://commons.wikimedia.org/wiki/File:Spital_am_Semmering-Bf-02.jpg","on_the_list:wikidata":"Q1858934","on_the_list:wikipedia":"de:Liste der denkmalgeschützten Objekte in Spital am Semmering#objektid-9747","ref:AT:bda":"9747","ref:monument":"9747","source":"geoimage.at"}},{"type":"Feature","geometry":{"type":"LineString","coordinates":[[15.784152,47.620811],[15.784189,47.620718],[15.784448,47.620765],[15.784412,47.620857],[15.784152,47.620811]]},"properties":{"addr:city":"Spital am Semmering","addr:country":"AT","addr:housenumber":"7","addr:place":"Steinhaus","addr:postcode":"8685","at_bev:addr_date":"2019-10-01","building":"train_station","heritage":"2","heritage:operator":"bda","historic":"monument","image":"http://commons.wikimedia.org/wiki/File:Steinhaus-Bf-01.jpg","int_name":"Steinhaus am Semmering","name":"Bahnhof Steinhaus","on_the_list:wikipedia":"de:Liste der denkmalgeschützten Objekte in Spital am Semmering#objektid-24867","ref:AT:bda":"24867","ref:monument":"24867","source":"geoimage.at","uic_ref":"8101520"}},{"type":"Feature","geometry":{"type":"LineString","coordinates":[[15.748882,47.617179],[15.748789,47.617132],[15.748817,47.617108],[15.748726,47.617062],[15.748828,47.616971],[15.748916,47.617015],[15.74896,47.616976],[15.749058,47.617025],[15.749001,47.617076],[15.749088,47.61712],[15.748998,47.617201],[15.748908,47.617156],[15.748882,47.617179]]},"properties":{"addr:city":"Spital am Semmering","addr:country":"AT","addr:housenumber":"1","addr:postcode":"8684","addr:street":"Obere Bahnstraße","building":"yes","heritage":"2","heritage:operator":"bda","historic":"monument","image":"http://commons.wikimedia.org/wiki/File:Spital_am_Semmering-Bf-02.jpg","note":"Bahnhofsgebäude","on_the_list:wikidata":"Q1858934","on_the_list:wikipedia":"de:Liste der denkmalgeschützten Objekte in Spital am Semmering#objektid-9747","ref:AT:bda":"9747","ref:monument":"9747","source":"geoimage.at"}},{"type":"Feature","geometry":{"type":"LineString","coordinates":[[15.365298,46.981092],[15.365239,46.981286],[15.365256,46.981288],[15.365367,46.981304],[15.365426,46.98111],[15.365298,46.981092]]},"properties":{"addr:housenumber":"2","addr:street":"Haselsdorfstraße","building":"yes","heritage":"2","heritage:operator":"bda","historic":"monument","name":"Festsaalbau","on_the_list:wikidata":"Q37975882","on_the_list:wikipedia":"de:Liste der denkmalgeschützten Objekte in Haselsdorf-Tobelbad","ref:at:bda":"36664","source":"geoimage.at"}},{"type":"Feature","geometry":{"type":"LineString","coordinates":[[13.13456,47.07773],[13.134614,47.077749],[13.134626,47.077732],[13.134669,47.077747],[13.134714,47.077763],[13.134702,47.077779],[13.134755,47.077797],[13.134772,47.077774],[13.134786,47.077779],[13.134797,47.077763],[13.134758,47.07775],[13.134793,47.077703],[13.134719,47.077678],[13.134649,47.077653],[13.134615,47.077699],[13.134581,47.077687],[13.134568,47.077704],[13.134577,47.077707],[13.13456,47.07773]]},"properties":{"heritage":"2","heritage:operator":"bda","historic":"monument","image":"https://commons.wikimedia.org/wiki/File:Bad_Gastein_altes_Tunnelportal_B%C3%B6ckstein.JPG","inscription":"Francisco Josepho I. IMP. MCMIX.","man_made":"portal","name":"Altes Nordportal Tauerntunnel","ref:at:bda":"23135","source":"Bing"}},{"type":"Feature","geometry":{"type":"LineString","coordinates":[[15.584691,46.7249],[15.584689,46.724963],[15.584553,46.724961],[15.584537,46.724898],[15.584691,46.7249]]},"properties":{"building":"yes","description":"Speicher","historic":"monument","image":"http://de.wikipedia.org/w/index.php?title=Datei:Ehrenhausen_L1130881a.jpg&filetimestamp=20110920064106","on_the_list:wikidata":"Q1855494","on_the_list:wikipedia":"de:Liste der denkmalgeschützten Objekte in Ehrenhausen","source:description":"wikipedia"}},{"type":"Feature","geometry":{"type":"LineString","coordinates":[[15.585567,46.725808],[15.58555,46.725643],[15.585708,46.725635],[15.585716,46.725716],[15.585695,46.725717],[15.585704,46.725802],[15.585582,46.725807],[15.585567,46.725808]]},"properties":{"addr:city":"Ehrenhausen an der Weinstraße","addr:country":"AT","addr:housenumber":"2","addr:postcode":"8461","addr:street":"Marktplatz","amenity":"townhall","at_bev:addr_date":"2016-10-02","building":"yes","historic":"monument","image":"http://de.wikipedia.org/w/index.php?title=Datei:Ehrenhausen_018a.jpg&filetimestamp=20110920070727","name":"Marktgemeindeamt Ehrenhausen an der Weinstraße","on_the_list:wikidata":"Q1855494","on_the_list:wikipedia":"de:Liste der denkmalgeschützten Objekte in Ehrenhausen","operator":"Marktgemeinde Ehrenhausen a. d. W.","source:description":"wikipedia","townhall:type":"village"}},{"type":"Feature","geometry":{"type":"LineString","coordinates":[[15.584311,46.726287],[15.58446,46.726418],[15.584546,46.726375],[15.584395,46.726248],[15.584311,46.726287]]},"properties":{"addr:city":"Ehrenhausen an der Weinstraße","addr:country":"AT","addr:housenumber":"15a","addr:postcode":"8461","addr:street":"Heinrichskai","at_bev:addr_date":"2016-10-02","building":"yes","description":"Wohnhaus","historic":"monument","on_the_list:wikidata":"Q1855494","on_the_list:wikipedia":"de:Liste der denkmalgeschützten Objekte in Ehrenhausen"}},{"type":"Feature","geometry":{"type":"LineString","coordinates":[[15.584387,46.7273],[15.584504,46.727264],[15.584596,46.727402],[15.584479,46.727438],[15.584387,46.7273]]},"properties":{"addr:city":"Ehrenhausen an der Weinstraße","addr:country":"AT","addr:housenumber":"17","addr:postcode":"8461","addr:street":"Lutterothstraße","at_bev:addr_date":"2019-10-01","building":"yes","description":"Villa Alfred, ehem. Mauthaus","historic":"monument","image":"http://de.wikipedia.org/w/index.php?title=Datei:Ehrenhausen_Mauthaus.JPG&filetimestamp=20120308155658","on_the_list:wikidata":"Q1855494","on_the_list:wikipedia":"de:Liste der denkmalgeschützten Objekte in Ehrenhausen","source:description":"wikipedia"}},{"type":"Feature","geometry":{"type":"LineString","coordinates":[[13.689718,47.392082],[13.690035,47.39215],[13.689926,47.392429],[13.689693,47.39239],[13.68974,47.392257],[13.689648,47.392237],[13.689718,47.392082]]},"properties":{"addr:city":"Schladming","addr:country":"AT","addr:housenumber":"10","addr:postcode":"8970","addr:street":"Hauptplatz","at_bev:addr_date":"2018-04-02","building":"yes","heritage":"2","heritage:operator":"bda","historic":"monument","on_the_list:wikipedia":"de:Liste der denkmalgeschützten Objekte in Schladming","ref:at:bda":"36577","source:addr":"wikipedia","wikidata":"Q37975590"}},{"type":"Feature","geometry":{"type":"LineString","coordinates":[[13.686597,47.391894],[13.686835,47.391973],[13.686813,47.392006],[13.686929,47.392042],[13.686954,47.392012],[13.687002,47.392029],[13.687072,47.392026],[13.687127,47.392001],[13.687159,47.391958],[13.687154,47.391909],[13.687116,47.391871],[13.686705,47.391728],[13.686701,47.391732],[13.686641,47.391711],[13.686613,47.391745],[13.686606,47.391742],[13.686561,47.391806],[13.68664,47.391841],[13.686597,47.391894]]},"properties":{"addr:city":"Schladming","addr:postcode":"8970","amenity":"place_of_worship","building":"church","denomination":"roman_catholic","description":"Römisch katholische Stadtpfarrkirche heiliger Achatius","heritage":"2","heritage:operator":"bda","historic":"monument","name":"Stadtpfarrkirche St. Achaz","ref:at:bda":"57569","religion":"christian","source:description":"wikipedia","wheelchair":"yes","wikidata":"Q2327829","wikipedia":"de:Stadtpfarrkirche Schladming"}},{"type":"Feature","geometry":{"type":"LineString","coordinates":[[13.098102,47.05542],[13.098112,47.055408],[13.098131,47.055403],[13.098151,47.055406],[13.098164,47.055416],[13.098166,47.05543],[13.098156,47.055442],[13.098137,47.055447],[13.098117,47.055444],[13.098104,47.055434],[13.098102,47.05542]]},"properties":{"building":"yes","historic":"monument","name":"ehem. Bergstation Kreuzkogel-Sessellift"}},{"type":"Feature","geometry":{"type":"LineString","coordinates":[[15.523222,48.389119],[15.523176,48.389122],[15.523151,48.389097],[15.523171,48.389069],[15.523216,48.389067],[15.523242,48.389092],[15.523222,48.389119]]},"properties":{"building":"yes","historic":"monument"}},{"type":"Feature","geometry":{"type":"LineString","coordinates":[[15.590603,46.720823],[15.591577,46.721362],[15.591982,46.720966],[15.591741,46.720806],[15.591324,46.72053],[15.591247,46.720479],[15.590603,46.720823]]},"properties":{"denomination":"catholic","description":"Friedhof","historic":"monument","image":"http://de.wikipedia.org/w/index.php?title=Datei:Ehrenhausen_L1000707.jpg&filetimestamp=20110920071138","landuse":"cemetery","on_the_list:wikidata":"Q1855494","on_the_list:wikipedia":"de:Liste der denkmalgeschützten Objekte in Ehrenhausen","religion":"christian","source":"geoimage.at hires","source:description":"wikipedia"}},{"type":"Feature","geometry":{"type":"LineString","coordinates":[[12.932844,47.942361],[12.932806,47.942282],[12.932778,47.942291],[12.932761,47.942308],[12.932759,47.942338],[12.932782,47.942358],[12.932814,47.942364],[12.932844,47.942361]]},"properties":{"amenity":"place_of_worship","building":"yes","denomination":"catholic","historic":"monument","name":"Kalvarienberg Kapelle","religion":"christian","wikidata":"Q16751820"}},{"type":"Feature","geometry":{"type":"LineString","coordinates":[[13.690138,47.391319],[13.690183,47.391209],[13.689873,47.391165],[13.689894,47.391126],[13.689741,47.391089],[13.689721,47.391127],[13.689698,47.391121],[13.689642,47.391227],[13.690138,47.391319]]},"properties":{"addr:city":"Schladming","addr:country":"AT","addr:housenumber":"68","addr:postcode":"8970","addr:street":"Ritter-von-Gersdorff-Straße","at_bev:addr_date":"2018-04-02","building":"yes","description":"Ehem. Gewerkenhaus, Flecknerhaus","heritage":"2","heritage:operator":"bda","historic":"monument","ref:at:bda":"36578","source":"wikipedia; geoimage.at","wikidata":"Q37975599"}},{"type":"Feature","geometry":{"type":"LineString","coordinates":[[13.688554,47.390935],[13.688734,47.390982],[13.688781,47.390899],[13.688601,47.390852],[13.688554,47.390935]]},"properties":{"addr:city":"Schladming","addr:country":"AT","addr:housenumber":"70","addr:postcode":"8970","addr:street":"Vernouilletgasse","at_bev:addr_date":"2018-04-02","building":"yes","description":"Bürgerhaus Schratter, Tritscher","heritage":"2","heritage:operator":"bda","historic":"monument","note":"SCHRATTER","on_the_list:wikipedia":"de:Liste der denkmalgeschützten Objekte in Schladming","ref:at:bda":"46906","source":"geoimage.at","source:addr":"wikipedia","source:description":"wikipedia","wikidata":"Q38016649"}},{"type":"Feature","geometry":{"type":"LineString","coordinates":[[16.084964,48.555721],[16.084964,48.555727],[16.08496,48.555733],[16.084957,48.555736],[16.084949,48.55574],[16.084941,48.555742],[16.084932,48.555743],[16.084921,48.55574],[16.084913,48.555735],[16.084909,48.55573],[16.084908,48.55572],[16.084912,48.555713],[16.084919,48.555709],[16.084928,48.555706],[16.084942,48.555705],[16.084951,48.555708],[16.08496,48.555714],[16.084964,48.555721]]},"properties":{"historic":"monument","name":"Jahntempel","source":"geoimage.at"}},{"type":"Feature","geometry":{"type":"LineString","coordinates":[[13.211514,46.981176],[13.211692,46.981213],[13.211711,46.981169],[13.211619,46.98115],[13.211623,46.981141],[13.211538,46.981123],[13.211514,46.981176]]},"properties":{"building":"yes","historic":"monument","name":"Venezianersäge","source":"geoimage.at","tourism":"attraction"}},{"type":"Feature","geometry":{"type":"LineString","coordinates":[[15.753528,47.61619],[15.753561,47.616052],[15.753831,47.616081],[15.753799,47.616219],[15.753528,47.61619]]},"properties":{"addr:city":"Spital am Semmering","addr:country":"AT","addr:housenumber":"16","addr:postcode":"8684","addr:street":"Bundesstraße","amenity":"townhall","building":"yes","full_name":"Rathaus Spital am Semmering","heritage":"2","heritage:operator":"bda","historic":"monument","image":"http://commons.wikimedia.org/wiki/File:Rathaus_Spital.JPG","name":"Rathaus","on_the_list:wikidata":"Q1858934","on_the_list:wikipedia":"de:Liste der denkmalgeschützten Objekte in Spital am Semmering#objektid-9716","opening_hours":"Mo-Fr 08:00-12:00, Tu 15:30-17:30","ref:AT:bda":"9716","ref:monument":"9716","townhall:type":"city","website":"http://www.spitalamsemmering.com/","wheelchair":"yes"}},{"type":"Feature","geometry":{"type":"LineString","coordinates":[[15.777019,47.619245],[15.7771,47.619168],[15.777232,47.619231],[15.777228,47.619235],[15.777192,47.619269],[15.777151,47.619309],[15.777019,47.619245]]},"properties":{"addr:city":"Steinhaus am Semmering","addr:country":"AT","addr:housenumber":"1","addr:postcode":"8685","addr:street":"Bundesstraße","building":"yes","heritage":"2","heritage:operator":"bda","historic":"monument","name":"WH 187","on_the_list:wikidata":"Q1858934","on_the_list:wikipedia":"de:Liste der denkmalgeschützten Objekte in Spital am Semmering#objektid-24867","ref:AT:bda":"24867","ref:monument":"24867","source":"geoimage.at"}},{"type":"Feature","geometry":{"type":"LineString","coordinates":[[15.795766,47.622],[15.795817,47.621917],[15.795971,47.621959],[15.79592,47.622043],[15.795766,47.622]]},"properties":{"addr:city":"Spital am Semmering","addr:country":"AT","addr:housenumber":"28","addr:place":"Steinhaus","addr:postcode":"8685","at_bev:addr_date":"2019-10-01","building":"yes","heritage":"2","heritage:operator":"bda","historic":"monument","name":"WH 185","on_the_list:wikidata":"Q1858934","on_the_list:wikipedia":"de:Liste der denkmalgeschützten Objekte in Spital am Semmering#objektid-24867","ref:AT:bda":"24867","ref:monument":"24867","source":"geoimage.at"}},{"type":"Feature","geometry":{"type":"LineString","coordinates":[[16.228369,48.207377],[16.228397,48.207369],[16.22841,48.207387],[16.228382,48.207396],[16.228369,48.207377]]},"properties":{"building":"well","description":"Brunnen mit Madonna-Statue","height":"4","heritage":"2","heritage:operator":"bda","historic":"monument","image":"http://commons.wikimedia.org/wiki/File:Ursprungsbrunnen_Hadersdorf_VII.jpg","man_made":"water_well","name":"Ursprungbrunnen","on_the_list:wikidata":"Q1440311","on_the_list:wikipedia":"de:Liste der denkmalgeschützten Objekte in Wien/Penzing#objektid-25020","ref:at:bda":"25020","ref:monument":"25020","ref:wien:kultur":"45074"}},{"type":"Feature","geometry":{"type":"LineString","coordinates":[[16.212446,48.222049],[16.212491,48.222094],[16.212435,48.222121],[16.21239,48.222077],[16.212446,48.222049]]},"properties":{"artist:wikidata":"Q213739;Q1446106","artist_name":"Heinrich Friedrich Füger;Franz Anton von Zauner","heritage":"2","heritage:operator":"bda","historic":"monument","name":"Gideon-Laudon-Grab","on_the_list:wikipedia":"de:Liste der denkmalgeschützten Objekte in Wien/Penzing#objektid-25074","ref:at:bda":"25074","ref:wien:kultur":"45093","start_date":"1791","subject:wikidata":"Q440276","tourism":"attraction","wikidata":"Q37920216"}},{"type":"Feature","geometry":{"type":"LineString","coordinates":[[16.233742,48.207695],[16.233885,48.20766],[16.233941,48.207761],[16.233926,48.207765],[16.23393,48.207771],[16.233815,48.207799],[16.233811,48.207793],[16.233798,48.207797],[16.233742,48.207695]]},"properties":{"amenity":"place_of_worship","building":"chapel","denomination":"catholic","heritage":"2","heritage:operator":"bda","historic":"monument","image":"http://commons.wikimedia.org/wiki/File:Friedhof_Hadersdorf-Weidlingau_01_.jpg","name":"Friedhofskapelle","on_the_list:wikidata":"Q1440311","on_the_list:wikipedia":"de:Liste der denkmalgeschützten Objekte in Wien/Penzing#objektid-24613","ref:AT:bda":"24613","ref:monument":"24613","religion":"christian"}},{"type":"Feature","geometry":{"type":"LineString","coordinates":[[16.359268,48.200051],[16.359424,48.200029],[16.359434,48.20006],[16.359277,48.200083]]},"properties":{"architect":"Max Hegele","architect:wikidata":"Q1912651","building:architecture":"art_nouveau","foot":"yes","handrail":"yes","heritage":"2","heritage:operator":"bda","highway":"steps","historic":"monument","incline":"up","lit":"yes","name":"Fillgraderstiege","ramp":"no","ref:at:bda":"10534","source":"wien.gv.at","start_date":"1907","step_count":"40","surface":"paving_stones","tactile_paving":"no","wikidata":"Q390534","wikipedia":"de:Fillgraderstiege"}},{"type":"Feature","geometry":{"type":"LineString","coordinates":[[16.451658,48.224429],[16.451717,48.224406],[16.45167,48.22435],[16.451609,48.224373],[16.451658,48.224429]]},"properties":{"building":"service","historic":"monument"}},{"type":"Feature","geometry":{"type":"LineString","coordinates":[[14.881187,47.541474],[14.881306,47.541449],[14.88126,47.541333],[14.881138,47.541358],[14.881187,47.541474]]},"properties":{"addr:city":"Eisenerz","addr:country":"AT","addr:housenumber":"1","addr:postcode":"8790","addr:street":"Gradsteinweg","amenity":"place_of_worship","at_bev:addr_date":"2019-10-01","building":"church","denomination":"catholic","historic":"monument","name":"Petrus Kapelle","religion":"christian"}},{"type":"Feature","geometry":{"type":"LineString","coordinates":[[15.956307,48.70039],[15.956305,48.700389],[15.956301,48.700392],[15.956303,48.700393],[15.956293,48.700419],[15.956289,48.70042],[15.95629,48.700423],[15.956293,48.700423],[15.956315,48.700447],[15.956314,48.700448],[15.956317,48.70045],[15.956319,48.700449],[15.956359,48.700455],[15.956359,48.700457],[15.956364,48.700457],[15.956364,48.700455],[15.95639,48.700443],[15.956409,48.700446],[15.95641,48.700448],[15.956416,48.700448],[15.956415,48.700445],[15.95643,48.700439],[15.956433,48.70044],[15.956436,48.700437],[15.956433,48.700436],[15.956437,48.700424],[15.956441,48.700424],[15.956441,48.700421],[15.956437,48.70042],[15.95643,48.700409],[15.956432,48.700407],[15.956427,48.700405],[15.956425,48.700407],[15.95641,48.700406],[15.956393,48.700385],[15.956395,48.700383],[15.956389,48.70038],[15.956386,48.700381],[15.956349,48.700374],[15.956348,48.700372],[15.956342,48.700372],[15.956342,48.700375],[15.956307,48.70039]]},"properties":{"building":"yes","historic":"monument","name":"Karner","wikidata":"Q37845531"}},{"type":"Feature","geometry":{"type":"LineString","coordinates":[[16.520632,48.145567],[16.520694,48.145548],[16.520777,48.145528],[16.520749,48.145522],[16.520734,48.145508],[16.520724,48.145492],[16.520724,48.145472],[16.52073,48.145459],[16.520743,48.145446],[16.520763,48.145436],[16.520788,48.14543],[16.520813,48.14543],[16.52084,48.145435],[16.520859,48.145443],[16.520869,48.145459],[16.520877,48.145476],[16.520874,48.145492],[16.520941,48.145471],[16.520919,48.145442],[16.520988,48.14542],[16.521011,48.145454],[16.52108,48.145435],[16.521133,48.145502],[16.521074,48.145523],[16.521111,48.145574],[16.521036,48.145599],[16.521013,48.145565],[16.520933,48.145597],[16.520941,48.145618],[16.520857,48.145641],[16.520843,48.14562],[16.520677,48.145659],[16.520668,48.14565],[16.520629,48.145646],[16.520609,48.145618],[16.520632,48.145567]]},"properties":{"alt_name":"Pfarrkirche Mannswörth","amenity":"place_of_worship","building":"church","denomination":"catholic","historic":"monument","holy_name":"Hl. Johannes d. Täufer","name":"Pfarrkirche","on_the_list:wikidata":"Q1266136","on_the_list:wikipedia":"de:Liste der denkmalgeschützten Objekte in Schwechat#objektid-4656","ref:monument":"4656","religion":"christian","source":"geoimage.at"}},{"type":"Feature","geometry":{"type":"LineString","coordinates":[[13.600042,47.944679],[13.600079,47.944583],[13.600209,47.944603],[13.600175,47.944696],[13.600042,47.944679]]},"properties":{"historic":"monument","name":"Kaiser Franz Joseph II. Denkmal"}},{"type":"Feature","geometry":{"type":"LineString","coordinates":[[16.370168,47.808518],[16.370184,47.808508],[16.370218,47.808532],[16.370203,47.808542],[16.370168,47.808518]]},"properties":{"alt_name":"Grab Hartig","cemetery":"grave","heritage":"2","heritage:operator":"bda","historic":"monument","image":"https://commons.wikimedia.org/wiki/File:Poettsching_-_Grab_Hartig_%2802%29.jpg","imprint":"Ruhestätte der Familie Hartig","name":"Hartig-Grab","on_the_list:wikipedia":"de:Liste der denkmalgeschützten Objekte in Pöttsching#objektid-17369","ref:at:bda":"17369","source":"geoimage.at","wikidata":"Q37858289"}},{"type":"Feature","geometry":{"type":"LineString","coordinates":[[14.361545,48.502147],[14.361564,48.502121],[14.361593,48.50213],[14.361574,48.502157],[14.361545,48.502147]]},"properties":{"historic":"monument","wikidata":"Q37867538"}},{"type":"Feature","geometry":{"type":"LineString","coordinates":[[16.367854,48.211189],[16.36778,48.211129],[16.367868,48.211081],[16.367942,48.211141],[16.367854,48.211189]]},"properties":{"artwork_type":"statue","description":"Maria (Mutter Jesu) geweihtes Standbild auf einer Säule","historic":"monument","inscription":"AMBULABIS / SUPER;IPSA / CONTERET;NON PRO TE LEX;CONCUL / CABIS","name":"Mariensäule","start_date":"1667","tourism":"artwork","wikidata":"Q1897966","wikipedia":"de:Mariensäule (Wien)"}},{"type":"Feature","geometry":{"type":"LineString","coordinates":[[13.825229,47.610683],[13.825338,47.610702],[13.825441,47.610722],[13.82539,47.610633],[13.825267,47.61061],[13.825175,47.610591],[13.825229,47.610683]]},"properties":{"building":"yes","historic":"monument","name":"Schutzbau unter Materialseilbahn"}},{"type":"Feature","geometry":{"type":"LineString","coordinates":[[16.363183,48.206739],[16.363153,48.20672],[16.36315,48.206693],[16.363202,48.206653],[16.363244,48.20665],[16.363273,48.206668],[16.363276,48.206694],[16.363222,48.206737],[16.363183,48.206739]]},"properties":{"alt_name":"Erzherzog-Carl-Denkmal","architect":"August Sicard von Sicardsburg;Eduard van der Nüll","architect:wikidata":"Q78968;Q78979","artist:wikidata":"Q470673","artist_name":"Anton Dominik von Fernkorn","description":"Equestrian statue of Field Marshal Archduke Carl - victor over Napoleon at the Battle of Aspern on 1809-05-21/22. (Source: Wien government website)","heritage":"2","heritage:operator":"bda","historic":"monument","material":"bronze","memorial":"equestrian_statue","name":"Erzherzog-Karl-Denkmal","name:de":"Erzherzog-Karl-Denkmal","name:en":"Archduke Charles of Austria memorial","name:ko":"칼 대공 기념동상","name:uk":"пам'ятник ерцгерцогу Карлу","ref:at:bda":"20126","ref:wien:kultur":"48287","start_date":"1860-05-21","subject:wikidata":"Q84201","subject:wikipedia":"de:Karl von Österreich-Teschen#Reiterdenkmal","website":"https://www.geschichtewiki.wien.gv.at/Erzherzog-Carl-Denkmal_(1)","wheelchair":"yes","wikidata":"Q21093673","wikimedia_commons":"Category:Archduke Charles monument, Vienna"}},{"type":"Feature","geometry":{"type":"LineString","coordinates":[[16.364279,48.205913],[16.364249,48.205895],[16.364248,48.20588],[16.364306,48.205837],[16.364325,48.205838],[16.364357,48.205856],[16.364357,48.205871],[16.364298,48.205913],[16.364279,48.205913]]},"properties":{"architect":"August Sicard von Sicardsburg;Eduard van der Nüll","architect:wikidata":"Q78968;Q78979","artist:wikidata":"Q470673","artist_name":"Anton Dominik von Fernkorn","heritage":"2","heritage:operator":"bda","historic":"monument","material":"bronze","memorial":"statue","name":"Prinz-Eugen-Denkmal","name:de":"Prinz-Eugen-Denkmal","name:en":"Prince Eugene of Savoy memorial","name:uk":"пам'ятник принцу Євгену Савойському","ref:at:bda":"20139","ref:wien:kultur":"48288","start_date":"1865-10-18","subject:wikidata":"Q152428","url":"https://www.wien.gv.at/wiki/index.php/Prinz-Eugen-Denkmal","wheelchair":"yes","wikidata":"Q15840990","wikimedia_commons":"Category:Prince Eugene monument, Vienna","wikipedia":"de:Prinz-Eugen-Reiterdenkmal"}},{"type":"Feature","geometry":{"type":"LineString","coordinates":[[16.094255,47.956611],[16.094267,47.956585],[16.094279,47.95656],[16.094034,47.956508],[16.094022,47.956534],[16.09401,47.956559],[16.094255,47.956611]]},"properties":{"alt_name":"Visinti-Brücke","historic":"monument","layer":"1","man_made":"bridge","name":"Aubrücke","start_date":"1927"}},{"type":"Feature","geometry":{"type":"LineString","coordinates":[[9.762473,47.201735],[9.762347,47.201614],[9.762588,47.201498],[9.762714,47.201619],[9.762473,47.201735]]},"properties":{"addr:city":"Thüringen","addr:country":"AT","addr:housenumber":"3","addr:postcode":"6712","addr:street":"Flugelin","at_bev:addr_date":"2017-10-01","building":"yes","historic":"monument","name":"Villa Falkenhorst","source":"Geoimage.at MaxRes","website":"https://www.falkenhorst.at/","wikidata":"Q17461550","wikimedia_commons":"Category:Villa_Falkenhorst","wikipedia":"de:Villa Falkenhorst"}},{"type":"Feature","geometry":{"type":"LineString","coordinates":[[13.79031,47.913705],[13.79032,47.913717],[13.790335,47.913711],[13.790325,47.9137],[13.79031,47.913705]]},"properties":{"building":"yes","historic":"monument","name":"Thomas Bernhard Gedenkstein"}},{"type":"Feature","geometry":{"type":"LineString","coordinates":[[16.352108,47.777967],[16.352098,47.77799],[16.352076,47.778012],[16.352043,47.778027],[16.35201,47.778034],[16.351969,47.778034],[16.351933,47.778027],[16.351901,47.778012],[16.35188,47.77799],[16.351868,47.777967],[16.351868,47.77794],[16.35188,47.777917],[16.351901,47.777895],[16.351933,47.77788],[16.351969,47.777874],[16.35201,47.777874],[16.352043,47.77788],[16.352076,47.777895],[16.352098,47.777917],[16.352108,47.77794],[16.352108,47.777967]]},"properties":{"historic":"monument","name":"Mondkalender","tourism":"attraction"}},{"type":"Feature","geometry":{"type":"LineString","coordinates":[[15.16867,48.00788],[15.168594,48.007862],[15.168617,48.00782],[15.168695,48.007839],[15.16867,48.00788]]},"properties":{"historic":"monument","name":"Töpper Mausoleum","wikidata":"Q37883323"}},{"type":"Feature","geometry":{"type":"LineString","coordinates":[[16.194849,47.522399],[16.194876,47.522386],[16.194895,47.522404],[16.194868,47.522417],[16.194849,47.522399]]},"properties":{"historic":"monument","name":"Kriegerdenkmal-Kapelle 1. WK"}},{"type":"Feature","geometry":{"type":"LineString","coordinates":[[14.460043,47.575109],[14.45994,47.575117],[14.459939,47.575105],[14.460041,47.575097],[14.460043,47.575109]]},"properties":{"historic":"monument"}},{"type":"Feature","geometry":{"type":"LineString","coordinates":[[15.76337,47.728469],[15.763374,47.728444],[15.763414,47.728447],[15.763409,47.728472],[15.76337,47.728469]]},"properties":{"historic":"monument","name":"Speckbacherdenkmal","ruins":"yes"}},{"type":"Feature","geometry":{"type":"LineString","coordinates":[[15.166555,48.007592],[15.166489,48.007609],[15.166516,48.007657],[15.166583,48.00764],[15.166555,48.007592]]},"properties":{"building":"yes","historic":"monument","name":"Pulverturm","wikidata":"Q37860843"}},{"type":"Feature","geometry":{"type":"LineString","coordinates":[[14.88124,47.541672],[14.881302,47.541713],[14.881358,47.541674],[14.881296,47.541633],[14.88124,47.541672]]},"properties":{"amenity":"place_of_worship","building":"church","denomination":"catholic","historic":"monument","name":"Kreuzkapelle","religion":"christian","wikidata":"Q38139477"}},{"type":"Feature","geometry":{"type":"LineString","coordinates":[[15.467432,47.077385],[15.467455,47.077352],[15.467509,47.07737],[15.467486,47.077402],[15.467432,47.077385]]},"properties":{"building":"yes","height":"3","historic":"monument","image":"http://static.kleinezeitung.at/images/uploads_h594/4/8/f/5100687/Mausoleum---Kopie_1476281253370303.jpg","name":"Mausoleum Prokesch-Osten","start_date":"1872","wikidata":"Q28970964","wikimedia_commons":"Category:Friedhof St. Leonhard (Graz)","wikipedia":"de:Friedhof St. Leonhard#Pers.C3.B6nlichkeiten .28Auswahl.29"}},{"type":"Feature","geometry":{"type":"LineString","coordinates":[[11.136748,47.221961],[11.136744,47.221968],[11.136729,47.221974],[11.136707,47.221978],[11.136702,47.221969],[11.13668,47.221965],[11.13667,47.221975],[11.136655,47.221972],[11.136645,47.22196],[11.136641,47.221943],[11.136643,47.221933],[11.13665,47.221918],[11.13667,47.221909],[11.136688,47.221905],[11.136705,47.221901],[11.136728,47.221902],[11.136748,47.22191],[11.136757,47.221919],[11.136762,47.221933],[11.136758,47.221946],[11.136748,47.221961]]},"properties":{"historic":"monument"}},{"type":"Feature","geometry":{"type":"LineString","coordinates":[[12.194107,47.549821],[12.194103,47.549826],[12.194102,47.549831],[12.194104,47.549836],[12.194109,47.54984],[12.194116,47.549843],[12.194124,47.549843],[12.194131,47.549841],[12.194138,47.549838],[12.194141,47.549833],[12.194142,47.549828],[12.194139,47.549823],[12.194134,47.549819],[12.194127,47.549817],[12.194119,47.549816],[12.194112,47.549818],[12.194107,47.549821]]},"properties":{"description":"Gut sichtbare Überreste eines Kalkofens","historic":"monument","inscription":"Bartl Lechner Besitzer der Rechau hat nach dem Brand 1905 mit seinem Kalkofen 1907 die Rechau wieder aufgebaut...","name":"Lechner Kalkofen","start_date":"1907"}},{"type":"Feature","geometry":{"type":"LineString","coordinates":[[16.61289,48.120181],[16.612987,48.12017],[16.61298,48.120143],[16.612883,48.120155],[16.61289,48.120181]]},"properties":{"historic":"monument"}},{"type":"Feature","geometry":{"type":"LineString","coordinates":[[9.87873,47.411889],[9.878771,47.411873],[9.878755,47.411854],[9.878714,47.41187],[9.87873,47.411889]]},"properties":{"description":"Seilbahnfähre Andelsbuch-Schwarzenberg (von 1873 bis 1962)","historic":"monument","name":"Denkmal Seilbahnfähre"}},{"type":"Feature","geometry":{"type":"LineString","coordinates":[[16.368952,48.204613],[16.368945,48.20459],[16.369022,48.204579],[16.369029,48.204602],[16.368952,48.204613]]},"properties":{"alt_name":"Straßenwaschender Jude","artist_name":"Alfred Hrdlicka","building":"yes","description:en":"4 piece sculpture dedicated to the victims of war & fascism. Erected on th site of Philipphof, a residential building destroyed by a 1945 allied bombing raid, killing about 300 people. (Source: Vien government website)","heritage":"2","heritage:operator":"bda","historic":"monument","name":"Mahnmal gegen Krieg und Faschismus","name:ru":"Монумент против фашизма (еврей моет улицу)","official_name":"Mahnmal gegen Krieg und Faschismus","ref:at:bda":"20932","ref:wien:kultur":"60969","start_date":"1988","website":"https://www.geschichtewiki.wien.gv.at/Mahnmal_gegen_Krieg_und_Faschismus","wheelchair":"yes","wikidata":"Q1255665","wikipedia":"de:Mahnmal gegen Krieg und Faschismus"}},{"type":"Feature","geometry":{"type":"LineString","coordinates":[[16.368508,48.204298],[16.368513,48.204305],[16.368515,48.204313],[16.368513,48.20432],[16.368481,48.204352],[16.368472,48.204357],[16.368462,48.20436],[16.368451,48.204361],[16.368439,48.204359],[16.368429,48.204355],[16.368421,48.204349],[16.368417,48.204341],[16.368417,48.204333],[16.368421,48.204325],[16.368455,48.204294],[16.368465,48.20429],[16.368477,48.204288],[16.368489,48.204289],[16.3685,48.204293],[16.368508,48.204298]]},"properties":{"alt_name":"Erzherzog-Albrecht-Denkmal","artist:wikidata":"Q1640621;Q268977","artist_name":"Karl König;Caspar von Zumbusch","artwork_type":"sculpture","building":"yes","description:en":"Equestrian statue in bronze. Made for Archduke Albrecht on the occasion of the 90th anniversary of the Battle of Aspern, in which his father Carl defeated Napoleon. (Source: Wien government website)","height":"14","heritage":"2","heritage:operator":"bda","historic":"monument","image":"https://image.ibb.co/krEKFS/IMG_5348.jpg","memorial":"equestrian_statue","name":"Reiterstandbild Erzherzog Albrecht","name:en":"Archduke Albrecht Monument","ref:at:bda":"20125","ref:wien:kultur":"47961","start_date":"1899-05-21","subject:wikidata":"Q310807","tourism":"artwork","website":"https://www.geschichtewiki.wien.gv.at/Erzherzog-Albrecht-Denkmal","wheelchair":"yes","wikidata":"Q37878660"}},{"type":"Feature","geometry":{"type":"LineString","coordinates":[[16.367125,48.206444],[16.367207,48.206486],[16.367251,48.206447],[16.367169,48.206405],[16.367125,48.206444]]},"properties":{"artist:wikidata":"Q1446106","artist_name":"Franz Anton von Zauner","description:en":"1741-1790. Holy Roman Emperor 1765-1790. Brother of Marie Antoinette. (Source: wikipedia:en)","heritage":"2","heritage:operator":"bda","historic":"monument","memorial":"statue","name":"Joseph II","name:ru":"Конная статуя святого Иосифа","name:uk":"пам'ятник кайзеру Йосипу ІІ","name:zh":"約瑟夫二世廣場","ref:at:bda":"20133","ref:wien:kultur":"48151","start_date":"1795","subject:wikidata":"Q76555","subject:wikipedia":"de:Joseph II.","wheelchair":"limited","wikidata":"Q37878789","wikimedia_commons":"Category:Emperor_Joseph_II._monument"}},{"type":"Feature","geometry":{"type":"LineString","coordinates":[[16.364958,48.207567],[16.365054,48.207622],[16.36515,48.207547],[16.365054,48.207492],[16.364958,48.207567]]},"properties":{"artist:wikidata":"Q431992","artist_name":"Pompeo Marchesi","description":"Denkmal Kaiser Franz I. am Inneren Burgplatz der Hofburg Löwelstraße in Wien","heritage":"2","heritage:operator":"bda","historic":"monument","memorial":"statue","name":"Kaiser Franz II./I.","name:etymology":"Franz II.","name:etymology:wikidata":"Q130834","name:uk":"Кайзер Франц І","ref:at:bda":"20131","ref:wien:kultur":"48302","start_date":"1846-06-16","subject:wikidata":"Q130834","wikidata":"Q28076860","wikimedia_commons":"Category:Emperor Franz I monument (Hofburg)"}},{"type":"Feature","geometry":{"type":"LineString","coordinates":[[16.379798,48.207538],[16.379799,48.207545],[16.379796,48.207552],[16.37979,48.207558],[16.379782,48.207562],[16.379772,48.207563],[16.379762,48.207563],[16.379752,48.20756],[16.379745,48.207556],[16.379728,48.207537],[16.379726,48.207531],[16.379728,48.207525],[16.379732,48.207519],[16.379738,48.207514],[16.379747,48.207512],[16.379756,48.20751],[16.379766,48.207512],[16.379774,48.207515],[16.379782,48.207519],[16.379798,48.207538]]},"properties":{"artist:wikidata":"Q1490289","artist_name":"Josef Müllner","artwork_type":"sculpture","description:en":"(1844-1910) Austrian politician, mayor of Vienna, leader & founder of the Austrian Christian Social Party. Credited with the transformation of the city of Vienna into a modern city. Bronze statue on mrble base.Source: Wikipedia.en","heritage":"2","heritage:operator":"bda","historic":"monument","inscription":"Fecit 1913-1916 Joseph Müllner","memorial":"statue","name":"Karl Lueger","ref:at:bda":"1999","ref:wien:kultur":"48297","start_date":"1926-09-19","subject:wikidata":"Q78531","tourism":"artwork","wheelchair":"yes","wikidata":"Q64512721"}},{"type":"Feature","geometry":{"type":"LineString","coordinates":[[14.786104,47.274273],[14.786121,47.274213],[14.786206,47.274224],[14.786189,47.274284],[14.786104,47.274273]]},"properties":{"denomination":"roman_catholic","heritage":"2","heritage:operator":"bda","historic":"monument","name":"Mariensäule","ref:at:bda":"80919","religion":"christian","wikidata":"Q38117977"}},{"type":"Feature","geometry":{"type":"LineString","coordinates":[[14.311922,46.624047],[14.311922,46.62401],[14.311923,46.623978],[14.312014,46.62398],[14.312017,46.624046],[14.311922,46.624047]]},"properties":{"historic":"monument","name":"Obelisk"}},{"type":"Feature","geometry":{"type":"LineString","coordinates":[[15.066691,48.7935],[15.066698,48.793485],[15.066854,48.793512],[15.066848,48.793528],[15.066691,48.7935]]},"properties":{"artist:wikidata":"Q1041190","artist_name":"Carl Wollek","description":"Monument den Gefallenen von 1914-1918 und 1939-1945","heritage":"2","heritage:operator":"bda","historic":"monument","name":"Kriegerdenkmal","ref:at:bda":"26275","start_date":"1935","wikidata":"Q37927558"}},{"type":"Feature","geometry":{"type":"LineString","coordinates":[[16.455931,47.071872],[16.456032,47.071884],[16.456047,47.071829],[16.455945,47.071817],[16.455931,47.071872]]},"properties":{"building":"yes","fixme":"Verify if this is a monument in the sense of OSM: https://wiki.openstreetmap.org/wiki/DE:Tag:historic%3Dmonument","historic":"monument"}},{"type":"Feature","geometry":{"type":"LineString","coordinates":[[15.48746,48.528274],[15.487451,48.528261],[15.487788,48.528226],[15.487799,48.528272],[15.487724,48.52828],[15.487716,48.528247],[15.48746,48.528274]]},"properties":{"access":"yes","description":"the pillars of the castle","historic":"monument"}},{"type":"Feature","geometry":{"type":"LineString","coordinates":[[16.427684,48.152451],[16.427645,48.152447],[16.427617,48.152426],[16.427623,48.152398],[16.427658,48.152383],[16.427694,48.152386],[16.42772,48.152406],[16.427719,48.152435],[16.427684,48.152451]]},"properties":{"access":"yes","historic":"monument","memorial":"war_memorial","name":"Jüdisches Kriegerdenkmal","wikidata":"Q1716812"}},{"type":"Feature","geometry":{"type":"LineString","coordinates":[[16.404031,48.189071],[16.404066,48.189095],[16.404041,48.18911],[16.404006,48.189085],[16.404031,48.189071]]},"properties":{"historic":"monument"}},{"type":"Feature","geometry":{"type":"LineString","coordinates":[[16.403944,48.189004],[16.40398,48.18903],[16.403955,48.189045],[16.403919,48.189019],[16.403944,48.189004]]},"properties":{"historic":"monument","name":"Stier"}},{"type":"Feature","geometry":{"type":"LineString","coordinates":[[16.43695,48.144469],[16.437003,48.14444],[16.437001,48.144418],[16.436979,48.144402],[16.436944,48.1444],[16.436896,48.144428],[16.4369,48.144449],[16.436924,48.144468],[16.43695,48.144469]]},"properties":{"artist:wikidata":"Q2422928","historic":"monument","name":"Denkmal für 1022 jugoslawische Kämpfer"}},{"type":"Feature","geometry":{"type":"MultiPolygon","coordinates":[[[[16.305045,48.241651],[16.305139,48.24164],[16.305161,48.241719],[16.30507,48.24173],[16.305045,48.241651]]]]},"properties":{"building":"temple","historic":"monument","image":"http://upload.wikimedia.org/wikipedia/commons/e/e1/Schlo%C3%9F_P%C3%B6tzleinsdorf_012.jpg","name":"Tempel"}},{"type":"Feature","geometry":{"type":"MultiPolygon","coordinates":[[[[15.166656,48.604573],[15.166664,48.604546],[15.166703,48.604537],[15.166733,48.604554],[15.166727,48.604583],[15.166686,48.604591],[15.166656,48.604573]]]]},"properties":{"addr:postcode":"3910","alt_name":"Pestsäule","artist:wikidata":"Q1692856","artist_name":"Johann Caspar Högl","heritage":"2","heritage:operator":"bda","historic":"monument","name":"Dreifaltigkeitssäule","ref:at:bda":"76227","source":"plan.at 2009,geoimage.at","start_date":"1727","wikidata":"Q55265983","wikimedia_commons":"Category:Dreifaltigkeitssäule Zwettl"}},{"type":"Feature","geometry":{"type":"MultiPolygon","coordinates":[[[[16.9034,48.135421],[16.90394,48.135149],[16.904079,48.135271],[16.903954,48.135334],[16.903876,48.135265],[16.90374,48.135333],[16.903757,48.135348],[16.903648,48.135403],[16.90358,48.135438],[16.903621,48.135474],[16.903679,48.135445],[16.903719,48.13548],[16.903558,48.135561],[16.9034,48.135421]]]]},"properties":{"addr:city":"Bad Deutsch-Altenburg","addr:country":"AT","addr:housenumber":"5","addr:postcode":"2405","addr:street":"Pfarrer Maurergasse","at_bev:addr_date":"2021-04-01","building":"yes","fixme":"Ist das wirklich ein historic=monument? Mit dem Namen \"Johannesstatue\"?","historic":"monument","name":"Johannesstatue","source":"plan.at 2009,geoimage.at"}},{"type":"Feature","geometry":{"type":"MultiPolygon","coordinates":[[[[16.3402,47.739686],[16.340221,47.739666],[16.340234,47.739677],[16.340221,47.739696],[16.3402,47.739686]]]]},"properties":{"historic":"monument","name":"Kriegerdenkmal"}},{"type":"Feature","geometry":{"type":"MultiPolygon","coordinates":[[[[16.779249,48.016005],[16.77927,48.015954],[16.779315,48.015962],[16.779318,48.015954],[16.77927,48.015946],[16.779279,48.015924],[16.779585,48.01598],[16.779577,48.015999],[16.779542,48.015992],[16.779539,48.015997],[16.779572,48.016003],[16.779549,48.01606],[16.779507,48.016052],[16.779487,48.016101],[16.779416,48.016089],[16.779384,48.016083],[16.779341,48.016075],[16.779268,48.016061],[16.779288,48.016013],[16.779249,48.016005]]]]},"properties":{"access":"yes","addr:postcode":"2460","heritage":"2","heritage:operator":"bda","historic":"monument","inscription":"Den im Weltkriege Gefallenen","memorial":"war_memorial","name":"Kriegerdenkmal","ref:at:bda":"29918","source":"plan.at 2009","start_date":"1916","wikidata":"Q37949181","wikimedia_commons":"File:GuentherZ 2011-01-22 0068 Bruckneudorf Kriegerdenkmal.jpg"}},{"type":"Feature","geometry":{"type":"MultiPolygon","coordinates":[[[[15.967472,47.281863],[15.967476,47.281852],[15.967611,47.281879],[15.967664,47.281868],[15.967714,47.281881],[15.967676,47.281913],[15.967663,47.28193],[15.967642,47.281939],[15.967602,47.28194],[15.967573,47.281927],[15.967557,47.281907],[15.96756,47.281881],[15.967472,47.281863]]]]},"properties":{"building":"yes","height":"6 m","historic":"monument","name":"Alleeturm","source":"plan.at 2009"}},{"type":"Feature","geometry":{"type":"MultiPolygon","coordinates":[[[[14.424501,48.022049],[14.424682,48.022028],[14.424706,48.022118],[14.424525,48.022139],[14.424501,48.022049]]]]},"properties":{"addr:city":"Sankt Ulrich bei Steyr","addr:country":"AT","addr:housenumber":"8","addr:postcode":"4400","addr:street":"Pfarrplatz","historic":"monument","name":"Friedensdenkmal","source":"plan.at 2009"}},{"type":"Feature","geometry":{"type":"MultiPolygon","coordinates":[[[[16.372481,48.217813],[16.372686,48.217679],[16.372795,48.217753],[16.372821,48.217771],[16.372625,48.217903],[16.372481,48.217813]]]]},"properties":{"addr:city":"Wien","addr:country":"AT","addr:housenumber":"26","addr:postcode":"1020","addr:street":"Obere Donaustraße","amenity":"restaurant","architect":"Otto Wagner","building":"yes","contact:website":"http://ottowagnerschuetzenhaus.at","fixme":"what should be the base level for this building to get its floor count above/below ground level?","historic":"monument","name":"Schützenhaus","opening_hours":"Mo-Fr 16:00-23:00","website":"https://www.geschichtewiki.wien.gv.at/Sch%C3%BCtzenhaus","wikidata":"Q38010979","wikipedia":"de:Wehranlage und Schleuse Kaiserbad"}},{"type":"Feature","geometry":{"type":"MultiPolygon","coordinates":[[[[16.356735,48.205702],[16.356753,48.205627],[16.356866,48.205633],[16.356903,48.20566],[16.356919,48.205695],[16.356836,48.20575],[16.356795,48.205762],[16.35675,48.205745],[16.356735,48.205702]]]]},"properties":{"artist:wikidata":"Q21032849","artist_name":"Franz Vogl","description:en":"(1790-1836) Austrian actor and dramatist. (Source: Wikipedia:en)","heritage":"2","heritage:operator":"bda","historic":"monument","name":"Ferdinand Raimund","ref:at:bda":"27448","ref:wien:kultur":"43384","start_date":"1898-06-01","subject:wikidata":"Q45025","subject:wikipedia":"de:Ferdinand Raimund","wikidata":"Q21163253"}},{"type":"Feature","geometry":{"type":"MultiPolygon","coordinates":[[[[11.403223,47.279376],[11.403252,47.279288],[11.403335,47.279233],[11.403436,47.27921],[11.403513,47.279219],[11.403557,47.279227],[11.403645,47.279275],[11.403681,47.279339],[11.403686,47.279348],[11.40367,47.279434],[11.403654,47.279446],[11.403589,47.2795],[11.403477,47.279518],[11.403353,47.279507],[11.403265,47.279456],[11.403223,47.279376]]]]},"properties":{"addr:city":"Innsbruck","addr:country":"AT","addr:housenumber":"39","addr:postcode":"6020","addr:street":"Rennweg","building":"yes","description":"ehemaliges Riesenrundgemälde","historic":"monument","name":"Rotunde"}},{"type":"Feature","geometry":{"type":"MultiPolygon","coordinates":[[[[16.494282,48.159326],[16.494342,48.159052],[16.494398,48.159059],[16.494735,48.159091],[16.494872,48.159104],[16.495085,48.159127],[16.495028,48.1594],[16.494815,48.159377],[16.494678,48.159365],[16.494282,48.159326]]]]},"properties":{"addr:city":"Wien","addr:country":"AT","addr:housenumber":"1","addr:postcode":"1110","addr:street":"1. Molostraße","building":"granary","historic":"monument","name":"Rhenus-Agrarspeicher","start_date":"1939","website":"https://www.agrarspeicher.at/standorte/wien-albern/"}},{"type":"Feature","geometry":{"type":"MultiPolygon","coordinates":[[[[16.499353,48.159857],[16.499364,48.159807],[16.499404,48.159629],[16.499417,48.15957],[16.499962,48.159625],[16.499974,48.159626],[16.500115,48.159641],[16.500126,48.159641],[16.500122,48.15966],[16.500229,48.15967],[16.500213,48.159743],[16.500107,48.159733],[16.500063,48.159928],[16.499899,48.159911],[16.499353,48.159857]]]]},"properties":{"building":"granary","historic":"monument","name":"Getreidespeicher","start_date":"1939"}},{"type":"Feature","geometry":{"type":"MultiPolygon","coordinates":[[[[16.497595,48.159683],[16.497607,48.15963],[16.497648,48.159447],[16.49766,48.159393],[16.498203,48.159448],[16.498219,48.15945],[16.498369,48.159465],[16.498306,48.159756],[16.498138,48.159739],[16.497595,48.159683]]]]},"properties":{"building":"granary","historic":"monument","name":"Getreidespeicher","start_date":"1939"}},{"type":"Feature","geometry":{"type":"MultiPolygon","coordinates":[[[[16.212321,47.343368],[16.212373,47.343257],[16.212538,47.343292],[16.212486,47.343403],[16.212321,47.343368]]]]},"properties":{"access":"yes","building":"yes","heritage":"2","heritage:operator":"bda","historic":"monument","name":"Anschlussmahnmal Oberschützen","ref:at:bda":"8303","start_date":"1939","wikidata":"Q569339","wikimedia_commons":"Category:Anschlussdenkmal Oberschützen","wikipedia":"de:Anschlussdenkmal"}},{"type":"Feature","geometry":{"type":"MultiPolygon","coordinates":[[[[13.827383,48.550208],[13.827477,48.550208],[13.827477,48.550275],[13.827383,48.550275],[13.827383,48.550208]]]]},"properties":{"addr:city":"Pfarrkirchen im Mühlkreis","addr:country":"AT","addr:housenumber":"19","addr:postcode":"4144","addr:street":"Amesedt","building":"granary","building:de":"kornhaus","historic":"monument","name":"Getreidekasten"}},{"type":"Feature","geometry":{"type":"MultiPolygon","coordinates":[[[[13.68859,47.390477],[13.688614,47.390444],[13.688625,47.390449],[13.688638,47.390433],[13.688704,47.390456],[13.688738,47.390408],[13.688751,47.390412],[13.68875,47.390415],[13.688875,47.390456],[13.688881,47.390449],[13.688931,47.390466],[13.688924,47.390476],[13.689044,47.390516],[13.689051,47.390505],[13.689117,47.390526],[13.689084,47.390571],[13.689122,47.390583],[13.689141,47.390621],[13.689114,47.390657],[13.689058,47.390671],[13.689018,47.390656],[13.688985,47.390699],[13.688925,47.390678],[13.688934,47.390666],[13.688809,47.390625],[13.688802,47.390633],[13.688754,47.390615],[13.688763,47.390605],[13.688642,47.390563],[13.688637,47.390567],[13.688622,47.390561],[13.688631,47.390549],[13.688636,47.390551],[13.688661,47.390516],[13.688591,47.390491],[13.688601,47.390481],[13.68859,47.390477]]]]},"properties":{"addr:city":"Schladming","addr:housenumber":"71","addr:postcode":"8970","addr:street":"Martin-Luther-Straße","alt_name":"Evangelische Kirche Schladming","amenity":"place_of_worship","building":"church","denomination":"lutheran","heritage":"2","heritage:operator":"bda","historic":"monument","name":"Evang. Peter-und-Paul-Kirche","name:etymology":"Simon Petrus","name:etymology:wikidata":"Q33923","on_the_list:wikipedia":"de:Liste der denkmalgeschützten Objekte in Schladming","ref:at:bda":"57568","religion":"christian","tourism":"attraction","wheelchair":"yes","wikidata":"Q2073536"}},{"type":"Feature","geometry":{"type":"MultiPolygon","coordinates":[[[[13.690351,47.392811],[13.690355,47.392693],[13.690454,47.392694],[13.690455,47.392669],[13.690525,47.39267],[13.690524,47.3927],[13.690622,47.392702],[13.690621,47.392722],[13.690701,47.392723],[13.690698,47.392795],[13.690618,47.392794],[13.690617,47.392815],[13.690544,47.392814],[13.690543,47.392828],[13.690452,47.392826],[13.690452,47.392812],[13.690351,47.392811]]]]},"properties":{"addr:city":"Schladming","addr:country":"AT","addr:housenumber":"45","addr:postcode":"8970","addr:street":"Coburgstraße","amenity":"townhall","building":"yes","heritage":"2","heritage:operator":"bda","historic":"monument","name":"Rathaus","on_the_list:wikipedia":"de:Liste der denkmalgeschützten Objekte in Schladming","ref:at:bda":"103087","wikidata":"Q37725942"}},{"type":"Feature","geometry":{"type":"MultiPolygon","coordinates":[[[[16.360569,48.204485],[16.360717,48.204377],[16.360798,48.204375],[16.360956,48.204468],[16.360963,48.204526],[16.360826,48.204634],[16.360743,48.204637],[16.360577,48.204545],[16.360569,48.204485]]]]},"properties":{"architect":"Carl von Hasenauer","artist:wikidata":"Q84541;Q268977","artist_name":"Carl von Hasenauer;Caspar von Zumbusch","description:en":"Large statue of Empress Maria Theresa with supporting figures.","height":"19.36","heritage":"2","heritage:operator":"bda","historic":"monument","name":"Maria-Theresien-Denkmal","name:en":"Maria Theresia Memorial","name:ko":"마리아 테레지아 기념상","name:ru":"Памятник Марии Терезии","name:zh":"瑪莉亞泰瑞莎雕像","ref:at:bda":"20136","ref:wien:kultur":"47989","start_date":"1888-05-13","subject:wikidata":"Q131706","tourism":"attraction","website":"https://www.geschichtewiki.wien.gv.at/Maria-Theresien-Denkmal","wikidata":"Q21234884","wikipedia":"de:Maria-Theresien-Denkmal","year_of_construction":"1887"}},{"type":"Feature","geometry":{"type":"MultiPolygon","coordinates":[[[[13.617589,47.704733],[13.617593,47.704669],[13.617688,47.704672],[13.617683,47.704736],[13.617589,47.704733]]]]},"properties":{"alt_name":"Kaiser-Franz-Josef-Warte","historic":"monument","man_made":"tower","name":"Siriuskogelwarte","start_date":"1885","tourism":"viewpoint","tower:type":"observation","wheelchair":"no","wikidata":"Q2290092","wikimedia_commons":"Category:Siriuskogelwarte"}},{"type":"Feature","geometry":{"type":"MultiPolygon","coordinates":[[[[16.352024,48.21011],[16.352074,48.209941],[16.352096,48.209944],[16.352242,48.209964],[16.352338,48.209976],[16.352446,48.209989],[16.352488,48.209995],[16.352554,48.210006],[16.352493,48.210176],[16.352047,48.210112],[16.352024,48.21011]]]]},"properties":{"historic":"monument","name":"Barockhaus zur heiligen Dreifaltigkeit"}},{"type":"Feature","geometry":{"type":"MultiPolygon","coordinates":[[[[16.369208,48.209558],[16.369418,48.209438],[16.369523,48.209495],[16.369393,48.20957],[16.369335,48.209604],[16.369293,48.209626],[16.369208,48.209558]]]]},"properties":{"building":"yes","description":"Ehemaliger Pfarrhof der Peterskirche","height":"24.5","heritage":"2","heritage:operator":"bda","historic":"monument","name":"Pfarrhof St. Peter","ref:at:bda":"40816","source":"ViennaGIS","start_date":"1697","wikidata":"Q37996211"}},{"type":"Feature","geometry":{"type":"MultiPolygon","coordinates":[[[[16.293476,48.270388],[16.293507,48.270365],[16.293532,48.27038],[16.293544,48.270377],[16.293559,48.270377],[16.293578,48.270382],[16.29359,48.270391],[16.293596,48.2704],[16.293599,48.270405],[16.293626,48.270419],[16.293583,48.270452],[16.293559,48.27044],[16.293554,48.270439],[16.293543,48.270439],[16.293535,48.270439],[16.293524,48.270437],[16.293514,48.270431],[16.293508,48.270425],[16.293504,48.270419],[16.293501,48.270413],[16.293501,48.270407],[16.293502,48.270403],[16.293476,48.270388]]]]},"properties":{"building":"yes","ele":"542","height":"27","heritage":"2","heritage:operator":"bda","historic":"monument","man_made":"tower","name":"Habsburgwarte","operator":"ÖTK","ref:at:bda":"41927","tourism":"viewpoint","tower:type":"observation","tower:type:de":"Aussichtsturm","wheelchair":"no","wikidata":"Q1567009","wikimedia_commons":"Category:Habsburgwarte","wikipedia":"de:Habsburgwarte"}},{"type":"Feature","geometry":{"type":"MultiPolygon","coordinates":[[[[11.394179,47.265676],[11.394185,47.265664],[11.394193,47.265666],[11.394196,47.26566],[11.394212,47.265664],[11.394209,47.26567],[11.394218,47.265671],[11.394213,47.265683],[11.394204,47.265681],[11.394201,47.265686],[11.394185,47.265683],[11.394188,47.265678],[11.394179,47.265676]]]]},"properties":{"building":"yes","building:colour":"#CDB0AA","building:facade:material":"stone","height":"3 m","historic":"monument"}},{"type":"Feature","geometry":{"type":"MultiPolygon","coordinates":[[[[16.233309,48.011773],[16.233337,48.011739],[16.233388,48.011759],[16.23336,48.011792],[16.233309,48.011773]]]]},"properties":{"building":"yes","historic":"monument","name":"Mozarttempel","wikidata":"Q61499984","wikimedia_commons":"Category:Mozarttempel, Kurpark Baden"}},{"type":"Feature","geometry":{"type":"MultiPolygon","coordinates":[[[[16.45712,48.221808],[16.457202,48.221751],[16.457316,48.22182],[16.457234,48.22188],[16.45712,48.221808]]]]},"properties":{"building":"yes","historic":"monument","note":"Haus steht unter Denkmalschutz"}},{"type":"Feature","geometry":{"type":"MultiPolygon","coordinates":[[[[13.913962,46.692594],[13.913979,46.692572],[13.914025,46.692559],[13.914064,46.69257],[13.914084,46.692595],[13.914078,46.692622],[13.914046,46.692642],[13.913999,46.692642],[13.913968,46.692622],[13.913962,46.692594]]]]},"properties":{"building":"yes","fixme":"tower:type","historic":"monument","man_made":"tower","name":"Englischer Turm"}},{"type":"Feature","geometry":{"type":"MultiPolygon","coordinates":[[[[14.99838,48.196523],[14.998446,48.196516],[14.998454,48.196547],[14.998388,48.196554],[14.99838,48.196523]]]]},"properties":{"building":"yes","historic":"monument"}},{"type":"Feature","geometry":{"type":"MultiPolygon","coordinates":[[[[13.844073,46.613684],[13.844079,46.613623],[13.844285,46.613643],[13.844279,46.613691],[13.844073,46.613684]]]]},"properties":{"addr:city":"Villach","addr:country":"AT","addr:housenumber":"30","addr:postcode":"9500","addr:street":"Widmanngasse","historic":"monument","name":"Eschey-Hof"}},{"type":"Feature","geometry":{"type":"MultiPolygon","coordinates":[[[[14.773086,47.962144],[14.773107,47.962124],[14.773149,47.962108],[14.773179,47.962118],[14.773192,47.962127],[14.773209,47.962145],[14.773278,47.962151],[14.773307,47.962154],[14.7733,47.962177],[14.773358,47.962201],[14.773331,47.962258],[14.773117,47.96223],[14.773114,47.962194],[14.773086,47.962168],[14.773086,47.962144]]]]},"properties":{"alt_name":"Lutherturm","building":"yes","building:colour":"#eedbc0","height":"10","heritage":"2","heritage:operator":"bda","historic":"monument","name":"Ehemalige Johanneskapelle","related:wikipedia":"de:Liste der denkmalgeschützten Objekte in Waidhofen an der Ybbs","roof:material":"roof_tiles","roof:shape":"hipped","wikidata":"Q38105026"}},{"type":"Feature","geometry":{"type":"MultiPolygon","coordinates":[[[[16.310978,48.259662],[16.310979,48.259643],[16.310987,48.259637],[16.310987,48.259631],[16.311025,48.259602],[16.311021,48.259599],[16.311056,48.259571],[16.311133,48.259612],[16.311099,48.25964],[16.311087,48.259634],[16.311047,48.259666],[16.311038,48.259665],[16.311025,48.259674],[16.310995,48.259673],[16.310978,48.259662]]]]},"properties":{"access":"no","artwork_type":"architecture","building":"chapel","heritage":"2","heritage:operator":"bda","historic":"monument","name":"Sisi-Kapelle","ref:at:bda":"23002","start_date":"1856","tourism":"artwork","wikidata":"Q877298","wikimedia_commons":"Category:Sisi-Kapelle","wikipedia":"de:Sisi-Kapelle"}},{"type":"Feature","geometry":{"type":"MultiPolygon","coordinates":[[[[13.686203,47.390614],[13.686212,47.390608],[13.686222,47.390602],[13.686236,47.390614],[13.686393,47.390525],[13.686502,47.390614],[13.68641,47.390666],[13.686326,47.390713],[13.686293,47.390687],[13.686203,47.390614]]]]},"properties":{"addr:city":"Schladming","addr:country":"AT","addr:housenumber":"110","addr:street":"Talbachgasse","building":"yes","description":"Heimatmuseum, ehem. Bruderlade (Knappenspital)","heritage":"2","heritage:operator":"bda","historic":"monument","name":"Stadtmuseum","on_the_list:wikipedia":"de:Liste der denkmalgeschützten Objekte in Schladming","ref:at:bda":"103132","source:addr":"wikipedia","tourism":"museum","website":"https://museum.schladming.at/","wikidata":"Q37726419"}},{"type":"Feature","geometry":{"type":"MultiPolygon","coordinates":[[[[14.289608,48.299781],[14.289611,48.299737],[14.289688,48.299739],[14.289685,48.299784],[14.289608,48.299781]]]]},"properties":{"alt_name":"Brunnen der Menschenrechte;Jubiläumsbrunnen Friedensplatz","amenity":"fountain","height":"2.8","historic":"monument","name":"Menschenrechtsbrunnen"}},{"type":"Feature","geometry":{"type":"MultiPolygon","coordinates":[[[[14.286409,48.305834],[14.286427,48.305825],[14.286472,48.305839],[14.286474,48.305854],[14.286433,48.305873],[14.286413,48.305867],[14.286409,48.305834]]]]},"properties":{"build_year":"1723","height":"20","heritage":"yes","historic":"monument","image":"https://commons.wikimedia.org/wiki/File:Linz_Dreifaltigkeitssaeule-04.jpg","material":"stone","name":"Dreifaltigkeitssäule","name:en":"Trinity Column","tourism":"attraction","wheelchair":"yes","wikidata":"Q1257756","wikipedia":"de:Dreifaltigkeitssäule (Linz)"}},{"type":"Feature","geometry":{"type":"MultiPolygon","coordinates":[[[[14.279487,48.304539],[14.279539,48.304477],[14.279704,48.304538],[14.279729,48.304509],[14.279797,48.304535],[14.279774,48.304562],[14.279805,48.304573],[14.27982,48.304586],[14.279825,48.304601],[14.279823,48.304614],[14.279811,48.304626],[14.279794,48.304635],[14.279773,48.304639],[14.279751,48.304637],[14.279487,48.304539]]]]},"properties":{"addr:city":"Linz","addr:country":"AT","addr:postcode":"4020","addr:street":"Römerstraße","amenity":"place_of_worship","building":"church","description":"Martinskirche ältester erhaltener Kirchenbau","historic":"monument","name":"Martinskirche","name:en":"St. Martin’s Church","religion":"christian","start_date":"799","website":"https://de.wikipedia.org/wiki/Martinskirche_%28Linz%29","wheelchair":"limited","wikidata":"Q1905704"}},{"type":"Feature","geometry":{"type":"MultiPolygon","coordinates":[[[[15.748158,47.616692],[15.74825,47.616614],[15.748385,47.616687],[15.748294,47.616765],[15.748158,47.616692]]]]},"properties":{"addr:city":"Spital am Semmering","addr:country":"AT","addr:housenumber":"1a","addr:postcode":"8684","addr:street":"Obere Bahnstraße","building":"train_station","heritage":"2","heritage:operator":"bda","historic":"monument","image":"http://commons.wikimedia.org/wiki/File:Spital_am_Semmering-Bf-02.jpg","on_the_list:wikidata":"Q1858934","on_the_list:wikipedia":"de:Liste der denkmalgeschützten Objekte in Spital am Semmering#objektid-9747","ref:AT:bda":"9747","ref:monument":"9747","source":"geoimage.at"}},{"type":"Feature","geometry":{"type":"MultiPolygon","coordinates":[[[[15.784152,47.620811],[15.784189,47.620718],[15.784448,47.620765],[15.784412,47.620857],[15.784152,47.620811]]]]},"properties":{"addr:city":"Spital am Semmering","addr:country":"AT","addr:housenumber":"7","addr:place":"Steinhaus","addr:postcode":"8685","at_bev:addr_date":"2019-10-01","building":"train_station","heritage":"2","heritage:operator":"bda","historic":"monument","image":"http://commons.wikimedia.org/wiki/File:Steinhaus-Bf-01.jpg","int_name":"Steinhaus am Semmering","name":"Bahnhof Steinhaus","on_the_list:wikipedia":"de:Liste der denkmalgeschützten Objekte in Spital am Semmering#objektid-24867","ref:AT:bda":"24867","ref:monument":"24867","source":"geoimage.at","uic_ref":"8101520"}},{"type":"Feature","geometry":{"type":"MultiPolygon","coordinates":[[[[15.748726,47.617062],[15.748828,47.616971],[15.748916,47.617015],[15.74896,47.616976],[15.749058,47.617025],[15.749001,47.617076],[15.749088,47.61712],[15.748998,47.617201],[15.748908,47.617156],[15.748882,47.617179],[15.748789,47.617132],[15.748817,47.617108],[15.748726,47.617062]]]]},"properties":{"addr:city":"Spital am Semmering","addr:country":"AT","addr:housenumber":"1","addr:postcode":"8684","addr:street":"Obere Bahnstraße","building":"yes","heritage":"2","heritage:operator":"bda","historic":"monument","image":"http://commons.wikimedia.org/wiki/File:Spital_am_Semmering-Bf-02.jpg","note":"Bahnhofsgebäude","on_the_list:wikidata":"Q1858934","on_the_list:wikipedia":"de:Liste der denkmalgeschützten Objekte in Spital am Semmering#objektid-9747","ref:AT:bda":"9747","ref:monument":"9747","source":"geoimage.at"}},{"type":"Feature","geometry":{"type":"MultiPolygon","coordinates":[[[[15.365239,46.981286],[15.365298,46.981092],[15.365426,46.98111],[15.365367,46.981304],[15.365256,46.981288],[15.365239,46.981286]]]]},"properties":{"addr:housenumber":"2","addr:street":"Haselsdorfstraße","building":"yes","heritage":"2","heritage:operator":"bda","historic":"monument","name":"Festsaalbau","on_the_list:wikidata":"Q37975882","on_the_list:wikipedia":"de:Liste der denkmalgeschützten Objekte in Haselsdorf-Tobelbad","ref:at:bda":"36664","source":"geoimage.at"}},{"type":"Feature","geometry":{"type":"MultiPolygon","coordinates":[[[[13.13456,47.07773],[13.134577,47.077707],[13.134568,47.077704],[13.134581,47.077687],[13.134615,47.077699],[13.134649,47.077653],[13.134719,47.077678],[13.134793,47.077703],[13.134758,47.07775],[13.134797,47.077763],[13.134786,47.077779],[13.134772,47.077774],[13.134755,47.077797],[13.134702,47.077779],[13.134714,47.077763],[13.134669,47.077747],[13.134626,47.077732],[13.134614,47.077749],[13.13456,47.07773]]]]},"properties":{"heritage":"2","heritage:operator":"bda","historic":"monument","image":"https://commons.wikimedia.org/wiki/File:Bad_Gastein_altes_Tunnelportal_B%C3%B6ckstein.JPG","inscription":"Francisco Josepho I. IMP. MCMIX.","man_made":"portal","name":"Altes Nordportal Tauerntunnel","ref:at:bda":"23135","source":"Bing"}},{"type":"Feature","geometry":{"type":"MultiPolygon","coordinates":[[[[15.584537,46.724898],[15.584691,46.7249],[15.584689,46.724963],[15.584553,46.724961],[15.584537,46.724898]]]]},"properties":{"building":"yes","description":"Speicher","historic":"monument","image":"http://de.wikipedia.org/w/index.php?title=Datei:Ehrenhausen_L1130881a.jpg&filetimestamp=20110920064106","on_the_list:wikidata":"Q1855494","on_the_list:wikipedia":"de:Liste der denkmalgeschützten Objekte in Ehrenhausen","source:description":"wikipedia"}},{"type":"Feature","geometry":{"type":"MultiPolygon","coordinates":[[[[15.58555,46.725643],[15.585708,46.725635],[15.585716,46.725716],[15.585695,46.725717],[15.585704,46.725802],[15.585582,46.725807],[15.585567,46.725808],[15.58555,46.725643]]]]},"properties":{"addr:city":"Ehrenhausen an der Weinstraße","addr:country":"AT","addr:housenumber":"2","addr:postcode":"8461","addr:street":"Marktplatz","amenity":"townhall","at_bev:addr_date":"2016-10-02","building":"yes","historic":"monument","image":"http://de.wikipedia.org/w/index.php?title=Datei:Ehrenhausen_018a.jpg&filetimestamp=20110920070727","name":"Marktgemeindeamt Ehrenhausen an der Weinstraße","on_the_list:wikidata":"Q1855494","on_the_list:wikipedia":"de:Liste der denkmalgeschützten Objekte in Ehrenhausen","operator":"Marktgemeinde Ehrenhausen a. d. W.","source:description":"wikipedia","townhall:type":"village"}},{"type":"Feature","geometry":{"type":"MultiPolygon","coordinates":[[[[15.584311,46.726287],[15.584395,46.726248],[15.584546,46.726375],[15.58446,46.726418],[15.584311,46.726287]]]]},"properties":{"addr:city":"Ehrenhausen an der Weinstraße","addr:country":"AT","addr:housenumber":"15a","addr:postcode":"8461","addr:street":"Heinrichskai","at_bev:addr_date":"2016-10-02","building":"yes","description":"Wohnhaus","historic":"monument","on_the_list:wikidata":"Q1855494","on_the_list:wikipedia":"de:Liste der denkmalgeschützten Objekte in Ehrenhausen"}},{"type":"Feature","geometry":{"type":"MultiPolygon","coordinates":[[[[15.584387,46.7273],[15.584504,46.727264],[15.584596,46.727402],[15.584479,46.727438],[15.584387,46.7273]]]]},"properties":{"addr:city":"Ehrenhausen an der Weinstraße","addr:country":"AT","addr:housenumber":"17","addr:postcode":"8461","addr:street":"Lutterothstraße","at_bev:addr_date":"2019-10-01","building":"yes","description":"Villa Alfred, ehem. Mauthaus","historic":"monument","image":"http://de.wikipedia.org/w/index.php?title=Datei:Ehrenhausen_Mauthaus.JPG&filetimestamp=20120308155658","on_the_list:wikidata":"Q1855494","on_the_list:wikipedia":"de:Liste der denkmalgeschützten Objekte in Ehrenhausen","source:description":"wikipedia"}},{"type":"Feature","geometry":{"type":"MultiPolygon","coordinates":[[[[13.689648,47.392237],[13.689718,47.392082],[13.690035,47.39215],[13.689926,47.392429],[13.689693,47.39239],[13.68974,47.392257],[13.689648,47.392237]]]]},"properties":{"addr:city":"Schladming","addr:country":"AT","addr:housenumber":"10","addr:postcode":"8970","addr:street":"Hauptplatz","at_bev:addr_date":"2018-04-02","building":"yes","heritage":"2","heritage:operator":"bda","historic":"monument","on_the_list:wikipedia":"de:Liste der denkmalgeschützten Objekte in Schladming","ref:at:bda":"36577","source:addr":"wikipedia","wikidata":"Q37975590"}},{"type":"Feature","geometry":{"type":"MultiPolygon","coordinates":[[[[13.686561,47.391806],[13.686606,47.391742],[13.686613,47.391745],[13.686641,47.391711],[13.686701,47.391732],[13.686705,47.391728],[13.687116,47.391871],[13.687154,47.391909],[13.687159,47.391958],[13.687127,47.392001],[13.687072,47.392026],[13.687002,47.392029],[13.686954,47.392012],[13.686929,47.392042],[13.686813,47.392006],[13.686835,47.391973],[13.686597,47.391894],[13.68664,47.391841],[13.686561,47.391806]]]]},"properties":{"addr:city":"Schladming","addr:postcode":"8970","amenity":"place_of_worship","building":"church","denomination":"roman_catholic","description":"Römisch katholische Stadtpfarrkirche heiliger Achatius","heritage":"2","heritage:operator":"bda","historic":"monument","name":"Stadtpfarrkirche St. Achaz","ref:at:bda":"57569","religion":"christian","source:description":"wikipedia","wheelchair":"yes","wikidata":"Q2327829","wikipedia":"de:Stadtpfarrkirche Schladming"}},{"type":"Feature","geometry":{"type":"MultiPolygon","coordinates":[[[[13.098102,47.05542],[13.098112,47.055408],[13.098131,47.055403],[13.098151,47.055406],[13.098164,47.055416],[13.098166,47.05543],[13.098156,47.055442],[13.098137,47.055447],[13.098117,47.055444],[13.098104,47.055434],[13.098102,47.05542]]]]},"properties":{"building":"yes","historic":"monument","name":"ehem. Bergstation Kreuzkogel-Sessellift"}},{"type":"Feature","geometry":{"type":"MultiPolygon","coordinates":[[[[15.523151,48.389097],[15.523171,48.389069],[15.523216,48.389067],[15.523242,48.389092],[15.523222,48.389119],[15.523176,48.389122],[15.523151,48.389097]]]]},"properties":{"building":"yes","historic":"monument"}},{"type":"Feature","geometry":{"type":"MultiPolygon","coordinates":[[[[15.590603,46.720823],[15.591247,46.720479],[15.591324,46.72053],[15.591741,46.720806],[15.591982,46.720966],[15.591577,46.721362],[15.590603,46.720823]]]]},"properties":{"denomination":"catholic","description":"Friedhof","historic":"monument","image":"http://de.wikipedia.org/w/index.php?title=Datei:Ehrenhausen_L1000707.jpg&filetimestamp=20110920071138","landuse":"cemetery","on_the_list:wikidata":"Q1855494","on_the_list:wikipedia":"de:Liste der denkmalgeschützten Objekte in Ehrenhausen","religion":"christian","source":"geoimage.at hires","source:description":"wikipedia"}},{"type":"Feature","geometry":{"type":"MultiPolygon","coordinates":[[[[12.932759,47.942338],[12.932761,47.942308],[12.932778,47.942291],[12.932806,47.942282],[12.932844,47.942361],[12.932814,47.942364],[12.932782,47.942358],[12.932759,47.942338]]]]},"properties":{"amenity":"place_of_worship","building":"yes","denomination":"catholic","historic":"monument","name":"Kalvarienberg Kapelle","religion":"christian","wikidata":"Q16751820"}},{"type":"Feature","geometry":{"type":"MultiPolygon","coordinates":[[[[13.689642,47.391227],[13.689698,47.391121],[13.689721,47.391127],[13.689741,47.391089],[13.689894,47.391126],[13.689873,47.391165],[13.690183,47.391209],[13.690138,47.391319],[13.689642,47.391227]]]]},"properties":{"addr:city":"Schladming","addr:country":"AT","addr:housenumber":"68","addr:postcode":"8970","addr:street":"Ritter-von-Gersdorff-Straße","at_bev:addr_date":"2018-04-02","building":"yes","description":"Ehem. Gewerkenhaus, Flecknerhaus","heritage":"2","heritage:operator":"bda","historic":"monument","ref:at:bda":"36578","source":"wikipedia; geoimage.at","wikidata":"Q37975599"}},{"type":"Feature","geometry":{"type":"MultiPolygon","coordinates":[[[[13.688554,47.390935],[13.688601,47.390852],[13.688781,47.390899],[13.688734,47.390982],[13.688554,47.390935]]]]},"properties":{"addr:city":"Schladming","addr:country":"AT","addr:housenumber":"70","addr:postcode":"8970","addr:street":"Vernouilletgasse","at_bev:addr_date":"2018-04-02","building":"yes","description":"Bürgerhaus Schratter, Tritscher","heritage":"2","heritage:operator":"bda","historic":"monument","note":"SCHRATTER","on_the_list:wikipedia":"de:Liste der denkmalgeschützten Objekte in Schladming","ref:at:bda":"46906","source":"geoimage.at","source:addr":"wikipedia","source:description":"wikipedia","wikidata":"Q38016649"}},{"type":"Feature","geometry":{"type":"MultiPolygon","coordinates":[[[[16.084908,48.55572],[16.084912,48.555713],[16.084919,48.555709],[16.084928,48.555706],[16.084942,48.555705],[16.084951,48.555708],[16.08496,48.555714],[16.084964,48.555721],[16.084964,48.555727],[16.08496,48.555733],[16.084957,48.555736],[16.084949,48.55574],[16.084941,48.555742],[16.084932,48.555743],[16.084921,48.55574],[16.084913,48.555735],[16.084909,48.55573],[16.084908,48.55572]]]]},"properties":{"historic":"monument","name":"Jahntempel","source":"geoimage.at"}},{"type":"Feature","geometry":{"type":"MultiPolygon","coordinates":[[[[13.211514,46.981176],[13.211538,46.981123],[13.211623,46.981141],[13.211619,46.98115],[13.211711,46.981169],[13.211692,46.981213],[13.211514,46.981176]]]]},"properties":{"building":"yes","historic":"monument","name":"Venezianersäge","source":"geoimage.at","tourism":"attraction"}},{"type":"Feature","geometry":{"type":"MultiPolygon","coordinates":[[[[15.753528,47.61619],[15.753561,47.616052],[15.753831,47.616081],[15.753799,47.616219],[15.753528,47.61619]]]]},"properties":{"addr:city":"Spital am Semmering","addr:country":"AT","addr:housenumber":"16","addr:postcode":"8684","addr:street":"Bundesstraße","amenity":"townhall","building":"yes","full_name":"Rathaus Spital am Semmering","heritage":"2","heritage:operator":"bda","historic":"monument","image":"http://commons.wikimedia.org/wiki/File:Rathaus_Spital.JPG","name":"Rathaus","on_the_list:wikidata":"Q1858934","on_the_list:wikipedia":"de:Liste der denkmalgeschützten Objekte in Spital am Semmering#objektid-9716","opening_hours":"Mo-Fr 08:00-12:00, Tu 15:30-17:30","ref:AT:bda":"9716","ref:monument":"9716","townhall:type":"city","website":"http://www.spitalamsemmering.com/","wheelchair":"yes"}},{"type":"Feature","geometry":{"type":"MultiPolygon","coordinates":[[[[15.777019,47.619245],[15.7771,47.619168],[15.777232,47.619231],[15.777228,47.619235],[15.777192,47.619269],[15.777151,47.619309],[15.777019,47.619245]]]]},"properties":{"addr:city":"Steinhaus am Semmering","addr:country":"AT","addr:housenumber":"1","addr:postcode":"8685","addr:street":"Bundesstraße","building":"yes","heritage":"2","heritage:operator":"bda","historic":"monument","name":"WH 187","on_the_list:wikidata":"Q1858934","on_the_list:wikipedia":"de:Liste der denkmalgeschützten Objekte in Spital am Semmering#objektid-24867","ref:AT:bda":"24867","ref:monument":"24867","source":"geoimage.at"}},{"type":"Feature","geometry":{"type":"MultiPolygon","coordinates":[[[[15.795766,47.622],[15.795817,47.621917],[15.795971,47.621959],[15.79592,47.622043],[15.795766,47.622]]]]},"properties":{"addr:city":"Spital am Semmering","addr:country":"AT","addr:housenumber":"28","addr:place":"Steinhaus","addr:postcode":"8685","at_bev:addr_date":"2019-10-01","building":"yes","heritage":"2","heritage:operator":"bda","historic":"monument","name":"WH 185","on_the_list:wikidata":"Q1858934","on_the_list:wikipedia":"de:Liste der denkmalgeschützten Objekte in Spital am Semmering#objektid-24867","ref:AT:bda":"24867","ref:monument":"24867","source":"geoimage.at"}},{"type":"Feature","geometry":{"type":"MultiPolygon","coordinates":[[[[16.228369,48.207377],[16.228397,48.207369],[16.22841,48.207387],[16.228382,48.207396],[16.228369,48.207377]]]]},"properties":{"building":"well","description":"Brunnen mit Madonna-Statue","height":"4","heritage":"2","heritage:operator":"bda","historic":"monument","image":"http://commons.wikimedia.org/wiki/File:Ursprungsbrunnen_Hadersdorf_VII.jpg","man_made":"water_well","name":"Ursprungbrunnen","on_the_list:wikidata":"Q1440311","on_the_list:wikipedia":"de:Liste der denkmalgeschützten Objekte in Wien/Penzing#objektid-25020","ref:at:bda":"25020","ref:monument":"25020","ref:wien:kultur":"45074"}},{"type":"Feature","geometry":{"type":"MultiPolygon","coordinates":[[[[16.21239,48.222077],[16.212446,48.222049],[16.212491,48.222094],[16.212435,48.222121],[16.21239,48.222077]]]]},"properties":{"artist:wikidata":"Q213739;Q1446106","artist_name":"Heinrich Friedrich Füger;Franz Anton von Zauner","heritage":"2","heritage:operator":"bda","historic":"monument","name":"Gideon-Laudon-Grab","on_the_list:wikipedia":"de:Liste der denkmalgeschützten Objekte in Wien/Penzing#objektid-25074","ref:at:bda":"25074","ref:wien:kultur":"45093","start_date":"1791","subject:wikidata":"Q440276","tourism":"attraction","wikidata":"Q37920216"}},{"type":"Feature","geometry":{"type":"MultiPolygon","coordinates":[[[[16.233742,48.207695],[16.233885,48.20766],[16.233941,48.207761],[16.233926,48.207765],[16.23393,48.207771],[16.233815,48.207799],[16.233811,48.207793],[16.233798,48.207797],[16.233742,48.207695]]]]},"properties":{"amenity":"place_of_worship","building":"chapel","denomination":"catholic","heritage":"2","heritage:operator":"bda","historic":"monument","image":"http://commons.wikimedia.org/wiki/File:Friedhof_Hadersdorf-Weidlingau_01_.jpg","name":"Friedhofskapelle","on_the_list:wikidata":"Q1440311","on_the_list:wikipedia":"de:Liste der denkmalgeschützten Objekte in Wien/Penzing#objektid-24613","ref:AT:bda":"24613","ref:monument":"24613","religion":"christian"}},{"type":"Feature","geometry":{"type":"MultiPolygon","coordinates":[[[[16.451609,48.224373],[16.45167,48.22435],[16.451717,48.224406],[16.451658,48.224429],[16.451609,48.224373]]]]},"properties":{"building":"service","historic":"monument"}},{"type":"Feature","geometry":{"type":"MultiPolygon","coordinates":[[[[14.881138,47.541358],[14.88126,47.541333],[14.881306,47.541449],[14.881187,47.541474],[14.881138,47.541358]]]]},"properties":{"addr:city":"Eisenerz","addr:country":"AT","addr:housenumber":"1","addr:postcode":"8790","addr:street":"Gradsteinweg","amenity":"place_of_worship","at_bev:addr_date":"2019-10-01","building":"church","denomination":"catholic","historic":"monument","name":"Petrus Kapelle","religion":"christian"}},{"type":"Feature","geometry":{"type":"MultiPolygon","coordinates":[[[[15.956289,48.70042],[15.956293,48.700419],[15.956303,48.700393],[15.956301,48.700392],[15.956305,48.700389],[15.956307,48.70039],[15.956342,48.700375],[15.956342,48.700372],[15.956348,48.700372],[15.956349,48.700374],[15.956386,48.700381],[15.956389,48.70038],[15.956395,48.700383],[15.956393,48.700385],[15.95641,48.700406],[15.956425,48.700407],[15.956427,48.700405],[15.956432,48.700407],[15.95643,48.700409],[15.956437,48.70042],[15.956441,48.700421],[15.956441,48.700424],[15.956437,48.700424],[15.956433,48.700436],[15.956436,48.700437],[15.956433,48.70044],[15.95643,48.700439],[15.956415,48.700445],[15.956416,48.700448],[15.95641,48.700448],[15.956409,48.700446],[15.95639,48.700443],[15.956364,48.700455],[15.956364,48.700457],[15.956359,48.700457],[15.956359,48.700455],[15.956319,48.700449],[15.956317,48.70045],[15.956314,48.700448],[15.956315,48.700447],[15.956293,48.700423],[15.95629,48.700423],[15.956289,48.70042]]]]},"properties":{"building":"yes","historic":"monument","name":"Karner","wikidata":"Q37845531"}},{"type":"Feature","geometry":{"type":"MultiPolygon","coordinates":[[[[16.520609,48.145618],[16.520632,48.145567],[16.520694,48.145548],[16.520777,48.145528],[16.520749,48.145522],[16.520734,48.145508],[16.520724,48.145492],[16.520724,48.145472],[16.52073,48.145459],[16.520743,48.145446],[16.520763,48.145436],[16.520788,48.14543],[16.520813,48.14543],[16.52084,48.145435],[16.520859,48.145443],[16.520869,48.145459],[16.520877,48.145476],[16.520874,48.145492],[16.520941,48.145471],[16.520919,48.145442],[16.520988,48.14542],[16.521011,48.145454],[16.52108,48.145435],[16.521133,48.145502],[16.521074,48.145523],[16.521111,48.145574],[16.521036,48.145599],[16.521013,48.145565],[16.520933,48.145597],[16.520941,48.145618],[16.520857,48.145641],[16.520843,48.14562],[16.520677,48.145659],[16.520668,48.14565],[16.520629,48.145646],[16.520609,48.145618]]]]},"properties":{"alt_name":"Pfarrkirche Mannswörth","amenity":"place_of_worship","building":"church","denomination":"catholic","historic":"monument","holy_name":"Hl. Johannes d. Täufer","name":"Pfarrkirche","on_the_list:wikidata":"Q1266136","on_the_list:wikipedia":"de:Liste der denkmalgeschützten Objekte in Schwechat#objektid-4656","ref:monument":"4656","religion":"christian","source":"geoimage.at"}},{"type":"Feature","geometry":{"type":"MultiPolygon","coordinates":[[[[13.600042,47.944679],[13.600079,47.944583],[13.600209,47.944603],[13.600175,47.944696],[13.600042,47.944679]]]]},"properties":{"historic":"monument","name":"Kaiser Franz Joseph II. Denkmal"}},{"type":"Feature","geometry":{"type":"MultiPolygon","coordinates":[[[[16.370168,47.808518],[16.370184,47.808508],[16.370218,47.808532],[16.370203,47.808542],[16.370168,47.808518]]]]},"properties":{"alt_name":"Grab Hartig","cemetery":"grave","heritage":"2","heritage:operator":"bda","historic":"monument","image":"https://commons.wikimedia.org/wiki/File:Poettsching_-_Grab_Hartig_%2802%29.jpg","imprint":"Ruhestätte der Familie Hartig","name":"Hartig-Grab","on_the_list:wikipedia":"de:Liste der denkmalgeschützten Objekte in Pöttsching#objektid-17369","ref:at:bda":"17369","source":"geoimage.at","wikidata":"Q37858289"}},{"type":"Feature","geometry":{"type":"MultiPolygon","coordinates":[[[[14.361545,48.502147],[14.361564,48.502121],[14.361593,48.50213],[14.361574,48.502157],[14.361545,48.502147]]]]},"properties":{"historic":"monument","wikidata":"Q37867538"}},{"type":"Feature","geometry":{"type":"MultiPolygon","coordinates":[[[[16.36778,48.211129],[16.367868,48.211081],[16.367942,48.211141],[16.367854,48.211189],[16.36778,48.211129]]]]},"properties":{"artwork_type":"statue","description":"Maria (Mutter Jesu) geweihtes Standbild auf einer Säule","historic":"monument","inscription":"AMBULABIS / SUPER;IPSA / CONTERET;NON PRO TE LEX;CONCUL / CABIS","name":"Mariensäule","start_date":"1667","tourism":"artwork","wikidata":"Q1897966","wikipedia":"de:Mariensäule (Wien)"}},{"type":"Feature","geometry":{"type":"MultiPolygon","coordinates":[[[[13.825175,47.610591],[13.825267,47.61061],[13.82539,47.610633],[13.825441,47.610722],[13.825338,47.610702],[13.825229,47.610683],[13.825175,47.610591]]]]},"properties":{"building":"yes","historic":"monument","name":"Schutzbau unter Materialseilbahn"}},{"type":"Feature","geometry":{"type":"MultiPolygon","coordinates":[[[[16.36315,48.206693],[16.363202,48.206653],[16.363244,48.20665],[16.363273,48.206668],[16.363276,48.206694],[16.363222,48.206737],[16.363183,48.206739],[16.363153,48.20672],[16.36315,48.206693]]]]},"properties":{"alt_name":"Erzherzog-Carl-Denkmal","architect":"August Sicard von Sicardsburg;Eduard van der Nüll","architect:wikidata":"Q78968;Q78979","artist:wikidata":"Q470673","artist_name":"Anton Dominik von Fernkorn","description":"Equestrian statue of Field Marshal Archduke Carl - victor over Napoleon at the Battle of Aspern on 1809-05-21/22. (Source: Wien government website)","heritage":"2","heritage:operator":"bda","historic":"monument","material":"bronze","memorial":"equestrian_statue","name":"Erzherzog-Karl-Denkmal","name:de":"Erzherzog-Karl-Denkmal","name:en":"Archduke Charles of Austria memorial","name:ko":"칼 대공 기념동상","name:uk":"пам'ятник ерцгерцогу Карлу","ref:at:bda":"20126","ref:wien:kultur":"48287","start_date":"1860-05-21","subject:wikidata":"Q84201","subject:wikipedia":"de:Karl von Österreich-Teschen#Reiterdenkmal","website":"https://www.geschichtewiki.wien.gv.at/Erzherzog-Carl-Denkmal_(1)","wheelchair":"yes","wikidata":"Q21093673","wikimedia_commons":"Category:Archduke Charles monument, Vienna"}},{"type":"Feature","geometry":{"type":"MultiPolygon","coordinates":[[[[16.364248,48.20588],[16.364306,48.205837],[16.364325,48.205838],[16.364357,48.205856],[16.364357,48.205871],[16.364298,48.205913],[16.364279,48.205913],[16.364249,48.205895],[16.364248,48.20588]]]]},"properties":{"architect":"August Sicard von Sicardsburg;Eduard van der Nüll","architect:wikidata":"Q78968;Q78979","artist:wikidata":"Q470673","artist_name":"Anton Dominik von Fernkorn","heritage":"2","heritage:operator":"bda","historic":"monument","material":"bronze","memorial":"statue","name":"Prinz-Eugen-Denkmal","name:de":"Prinz-Eugen-Denkmal","name:en":"Prince Eugene of Savoy memorial","name:uk":"пам'ятник принцу Євгену Савойському","ref:at:bda":"20139","ref:wien:kultur":"48288","start_date":"1865-10-18","subject:wikidata":"Q152428","url":"https://www.wien.gv.at/wiki/index.php/Prinz-Eugen-Denkmal","wheelchair":"yes","wikidata":"Q15840990","wikimedia_commons":"Category:Prince Eugene monument, Vienna","wikipedia":"de:Prinz-Eugen-Reiterdenkmal"}},{"type":"Feature","geometry":{"type":"MultiPolygon","coordinates":[[[[16.09401,47.956559],[16.094022,47.956534],[16.094034,47.956508],[16.094279,47.95656],[16.094267,47.956585],[16.094255,47.956611],[16.09401,47.956559]]]]},"properties":{"alt_name":"Visinti-Brücke","historic":"monument","layer":"1","man_made":"bridge","name":"Aubrücke","start_date":"1927"}},{"type":"Feature","geometry":{"type":"MultiPolygon","coordinates":[[[[9.762347,47.201614],[9.762588,47.201498],[9.762714,47.201619],[9.762473,47.201735],[9.762347,47.201614]]]]},"properties":{"addr:city":"Thüringen","addr:country":"AT","addr:housenumber":"3","addr:postcode":"6712","addr:street":"Flugelin","at_bev:addr_date":"2017-10-01","building":"yes","historic":"monument","name":"Villa Falkenhorst","source":"Geoimage.at MaxRes","website":"https://www.falkenhorst.at/","wikidata":"Q17461550","wikimedia_commons":"Category:Villa_Falkenhorst","wikipedia":"de:Villa Falkenhorst"}},{"type":"Feature","geometry":{"type":"MultiPolygon","coordinates":[[[[13.79031,47.913705],[13.790325,47.9137],[13.790335,47.913711],[13.79032,47.913717],[13.79031,47.913705]]]]},"properties":{"building":"yes","historic":"monument","name":"Thomas Bernhard Gedenkstein"}},{"type":"Feature","geometry":{"type":"MultiPolygon","coordinates":[[[[16.351868,47.77794],[16.35188,47.777917],[16.351901,47.777895],[16.351933,47.77788],[16.351969,47.777874],[16.35201,47.777874],[16.352043,47.77788],[16.352076,47.777895],[16.352098,47.777917],[16.352108,47.77794],[16.352108,47.777967],[16.352098,47.77799],[16.352076,47.778012],[16.352043,47.778027],[16.35201,47.778034],[16.351969,47.778034],[16.351933,47.778027],[16.351901,47.778012],[16.35188,47.77799],[16.351868,47.777967],[16.351868,47.77794]]]]},"properties":{"historic":"monument","name":"Mondkalender","tourism":"attraction"}},{"type":"Feature","geometry":{"type":"MultiPolygon","coordinates":[[[[15.168594,48.007862],[15.168617,48.00782],[15.168695,48.007839],[15.16867,48.00788],[15.168594,48.007862]]]]},"properties":{"historic":"monument","name":"Töpper Mausoleum","wikidata":"Q37883323"}},{"type":"Feature","geometry":{"type":"MultiPolygon","coordinates":[[[[16.194849,47.522399],[16.194876,47.522386],[16.194895,47.522404],[16.194868,47.522417],[16.194849,47.522399]]]]},"properties":{"historic":"monument","name":"Kriegerdenkmal-Kapelle 1. WK"}},{"type":"Feature","geometry":{"type":"MultiPolygon","coordinates":[[[[14.459939,47.575105],[14.460041,47.575097],[14.460043,47.575109],[14.45994,47.575117],[14.459939,47.575105]]]]},"properties":{"historic":"monument"}},{"type":"Feature","geometry":{"type":"MultiPolygon","coordinates":[[[[15.76337,47.728469],[15.763374,47.728444],[15.763414,47.728447],[15.763409,47.728472],[15.76337,47.728469]]]]},"properties":{"historic":"monument","name":"Speckbacherdenkmal","ruins":"yes"}},{"type":"Feature","geometry":{"type":"MultiPolygon","coordinates":[[[[15.166489,48.007609],[15.166555,48.007592],[15.166583,48.00764],[15.166516,48.007657],[15.166489,48.007609]]]]},"properties":{"building":"yes","historic":"monument","name":"Pulverturm","wikidata":"Q37860843"}},{"type":"Feature","geometry":{"type":"MultiPolygon","coordinates":[[[[14.88124,47.541672],[14.881296,47.541633],[14.881358,47.541674],[14.881302,47.541713],[14.88124,47.541672]]]]},"properties":{"amenity":"place_of_worship","building":"church","denomination":"catholic","historic":"monument","name":"Kreuzkapelle","religion":"christian","wikidata":"Q38139477"}},{"type":"Feature","geometry":{"type":"MultiPolygon","coordinates":[[[[15.467432,47.077385],[15.467455,47.077352],[15.467509,47.07737],[15.467486,47.077402],[15.467432,47.077385]]]]},"properties":{"building":"yes","height":"3","historic":"monument","image":"http://static.kleinezeitung.at/images/uploads_h594/4/8/f/5100687/Mausoleum---Kopie_1476281253370303.jpg","name":"Mausoleum Prokesch-Osten","start_date":"1872","wikidata":"Q28970964","wikimedia_commons":"Category:Friedhof St. Leonhard (Graz)","wikipedia":"de:Friedhof St. Leonhard#Pers.C3.B6nlichkeiten .28Auswahl.29"}},{"type":"Feature","geometry":{"type":"MultiPolygon","coordinates":[[[[11.136641,47.221943],[11.136643,47.221933],[11.13665,47.221918],[11.13667,47.221909],[11.136688,47.221905],[11.136705,47.221901],[11.136728,47.221902],[11.136748,47.22191],[11.136757,47.221919],[11.136762,47.221933],[11.136758,47.221946],[11.136748,47.221961],[11.136744,47.221968],[11.136729,47.221974],[11.136707,47.221978],[11.136702,47.221969],[11.13668,47.221965],[11.13667,47.221975],[11.136655,47.221972],[11.136645,47.22196],[11.136641,47.221943]]]]},"properties":{"historic":"monument"}},{"type":"Feature","geometry":{"type":"MultiPolygon","coordinates":[[[[12.194102,47.549831],[12.194103,47.549826],[12.194107,47.549821],[12.194112,47.549818],[12.194119,47.549816],[12.194127,47.549817],[12.194134,47.549819],[12.194139,47.549823],[12.194142,47.549828],[12.194141,47.549833],[12.194138,47.549838],[12.194131,47.549841],[12.194124,47.549843],[12.194116,47.549843],[12.194109,47.54984],[12.194104,47.549836],[12.194102,47.549831]]]]},"properties":{"description":"Gut sichtbare Überreste eines Kalkofens","historic":"monument","inscription":"Bartl Lechner Besitzer der Rechau hat nach dem Brand 1905 mit seinem Kalkofen 1907 die Rechau wieder aufgebaut...","name":"Lechner Kalkofen","start_date":"1907"}},{"type":"Feature","geometry":{"type":"MultiPolygon","coordinates":[[[[16.612883,48.120155],[16.61298,48.120143],[16.612987,48.12017],[16.61289,48.120181],[16.612883,48.120155]]]]},"properties":{"historic":"monument"}},{"type":"Feature","geometry":{"type":"MultiPolygon","coordinates":[[[[9.878714,47.41187],[9.878755,47.411854],[9.878771,47.411873],[9.87873,47.411889],[9.878714,47.41187]]]]},"properties":{"description":"Seilbahnfähre Andelsbuch-Schwarzenberg (von 1873 bis 1962)","historic":"monument","name":"Denkmal Seilbahnfähre"}},{"type":"Feature","geometry":{"type":"MultiPolygon","coordinates":[[[[16.368945,48.20459],[16.369022,48.204579],[16.369029,48.204602],[16.368952,48.204613],[16.368945,48.20459]]]]},"properties":{"alt_name":"Straßenwaschender Jude","artist_name":"Alfred Hrdlicka","building":"yes","description:en":"4 piece sculpture dedicated to the victims of war & fascism. Erected on th site of Philipphof, a residential building destroyed by a 1945 allied bombing raid, killing about 300 people. (Source: Vien government website)","heritage":"2","heritage:operator":"bda","historic":"monument","name":"Mahnmal gegen Krieg und Faschismus","name:ru":"Монумент против фашизма (еврей моет улицу)","official_name":"Mahnmal gegen Krieg und Faschismus","ref:at:bda":"20932","ref:wien:kultur":"60969","start_date":"1988","website":"https://www.geschichtewiki.wien.gv.at/Mahnmal_gegen_Krieg_und_Faschismus","wheelchair":"yes","wikidata":"Q1255665","wikipedia":"de:Mahnmal gegen Krieg und Faschismus"}},{"type":"Feature","geometry":{"type":"MultiPolygon","coordinates":[[[[16.368417,48.204333],[16.368421,48.204325],[16.368455,48.204294],[16.368465,48.20429],[16.368477,48.204288],[16.368489,48.204289],[16.3685,48.204293],[16.368508,48.204298],[16.368513,48.204305],[16.368515,48.204313],[16.368513,48.20432],[16.368481,48.204352],[16.368472,48.204357],[16.368462,48.20436],[16.368451,48.204361],[16.368439,48.204359],[16.368429,48.204355],[16.368421,48.204349],[16.368417,48.204341],[16.368417,48.204333]]]]},"properties":{"alt_name":"Erzherzog-Albrecht-Denkmal","artist:wikidata":"Q1640621;Q268977","artist_name":"Karl König;Caspar von Zumbusch","artwork_type":"sculpture","building":"yes","description:en":"Equestrian statue in bronze. Made for Archduke Albrecht on the occasion of the 90th anniversary of the Battle of Aspern, in which his father Carl defeated Napoleon. (Source: Wien government website)","height":"14","heritage":"2","heritage:operator":"bda","historic":"monument","image":"https://image.ibb.co/krEKFS/IMG_5348.jpg","memorial":"equestrian_statue","name":"Reiterstandbild Erzherzog Albrecht","name:en":"Archduke Albrecht Monument","ref:at:bda":"20125","ref:wien:kultur":"47961","start_date":"1899-05-21","subject:wikidata":"Q310807","tourism":"artwork","website":"https://www.geschichtewiki.wien.gv.at/Erzherzog-Albrecht-Denkmal","wheelchair":"yes","wikidata":"Q37878660"}},{"type":"Feature","geometry":{"type":"MultiPolygon","coordinates":[[[[16.367125,48.206444],[16.367169,48.206405],[16.367251,48.206447],[16.367207,48.206486],[16.367125,48.206444]]]]},"properties":{"artist:wikidata":"Q1446106","artist_name":"Franz Anton von Zauner","description:en":"1741-1790. Holy Roman Emperor 1765-1790. Brother of Marie Antoinette. (Source: wikipedia:en)","heritage":"2","heritage:operator":"bda","historic":"monument","memorial":"statue","name":"Joseph II","name:ru":"Конная статуя святого Иосифа","name:uk":"пам'ятник кайзеру Йосипу ІІ","name:zh":"約瑟夫二世廣場","ref:at:bda":"20133","ref:wien:kultur":"48151","start_date":"1795","subject:wikidata":"Q76555","subject:wikipedia":"de:Joseph II.","wheelchair":"limited","wikidata":"Q37878789","wikimedia_commons":"Category:Emperor_Joseph_II._monument"}},{"type":"Feature","geometry":{"type":"MultiPolygon","coordinates":[[[[16.364958,48.207567],[16.365054,48.207492],[16.36515,48.207547],[16.365054,48.207622],[16.364958,48.207567]]]]},"properties":{"artist:wikidata":"Q431992","artist_name":"Pompeo Marchesi","description":"Denkmal Kaiser Franz I. am Inneren Burgplatz der Hofburg Löwelstraße in Wien","heritage":"2","heritage:operator":"bda","historic":"monument","memorial":"statue","name":"Kaiser Franz II./I.","name:etymology":"Franz II.","name:etymology:wikidata":"Q130834","name:uk":"Кайзер Франц І","ref:at:bda":"20131","ref:wien:kultur":"48302","start_date":"1846-06-16","subject:wikidata":"Q130834","wikidata":"Q28076860","wikimedia_commons":"Category:Emperor Franz I monument (Hofburg)"}},{"type":"Feature","geometry":{"type":"MultiPolygon","coordinates":[[[[16.379726,48.207531],[16.379728,48.207525],[16.379732,48.207519],[16.379738,48.207514],[16.379747,48.207512],[16.379756,48.20751],[16.379766,48.207512],[16.379774,48.207515],[16.379782,48.207519],[16.379798,48.207538],[16.379799,48.207545],[16.379796,48.207552],[16.37979,48.207558],[16.379782,48.207562],[16.379772,48.207563],[16.379762,48.207563],[16.379752,48.20756],[16.379745,48.207556],[16.379728,48.207537],[16.379726,48.207531]]]]},"properties":{"artist:wikidata":"Q1490289","artist_name":"Josef Müllner","artwork_type":"sculpture","description:en":"(1844-1910) Austrian politician, mayor of Vienna, leader & founder of the Austrian Christian Social Party. Credited with the transformation of the city of Vienna into a modern city. Bronze statue on mrble base.Source: Wikipedia.en","heritage":"2","heritage:operator":"bda","historic":"monument","inscription":"Fecit 1913-1916 Joseph Müllner","memorial":"statue","name":"Karl Lueger","ref:at:bda":"1999","ref:wien:kultur":"48297","start_date":"1926-09-19","subject:wikidata":"Q78531","tourism":"artwork","wheelchair":"yes","wikidata":"Q64512721"}},{"type":"Feature","geometry":{"type":"MultiPolygon","coordinates":[[[[14.786104,47.274273],[14.786121,47.274213],[14.786206,47.274224],[14.786189,47.274284],[14.786104,47.274273]]]]},"properties":{"denomination":"roman_catholic","heritage":"2","heritage:operator":"bda","historic":"monument","name":"Mariensäule","ref:at:bda":"80919","religion":"christian","wikidata":"Q38117977"}},{"type":"Feature","geometry":{"type":"MultiPolygon","coordinates":[[[[14.311922,46.624047],[14.311922,46.62401],[14.311923,46.623978],[14.312014,46.62398],[14.312017,46.624046],[14.311922,46.624047]]]]},"properties":{"historic":"monument","name":"Obelisk"}},{"type":"Feature","geometry":{"type":"MultiPolygon","coordinates":[[[[15.066691,48.7935],[15.066698,48.793485],[15.066854,48.793512],[15.066848,48.793528],[15.066691,48.7935]]]]},"properties":{"artist:wikidata":"Q1041190","artist_name":"Carl Wollek","description":"Monument den Gefallenen von 1914-1918 und 1939-1945","heritage":"2","heritage:operator":"bda","historic":"monument","name":"Kriegerdenkmal","ref:at:bda":"26275","start_date":"1935","wikidata":"Q37927558"}},{"type":"Feature","geometry":{"type":"MultiPolygon","coordinates":[[[[16.455931,47.071872],[16.455945,47.071817],[16.456047,47.071829],[16.456032,47.071884],[16.455931,47.071872]]]]},"properties":{"building":"yes","fixme":"Verify if this is a monument in the sense of OSM: https://wiki.openstreetmap.org/wiki/DE:Tag:historic%3Dmonument","historic":"monument"}},{"type":"Feature","geometry":{"type":"MultiPolygon","coordinates":[[[[15.487451,48.528261],[15.487788,48.528226],[15.487799,48.528272],[15.487724,48.52828],[15.487716,48.528247],[15.48746,48.528274],[15.487451,48.528261]]]]},"properties":{"access":"yes","description":"the pillars of the castle","historic":"monument"}},{"type":"Feature","geometry":{"type":"MultiPolygon","coordinates":[[[[16.427617,48.152426],[16.427623,48.152398],[16.427658,48.152383],[16.427694,48.152386],[16.42772,48.152406],[16.427719,48.152435],[16.427684,48.152451],[16.427645,48.152447],[16.427617,48.152426]]]]},"properties":{"access":"yes","historic":"monument","memorial":"war_memorial","name":"Jüdisches Kriegerdenkmal","wikidata":"Q1716812"}},{"type":"Feature","geometry":{"type":"MultiPolygon","coordinates":[[[[16.404006,48.189085],[16.404031,48.189071],[16.404066,48.189095],[16.404041,48.18911],[16.404006,48.189085]]]]},"properties":{"historic":"monument"}},{"type":"Feature","geometry":{"type":"MultiPolygon","coordinates":[[[[16.403919,48.189019],[16.403944,48.189004],[16.40398,48.18903],[16.403955,48.189045],[16.403919,48.189019]]]]},"properties":{"historic":"monument","name":"Stier"}},{"type":"Feature","geometry":{"type":"MultiPolygon","coordinates":[[[[16.436896,48.144428],[16.436944,48.1444],[16.436979,48.144402],[16.437001,48.144418],[16.437003,48.14444],[16.43695,48.144469],[16.436924,48.144468],[16.4369,48.144449],[16.436896,48.144428]]]]},"properties":{"artist:wikidata":"Q2422928","historic":"monument","name":"Denkmal für 1022 jugoslawische Kämpfer"}}]}