{"type":"FeatureCollection","generator":"overpass-turbo","copyright":"The data included in this document is from www.openstreetmap.org. The data is made available under ODbL.","timestamp":"2024-03-08T23:39:15Z","features":[{"geometry":{"type":"Point","coordinates":[16.3541432,48.1910795]},"id":"node/1254352973","addr:city":"Wien","amenity":"townhall","addr:postcode":"1050"},{"geometry":{"type":"Point","coordinates":[16.343537,48.2461486]},"id":"node/8444982946","addr:city":"Wien","amenity":"townhall","addr:postcode":"1190"},{"geometry":{"type":"Point","coordinates":[16.4336334,48.2442434]},"id":"node/525603050","addr:city":"Wien","amenity":"townhall","addr:postcode":"1220"},{"geometry":{"type":"Point","coordinates":[16.2069006,48.3844001]},"id":"node/11540060409","addr:city":"Stockerau","amenity":"townhall","addr:postcode":"2000"},{"geometry":{"type":"Point","coordinates":[16.2323902,48.4964927]},"id":"node/3697072230","addr:city":"Großmugl","amenity":"townhall","addr:postcode":"2002"},{"geometry":{"type":"Point","coordinates":[16.2307414,48.4979855]},"id":"node/11540060386","addr:city":"Großmugl","amenity":"townhall","addr:postcode":"2002"},{"geometry":{"type":"Point","coordinates":[16.24686,48.4210259]},"id":"node/5077576749","addr:city":"Leitzersdorf","amenity":"townhall","addr:postcode":"2003"},{"geometry":{"type":"Point","coordinates":[16.2996528,48.4488125]},"id":"node/11540060392","addr:city":"Niederhollabrunn","amenity":"townhall","addr:postcode":"2004"},{"geometry":{"type":"Point","coordinates":[16.1676317,48.4300637]},"id":"node/11540060408","addr:city":"Sierndorf","amenity":"townhall","addr:postcode":"2011"},{"geometry":{"type":"Point","coordinates":[16.1196816,48.4939157]},"id":"node/11515966635","addr:city":"Göllersdorf","amenity":"townhall","addr:postcode":"2013"},{"geometry":{"type":"Point","coordinates":[16.0649021,48.6013959]},"id":"node/11515966605","addr:city":"Grabern","amenity":"townhall","addr:postcode":"2020"},{"geometry":{"type":"Point","coordinates":[16.0790953,48.5618848]},"id":"node/2190977383","addr:city":"Hollabrunn","amenity":"townhall","addr:postcode":"2020"},{"geometry":{"type":"Point","coordinates":[16.1847048,48.6723195]},"id":"node/11477088369","addr:city":"Mailberg","amenity":"townhall","addr:postcode":"2024"},{"geometry":{"type":"Point","coordinates":[16.2382944,48.6288529]},"id":"node/11515966599","addr:city":"Nappersdorf-Kammersdorf","amenity":"townhall","addr:postcode":"2033"},{"geometry":{"type":"Point","coordinates":[16.0982109,48.6261328]},"id":"node/11515966600","addr:city":"Wullersdorf","amenity":"townhall","addr:postcode":"2041"},{"geometry":{"type":"Point","coordinates":[16.0460106,48.647232]},"id":"node/9766879374","addr:city":"Guntersdorf","amenity":"townhall","addr:postcode":"2042"},{"geometry":{"type":"Point","coordinates":[15.9549847,48.6944159]},"id":"node/11515966575","addr:city":"Zellerndorf","amenity":"townhall","addr:postcode":"2051"},{"geometry":{"type":"Point","coordinates":[16.025852,48.7014908]},"id":"node/11515966577","addr:city":"Pernersdorf","amenity":"townhall","addr:postcode":"2052"},{"geometry":{"type":"Point","coordinates":[16.0997579,48.70499]},"id":"node/11515966592","addr:city":"Alberndorf im Pulkautal","amenity":"townhall","addr:postcode":"2054"},{"geometry":{"type":"Point","coordinates":[16.0777171,48.7063471]},"id":"node/4271366837","addr:city":"Haugsdorf","amenity":"townhall","addr:postcode":"2054"},{"geometry":{"type":"Point","coordinates":[16.1313563,48.7098338]},"id":"node/11515966598","addr:city":"Hadres","amenity":"townhall","addr:postcode":"2061"},{"geometry":{"type":"Point","coordinates":[16.1746127,48.7156383]},"id":"node/11515966597","addr:city":"Seefeld-Kadolz","amenity":"townhall","addr:postcode":"2062"},{"geometry":{"type":"Point","coordinates":[16.2340754,48.7065329]},"id":"node/11572471002","addr:city":"Großharras","amenity":"townhall","addr:postcode":"2063"},{"geometry":{"type":"Point","coordinates":[15.9505189,48.7574645]},"id":"node/11515966572","addr:city":"Retz","amenity":"townhall","addr:postcode":"2070"},{"geometry":{"type":"Point","coordinates":[15.908653,48.7168526]},"id":"node/2670159085","addr:city":"Schrattenthal","amenity":"townhall","addr:postcode":"2073"},{"geometry":{"type":"Point","coordinates":[15.8969923,48.7401992]},"id":"node/11515966573","addr:city":"Schrattenthal","amenity":"townhall","addr:postcode":"2073"},{"geometry":{"type":"Point","coordinates":[16.002695,48.7660881]},"id":"node/1852872730","addr:city":"Unterretzbach","amenity":"townhall","addr:postcode":"2074"},{"geometry":{"type":"Point","coordinates":[15.8430072,48.8046113]},"id":"node/11515955767","addr:city":"Hardegg","amenity":"townhall","addr:postcode":"2083"},{"geometry":{"type":"Point","coordinates":[15.8110196,48.7813871]},"id":"node/1333602860","addr:city":"Weitersfeld","amenity":"townhall","addr:postcode":"2084"},{"geometry":{"type":"Point","coordinates":[15.7157905,48.8312255]},"id":"node/11508936479","addr:city":"Langau","amenity":"townhall","addr:postcode":"2091"},{"geometry":{"type":"Point","coordinates":[15.6748883,48.7971194]},"id":"node/271768140","addr:city":"Geras","amenity":"townhall","addr:postcode":"2093"},{"geometry":{"type":"Point","coordinates":[15.6213103,48.868003]},"id":"node/459972313","addr:city":"Drosendorf-Zissersdorf","amenity":"townhall","addr:postcode":"2095"},{"geometry":{"type":"Point","coordinates":[16.3336964,48.3440733]},"id":"node/293105392","addr:city":"Korneuburg","amenity":"townhall","addr:postcode":"2100"},{"geometry":{"type":"Point","coordinates":[16.3341415,48.3473506]},"id":"node/567083215","addr:city":"Korneuburg","amenity":"townhall","addr:postcode":"2100"},{"geometry":{"type":"Point","coordinates":[16.3825706,48.3678729]},"id":"node/11540060410","addr:city":"Stetten","amenity":"townhall","addr:postcode":"2100"},{"geometry":{"type":"Point","coordinates":[16.3614793,48.3314546]},"id":"node/3394628215","addr:city":"Bisamberg","amenity":"townhall","addr:postcode":"2102"},{"geometry":{"type":"Point","coordinates":[16.4081669,48.3338243]},"id":"node/11540060411","addr:city":"Hagenbrunn","amenity":"townhall","addr:postcode":"2102"},{"geometry":{"type":"Point","coordinates":[16.3572921,48.3094497]},"id":"node/11540060425","addr:city":"Langenzersdorf","amenity":"townhall","addr:postcode":"2103"},{"geometry":{"type":"Point","coordinates":[16.255189,48.3770064]},"id":"node/3090188641","addr:city":"Spillern","amenity":"townhall","addr:postcode":"2104"},{"geometry":{"type":"Point","coordinates":[16.4149609,48.4733516]},"id":"node/1710521129","addr:city":"Großrußbach","amenity":"townhall","addr:postcode":"2114"},{"geometry":{"type":"Point","coordinates":[16.3606274,48.5275334]},"id":"node/11540060387","addr:city":"Ernstbrunn","amenity":"townhall","addr:postcode":"2115"},{"geometry":{"type":"Point","coordinates":[16.3975085,48.5521171]},"id":"node/11572471000","addr:city":"Niederleis","amenity":"townhall","addr:postcode":"2116"},{"geometry":{"type":"Point","coordinates":[16.5177217,48.3832048]},"id":"node/11572470991","addr:city":"Wolkersdorf im Weinviertel","amenity":"townhall","addr:postcode":"2120"},{"geometry":{"type":"Point","coordinates":[16.4939446,48.4003352]},"id":"node/11572470993","addr:city":"Ulrichskirchen","amenity":"townhall","addr:postcode":"2122"},{"geometry":{"type":"Point","coordinates":[16.4953119,48.4496113]},"id":"node/11572470996","addr:city":"Hautzendorf","amenity":"townhall","addr:postcode":"2123"},{"geometry":{"type":"Point","coordinates":[16.5150529,48.4196517]},"id":"node/11572470992","addr:city":"Kronberg","amenity":"townhall","addr:postcode":"2123"},{"geometry":{"type":"Point","coordinates":[16.4770729,48.4200257]},"id":"node/470968408","addr:city":"Schleinbach","amenity":"townhall","addr:postcode":"2123"},{"geometry":{"type":"Point","coordinates":[16.5261144,48.4466368]},"id":"node/2358670320","addr:city":"Traunfeld","amenity":"townhall","addr:postcode":"2123"},{"geometry":{"type":"Point","coordinates":[16.4793658,48.4799722]},"id":"node/2037226897","addr:city":"Niederkreuzstetten","amenity":"townhall","addr:postcode":"2124"},{"geometry":{"type":"Point","coordinates":[16.4928224,48.5349883]},"id":"node/477785785","addr:city":"Ladendorf","amenity":"townhall","addr:postcode":"2126"},{"geometry":{"type":"Point","coordinates":[16.5723798,48.5705652]},"id":"node/11572463625","addr:city":"Mistelbach","amenity":"townhall","addr:postcode":"2130"},{"geometry":{"type":"Point","coordinates":[16.4128789,48.6557281]},"id":"node/11572470969","addr:city":"Fallbach","amenity":"townhall","addr:postcode":"2133"},{"geometry":{"type":"Point","coordinates":[16.4859503,48.6757634]},"id":"node/11572463656","addr:city":"Staatz","amenity":"townhall","addr:postcode":"2134"},{"geometry":{"type":"Point","coordinates":[16.490566,48.7206872]},"id":"node/11572463642","addr:city":"Neudorf im Weinviertel","amenity":"townhall","addr:postcode":"2135"},{"geometry":{"type":"Point","coordinates":[16.3852528,48.7208947]},"id":"node/11572470982","addr:city":"Laa an der Thaya","amenity":"townhall","addr:postcode":"2136"},{"geometry":{"type":"Point","coordinates":[16.7230649,48.6446083]},"id":"node/11572463626","addr:city":"Großkrut","amenity":"townhall","addr:postcode":"2143"},{"geometry":{"type":"Point","coordinates":[16.7963863,48.6455761]},"id":"node/1548246857","addr:city":"Altlichtenwarth","amenity":"townhall","addr:postcode":"2144"},{"geometry":{"type":"Point","coordinates":[16.8288975,48.6279246]},"id":"node/11572463627","addr:city":"Hausbrunn","amenity":"townhall","addr:postcode":"2145"},{"geometry":{"type":"Point","coordinates":[16.496195,48.5861771]},"id":"node/11572471001","addr:city":"Asparn an der Zaya","amenity":"townhall","addr:postcode":"2151"},{"geometry":{"type":"Point","coordinates":[16.3986274,48.6154341]},"id":"node/3364626381","addr:city":"Gnadendorf","amenity":"townhall","addr:postcode":"2152"},{"geometry":{"type":"Point","coordinates":[16.2996539,48.6514739]},"id":"node/3925771639","addr:city":"Stronsdorf","amenity":"townhall","addr:postcode":"2153"},{"geometry":{"type":"Point","coordinates":[16.3803209,48.6555315]},"id":"node/11572470970","addr:city":"Gaubitsch","amenity":"townhall","addr:postcode":"2154"},{"geometry":{"type":"Point","coordinates":[16.346295,48.6656104]},"id":"node/11572470977","addr:city":"Unterstinkenbrunn","amenity":"townhall","addr:postcode":"2154"},{"geometry":{"type":"Point","coordinates":[16.5857734,48.7211864]},"id":"node/5411776566","addr:city":"Falkenstein","amenity":"townhall","addr:postcode":"2162"},{"geometry":{"type":"Point","coordinates":[16.5781975,48.7586687]},"id":"node/11572463632","addr:city":"Ottenthal","amenity":"townhall","addr:postcode":"2163"},{"geometry":{"type":"Point","coordinates":[16.4996068,48.7561387]},"id":"node/3539954394","addr:city":"Wildendürnbach","amenity":"townhall","addr:postcode":"2164"},{"geometry":{"type":"Point","coordinates":[16.6462585,48.7565804]},"id":"node/11572463631","addr:city":"Drasenhofen","amenity":"townhall","addr:postcode":"2165"},{"geometry":{"type":"Point","coordinates":[16.6294192,48.6687163]},"id":"node/628655362","addr:city":"Poysdorf","amenity":"townhall","addr:postcode":"2170"},{"geometry":{"type":"Point","coordinates":[16.6842902,48.6967826]},"id":"node/11572463630","addr:city":"Herrnbaumgarten","amenity":"townhall","addr:postcode":"2171"},{"geometry":{"type":"Point","coordinates":[16.7178916,48.7254859]},"id":"node/1126578950","addr:city":"Schrattenberg","amenity":"townhall","addr:postcode":"2172"},{"geometry":{"type":"Point","coordinates":[16.8227318,48.5994818]},"id":"node/11595263131","addr:city":"Palterndorf-Dobermannsdorf","amenity":"townhall","addr:postcode":"2181"},{"geometry":{"type":"Point","coordinates":[16.7864294,48.6021398]},"id":"node/11595263130","addr:city":"Neusiedl an der Zaya","amenity":"townhall","addr:postcode":"2183"},{"geometry":{"type":"Point","coordinates":[16.7610705,48.612463]},"id":"node/11595263129","addr:city":"Hauskirchen","amenity":"townhall","addr:postcode":"2184"},{"geometry":{"type":"Point","coordinates":[16.5880644,48.4780856]},"id":"node/2072174318","addr:city":"Gaweinstal","amenity":"townhall","addr:postcode":"2191"},{"geometry":{"type":"Point","coordinates":[16.6445439,48.5862266]},"id":"node/3523119946","addr:city":"Wilfersdorf","amenity":"townhall","addr:postcode":"2193"},{"geometry":{"type":"Point","coordinates":[16.4291388,48.3601996]},"id":"node/304205128","addr:city":"Enzersfeld","amenity":"townhall","addr:postcode":"2202"},{"geometry":{"type":"Point","coordinates":[16.4706629,48.3640057]},"id":"node/1501625118","addr:city":"Großebersdorf","amenity":"townhall","addr:postcode":"2203"},{"geometry":{"type":"Point","coordinates":[16.5411543,48.3642267]},"id":"node/414800906","addr:city":"Pillichsdorf","amenity":"townhall","addr:postcode":"2211"},{"geometry":{"type":"Point","coordinates":[16.5733239,48.3574405]},"id":"node/11572470990","addr:city":"Großengersdorf","amenity":"townhall","addr:postcode":"2212"},{"geometry":{"type":"Point","coordinates":[16.6035253,48.3596847]},"id":"node/330306955","addr:city":"Bockfließ","amenity":"townhall","addr:postcode":"2213"},{"geometry":{"type":"Point","coordinates":[16.6375278,48.3734941]},"id":"node/4362075761","addr:city":"Auersthal","amenity":"townhall","addr:postcode":"2214"},{"geometry":{"type":"Point","coordinates":[16.6349812,48.4149533]},"id":"node/11595263149","addr:city":"Groß-Schweinbarth","amenity":"townhall","addr:postcode":"2221"},{"geometry":{"type":"Point","coordinates":[16.6000785,48.4526522]},"id":"node/5278966062","addr:city":"Bad Pirawarth","amenity":"townhall","addr:postcode":"2222"},{"geometry":{"type":"Point","coordinates":[16.6524792,48.4636954]},"id":"node/11595263139","addr:city":"Hohenruppersdorf","amenity":"townhall","addr:postcode":"2223"},{"geometry":{"type":"Point","coordinates":[16.6739849,48.5024727]},"id":"node/9546888083","addr:city":"Sulz im Weinviertel","amenity":"townhall","addr:postcode":"2224"},{"geometry":{"type":"Point","coordinates":[16.7621521,48.5454119]},"id":"node/2897500801","addr:city":"Zistersdorf","amenity":"townhall","addr:postcode":"2225"},{"geometry":{"type":"Point","coordinates":[16.7168456,48.3401147]},"id":"node/11595263151","addr:city":"Gänserndorf","amenity":"townhall","addr:postcode":"2230"},{"geometry":{"type":"Point","coordinates":[16.6394672,48.3153953]},"id":"node/11595263150","addr:city":"Strasshof an der Nordbahn","amenity":"townhall","addr:postcode":"2231"},{"geometry":{"type":"Point","coordinates":[16.5375788,48.2851712]},"id":"node/9219814529","addr:city":"Aderklaa","amenity":"townhall","addr:postcode":"2232"},{"geometry":{"type":"Point","coordinates":[16.5879554,48.2785971]},"id":"node/1637688008","addr:city":"Parbasdorf","amenity":"townhall","addr:postcode":"2232"},{"geometry":{"type":"Point","coordinates":[16.6971789,48.36642]},"id":"node/3950020578","addr:city":"Schönkirchen-Reyersdorf","amenity":"townhall","addr:postcode":"2241"},{"geometry":{"type":"Point","coordinates":[16.7391635,48.3861128]},"id":"node/11595263143","addr:city":"Prottes","amenity":"townhall","addr:postcode":"2242"},{"geometry":{"type":"Point","coordinates":[16.693574,48.4025478]},"id":"node/11595263144","addr:city":"Matzen","amenity":"townhall","addr:postcode":"2243"},{"geometry":{"type":"Point","coordinates":[16.7399598,48.4646882]},"id":"node/3274531719","addr:city":"Spannberg","amenity":"townhall","addr:postcode":"2244"},{"geometry":{"type":"Point","coordinates":[16.7874634,48.4702241]},"id":"node/11595263137","addr:city":"Velm-Götzendorf","amenity":"townhall","addr:postcode":"2245"},{"geometry":{"type":"Point","coordinates":[16.7917939,48.4373139]},"id":"node/6434443477","addr:city":"Ebenthal","amenity":"townhall","addr:postcode":"2251"},{"geometry":{"type":"Point","coordinates":[16.7667568,48.3445196]},"id":"node/11595263152","addr:city":"Weikendorf","amenity":"townhall","addr:postcode":"2253"},{"geometry":{"type":"Point","coordinates":[16.8285482,48.3811161]},"id":"node/11595263140","addr:city":"Angern an der March","amenity":"townhall","addr:postcode":"2261"},{"geometry":{"type":"Point","coordinates":[16.8487653,48.4732671]},"id":"node/11595263136","addr:city":"Dürnkrut","amenity":"townhall","addr:postcode":"2263"},{"geometry":{"type":"Point","coordinates":[16.8730018,48.4980966]},"id":"node/11595263135","addr:city":"Jedenspeigen","amenity":"townhall","addr:postcode":"2264"},{"geometry":{"type":"Point","coordinates":[16.9026683,48.5397051]},"id":"node/11595263134","addr:city":"Drösing","amenity":"townhall","addr:postcode":"2265"},{"geometry":{"type":"Point","coordinates":[16.8707393,48.5599631]},"id":"node/11595263133","addr:city":"Ringelsdorf","amenity":"townhall","addr:postcode":"2272"},{"geometry":{"type":"Point","coordinates":[16.9052848,48.6063353]},"id":"node/11595263132","addr:city":"Hohenau an der March","amenity":"townhall","addr:postcode":"2273"},{"geometry":{"type":"Point","coordinates":[16.9033898,48.6443531]},"id":"node/11572463628","addr:city":"Rabensburg","amenity":"townhall","addr:postcode":"2274"},{"geometry":{"type":"Point","coordinates":[16.869427,48.6917359]},"id":"node/11572463629","addr:city":"Bernhardsthal","amenity":"townhall","addr:postcode":"2275"},{"geometry":{"type":"Point","coordinates":[16.6402946,48.2472016]},"id":"node/11595263159","addr:city":"Glinzendorf","amenity":"townhall","addr:postcode":"2280"},{"geometry":{"type":"Point","coordinates":[16.5686059,48.2458575]},"id":"node/11595323480","addr:city":"Raasdorf","amenity":"townhall","addr:postcode":"2281"},{"geometry":{"type":"Point","coordinates":[16.6206374,48.2587486]},"id":"node/11595263155","addr:city":"Großhofen","amenity":"townhall","addr:postcode":"2282"},{"geometry":{"type":"Point","coordinates":[16.631674,48.2669694]},"id":"node/11595263154","addr:city":"Markgrafneusiedl","amenity":"townhall","addr:postcode":"2282"},{"geometry":{"type":"Point","coordinates":[16.7066297,48.2654794]},"id":"node/11595263160","addr:city":"Obersiebenbrunn","amenity":"townhall","addr:postcode":"2283"},{"geometry":{"type":"Point","coordinates":[16.7450895,48.2559353]},"id":"node/3743355928","addr:city":"Untersiebenbrunn","amenity":"townhall","addr:postcode":"2284"},{"geometry":{"type":"Point","coordinates":[16.68928,48.224089]},"id":"node/1741384783","addr:city":"Leopoldsdorf im Marchfeld","amenity":"townhall","addr:postcode":"2285"},{"geometry":{"type":"Point","coordinates":[16.7840584,48.1934224]},"id":"node/11595263168","addr:city":"Haringsee","amenity":"townhall","addr:postcode":"2286"},{"geometry":{"type":"Point","coordinates":[16.8214705,48.2247245]},"id":"node/11595323469","addr:city":"Lassee","amenity":"townhall","addr:postcode":"2291"},{"geometry":{"type":"Point","coordinates":[16.8806823,48.1825028]},"id":"node/11595323476","addr:city":"Engelhartstetten","amenity":"townhall","addr:postcode":"2292"},{"geometry":{"type":"Point","coordinates":[16.9069706,48.2817391]},"id":"node/11496674447","addr:city":"Marchegg","amenity":"townhall","addr:postcode":"2293"},{"geometry":{"type":"Point","coordinates":[16.8780731,48.2423409]},"id":"node/11496654253","addr:city":"Marchegg","amenity":"townhall","addr:postcode":"2294"},{"geometry":{"type":"Point","coordinates":[16.8289331,48.3073374]},"id":"node/11595263153","addr:city":"Weiden an der March","amenity":"townhall","addr:postcode":"2295"},{"geometry":{"type":"Point","coordinates":[16.6687572,48.177853]},"id":"node/11595323477","addr:city":"Andlersdorf","amenity":"townhall","addr:postcode":"2301"},{"geometry":{"type":"Point","coordinates":[16.5506123,48.2002396]},"id":"node/11595323479","addr:city":"Groß-Enzersdorf","amenity":"townhall","addr:postcode":"2301"},{"geometry":{"type":"Point","coordinates":[16.6625092,48.1523077]},"id":"node/11595323478","addr:city":"Mannsdorf an der Donau","amenity":"townhall","addr:postcode":"2304"},{"geometry":{"type":"Point","coordinates":[16.7034481,48.146136]},"id":"node/1931809570","addr:city":"Orth an der Donau","amenity":"townhall","addr:postcode":"2304"},{"geometry":{"type":"Point","coordinates":[16.7970983,48.1452963]},"id":"node/4180615880","addr:city":"Eckartsau","amenity":"townhall","addr:postcode":"2305"},{"geometry":{"type":"Point","coordinates":[16.5267005,48.0825589]},"id":"node/1328836360","addr:city":"Rauchenwarth","amenity":"townhall","addr:postcode":"2320"},{"geometry":{"type":"Point","coordinates":[16.4757666,48.1399304]},"id":"node/11610743432","addr:city":"Schwechat","amenity":"townhall","addr:postcode":"2320"},{"geometry":{"type":"Point","coordinates":[16.4394414,48.0835452]},"id":"node/11610743443","addr:city":"Himberg","amenity":"townhall","addr:postcode":"2325"},{"geometry":{"type":"Point","coordinates":[16.4360459,48.1058113]},"id":"node/1301612261","addr:city":"Lanzendorf","amenity":"townhall","addr:postcode":"2326"},{"geometry":{"type":"Point","coordinates":[16.4224271,48.1000911]},"id":"node/1867987252","addr:city":"Maria-Lanzendorf","amenity":"townhall","addr:postcode":"2326"},{"geometry":{"type":"Point","coordinates":[16.3429168,48.1209697]},"id":"node/8228292879","addr:city":"Vösendorf","amenity":"townhall","addr:postcode":"2331"},{"geometry":{"type":"Point","coordinates":[16.281804,48.0854988]},"id":"node/11613701115","addr:city":"Mödling","amenity":"townhall","addr:postcode":"2340"},{"geometry":{"type":"Point","coordinates":[16.2835729,48.1071921]},"id":"node/11613701114","addr:city":"Brunn am Gebirge","amenity":"townhall","addr:postcode":"2345"},{"geometry":{"type":"Point","coordinates":[16.2764852,48.0458576]},"id":"node/11613701117","addr:city":"Gumpoldskirchen","amenity":"townhall","addr:postcode":"2352"},{"geometry":{"type":"Point","coordinates":[16.3128874,48.049058]},"id":"node/4653423203","addr:city":"Guntramsdorf","amenity":"townhall","addr:postcode":"2353"},{"geometry":{"type":"Point","coordinates":[16.357386,48.0682586]},"id":"node/11613701109","addr:city":"Laxenburg","amenity":"townhall","addr:postcode":"2361"},{"geometry":{"type":"Point","coordinates":[16.2518759,48.0880578]},"id":"node/11613701111","addr:city":"Hinterbrühl","amenity":"townhall","addr:postcode":"2371"},{"geometry":{"type":"Point","coordinates":[16.2378144,48.0977284]},"id":"node/11613701112","addr:city":"Gießhübl","amenity":"townhall","addr:postcode":"2372"},{"geometry":{"type":"Point","coordinates":[16.265476,48.1192066]},"id":"node/11613701113","addr:city":"Perchtoldsdorf","amenity":"townhall","addr:postcode":"2380"},{"geometry":{"type":"Point","coordinates":[16.1791085,48.154239]},"id":"node/459137616","addr:city":"Laab im Walde","amenity":"townhall","addr:postcode":"2381"},{"geometry":{"type":"Point","coordinates":[16.1945221,48.1328233]},"id":"node/189519949","addr:city":"Breitenfurt bei Wien","amenity":"townhall","addr:postcode":"2384"},{"geometry":{"type":"Point","coordinates":[16.1995447,48.1173282]},"id":"node/11613701110","addr:city":"Kaltenleutgeben","amenity":"townhall","addr:postcode":"2391"},{"geometry":{"type":"Point","coordinates":[16.1386974,48.1020212]},"id":"node/7890790054","addr:city":"Sulz im Wienerwald","amenity":"townhall","addr:postcode":"2392"},{"geometry":{"type":"Point","coordinates":[16.6114059,48.1182835]},"id":"node/11610743450","addr:city":"Fischamend","amenity":"townhall","addr:postcode":"2401"},{"geometry":{"type":"Point","coordinates":[16.690971,48.1108206]},"id":"node/6715515022","addr:city":"Maria Ellend","amenity":"townhall","addr:postcode":"2402"},{"geometry":{"type":"Point","coordinates":[16.8017546,48.0925375]},"id":"node/1616015932","addr:city":"Scharndorf","amenity":"townhall","addr:postcode":"2403"},{"geometry":{"type":"Point","coordinates":[16.8677242,48.1145095]},"id":"node/11610750470","addr:city":"Petronell-Carnuntum","amenity":"townhall","addr:postcode":"2404"},{"geometry":{"type":"Point","coordinates":[16.9049703,48.1338797]},"id":"node/11610750472","addr:city":"Bad Deutsch-Altenburg","amenity":"townhall","addr:postcode":"2405"},{"geometry":{"type":"Point","coordinates":[16.9397643,48.1182645]},"id":"node/6741848811","addr:city":"Hundsheim","amenity":"townhall","addr:postcode":"2405"},{"geometry":{"type":"Point","coordinates":[16.9419228,48.1477259]},"id":"node/326387025","addr:city":"Hainburg a.d. Donau","amenity":"townhall","addr:postcode":"2410"},{"geometry":{"type":"Point","coordinates":[17.0093988,48.1356615]},"id":"node/11610750478","addr:city":"Wolfsthal","amenity":"townhall","addr:postcode":"2412"},{"geometry":{"type":"Point","coordinates":[17.0390287,48.1033401]},"id":"node/3673470565","addr:city":"Berg","amenity":"townhall","addr:postcode":"2413"},{"geometry":{"type":"Point","coordinates":[17.006625,47.981149]},"id":"node/5901826703","addr:city":"Zurndorf","amenity":"townhall","addr:postcode":"2424"},{"geometry":{"type":"Point","coordinates":[16.6066214,48.082533]},"id":"node/440880542","addr:city":"Enzersdorf an der Fischa","amenity":"townhall","addr:postcode":"2431"},{"geometry":{"type":"Point","coordinates":[16.6056968,48.0918632]},"id":"node/11610743449","addr:city":"Klein-Neusiedl","amenity":"townhall","addr:postcode":"2431"},{"geometry":{"type":"Point","coordinates":[16.5813142,48.0696468]},"id":"node/6660782356","addr:city":"Schwadorf","amenity":"townhall","addr:postcode":"2432"},{"geometry":{"type":"Point","coordinates":[16.581172,48.0146414]},"id":"node/11610743453","addr:city":"Götzendorf an der Leitha","amenity":"townhall","addr:postcode":"2434"},{"geometry":{"type":"Point","coordinates":[16.5203039,48.046795]},"id":"node/1862583508","addr:city":"Ebergassing","amenity":"townhall","addr:postcode":"2435"},{"geometry":{"type":"Point","coordinates":[16.5265355,47.9982897]},"id":"node/11640412398","addr:city":"Reisenberg","amenity":"townhall","addr:postcode":"2440"},{"geometry":{"type":"Point","coordinates":[16.4700454,47.9976804]},"id":"node/11640412396","addr:city":"Mitterndorf an der Fischa","amenity":"townhall","addr:postcode":"2441"},{"geometry":{"type":"Point","coordinates":[16.4763205,47.9393164]},"id":"node/11640412397","addr:city":"Deutsch Brodersdorf","amenity":"townhall","addr:postcode":"2443"},{"geometry":{"type":"Point","coordinates":[16.5477192,47.9072457]},"id":"node/3414774986","addr:city":"Stotzing","amenity":"townhall","addr:postcode":"2443"},{"geometry":{"type":"Point","coordinates":[16.5566252,47.9248049]},"id":"node/3191419735","addr:city":"Au am Leithaberge","amenity":"townhall","addr:postcode":"2451"},{"geometry":{"type":"Point","coordinates":[16.5788205,47.9438516]},"id":"node/10251452236","addr:city":"Hof am Leithaberge","amenity":"townhall","addr:postcode":"2451"},{"geometry":{"type":"Point","coordinates":[16.6037888,47.9744955]},"id":"node/1141132165","addr:city":"Mannersdorf am Leithagebirge","amenity":"townhall","addr:postcode":"2452"},{"geometry":{"type":"Point","coordinates":[16.6588552,47.9914445]},"id":"node/8581906191","addr:city":"Sommerein","amenity":"townhall","addr:postcode":"2453"},{"geometry":{"type":"Point","coordinates":[16.6352051,48.0215407]},"id":"node/11610743465","addr:city":"Trautmannsdorf an der Leitha","amenity":"townhall","addr:postcode":"2454"},{"geometry":{"type":"Point","coordinates":[16.7795903,48.0254703]},"id":"node/9802174957","addr:city":"Bruck an der Leitha","amenity":"townhall","addr:postcode":"2460"},{"geometry":{"type":"Point","coordinates":[16.7375733,48.060202]},"id":"node/11610743468","addr:city":"Göttlesbrunn-Arbesthal","amenity":"townhall","addr:postcode":"2464"},{"geometry":{"type":"Point","coordinates":[16.7871833,48.067879]},"id":"node/477268496","addr:city":"Höflein","amenity":"townhall","addr:postcode":"2465"},{"geometry":{"type":"Point","coordinates":[16.8587973,48.066008]},"id":"node/11610750471","addr:city":"Rohrau","amenity":"townhall","addr:postcode":"2471"},{"geometry":{"type":"Point","coordinates":[16.9523496,48.0751057]},"id":"node/3673440191","addr:city":"Prellenkirchen","amenity":"townhall","addr:postcode":"2472"},{"geometry":{"type":"Point","coordinates":[16.9302099,48.0152649]},"id":"node/410869583","amenity":"townhall","addr:postcode":"2475"},{"geometry":{"type":"Point","coordinates":[16.3993558,47.9627403]},"id":"node/11640412395","addr:city":"Ebreichsdorf","amenity":"townhall","addr:postcode":"2483"},{"geometry":{"type":"Point","coordinates":[16.3951156,47.9068935]},"id":"node/1578088592","addr:city":"Pottendorf","amenity":"townhall","addr:postcode":"2486"},{"geometry":{"type":"Point","coordinates":[16.3723877,47.8766145]},"id":"node/3081662500","addr:city":"Ebenfurth","amenity":"townhall","addr:postcode":"2490"},{"geometry":{"type":"Point","coordinates":[16.3770749,47.8661671]},"id":"node/4612168595","amenity":"townhall","addr:postcode":"2491"},{"geometry":{"type":"Point","coordinates":[16.3199801,47.8569614]},"id":"node/9676987365","addr:city":"Eggendorf","amenity":"townhall","addr:postcode":"2492"},{"geometry":{"type":"Point","coordinates":[16.3261054,47.8537361]},"id":"node/3085980351","addr:city":"Zillingdorf","amenity":"townhall","addr:postcode":"2492"},{"geometry":{"type":"Point","coordinates":[16.2920938,47.835361]},"id":"node/3085979540","addr:city":"Lichtenwörth","amenity":"townhall","addr:postcode":"2493"},{"geometry":{"type":"Point","coordinates":[16.2340915,48.0078166]},"id":"node/11640412385","addr:city":"Baden","amenity":"townhall","addr:postcode":"2500"},{"geometry":{"type":"Point","coordinates":[16.2154888,47.9846919]},"id":"node/4092706370","addr:city":"Sooß","amenity":"townhall","addr:postcode":"2504"},{"geometry":{"type":"Point","coordinates":[16.2657751,48.017469]},"id":"node/1639394846","addr:city":"Pfaffstätten","amenity":"townhall","addr:postcode":"2511"},{"geometry":{"type":"Point","coordinates":[16.2954137,48.0135847]},"id":"node/1379046698","addr:city":"Traiskirchen","amenity":"townhall","addr:postcode":"2514"},{"geometry":{"type":"Point","coordinates":[16.3417393,47.9958703]},"id":"node/11640412392","addr:city":"Trumau","amenity":"townhall","addr:postcode":"2521"},{"geometry":{"type":"Point","coordinates":[16.3163039,47.9693574]},"id":"node/9457792028","addr:city":"Oberwaltersdorf","amenity":"townhall","addr:postcode":"2522"},{"geometry":{"type":"Point","coordinates":[16.3027239,47.9567964]},"id":"node/11640412390","addr:city":"Tattendorf","amenity":"townhall","addr:postcode":"2523"},{"geometry":{"type":"Point","coordinates":[16.2831136,47.9485227]},"id":"node/11640412389","addr:city":"Teesdorf","amenity":"townhall","addr:postcode":"2524"},{"geometry":{"type":"Point","coordinates":[16.2610383,47.942397]},"id":"node/11640412388","addr:city":"Günselsdorf","amenity":"townhall","addr:postcode":"2525"},{"geometry":{"type":"Point","coordinates":[16.2546104,47.9343604]},"id":"node/11640412387","addr:city":"Schönau an der Triesting","amenity":"townhall","addr:postcode":"2525"},{"geometry":{"type":"Point","coordinates":[16.206843,48.0557275]},"id":"node/11613701116","addr:city":"Gaaden","amenity":"townhall","addr:postcode":"2531"},{"geometry":{"type":"Point","coordinates":[16.1295041,48.0566024]},"id":"node/11640412371","addr:city":"Heiligenkreuz","amenity":"townhall","addr:postcode":"2532"},{"geometry":{"type":"Point","coordinates":[16.0149363,48.0882961]},"id":"node/11640412370","addr:city":"Klausen-Leopoldsdorf","amenity":"townhall","addr:postcode":"2533"},{"geometry":{"type":"Point","coordinates":[16.0783223,48.0575948]},"id":"node/1488639317","addr:city":"Alland","amenity":"townhall","addr:postcode":"2534"},{"geometry":{"type":"Point","coordinates":[16.2151064,47.9655045]},"id":"node/250748980","addr:city":"Bad Vöslau","amenity":"townhall","addr:postcode":"2540"},{"geometry":{"type":"Point","coordinates":[16.2295908,47.9516243]},"id":"node/11640412384","addr:city":"Kottingbrunn","amenity":"townhall","addr:postcode":"2542"},{"geometry":{"type":"Point","coordinates":[16.2172057,47.9286698]},"id":"node/11640412383","addr:city":"Leobersdorf","amenity":"townhall","addr:postcode":"2544"},{"geometry":{"type":"Point","coordinates":[16.1859298,47.9209088]},"id":"node/11640412382","addr:city":"Enzesfeld","amenity":"townhall","addr:postcode":"2551"},{"geometry":{"type":"Point","coordinates":[16.1760396,47.9298236]},"id":"node/1157671342","addr:city":"Hirtenberg","amenity":"townhall","addr:postcode":"2552"},{"geometry":{"type":"Point","coordinates":[16.1087734,47.9458916]},"id":"node/11640412373","addr:city":"Berndorf","amenity":"townhall","addr:postcode":"2560"},{"geometry":{"type":"Point","coordinates":[16.0859354,47.9262104]},"id":"node/1255451550","addr:city":"Grillenberg","amenity":"townhall","addr:postcode":"2561"},{"geometry":{"type":"Point","coordinates":[16.0973236,47.9586205]},"id":"node/2748325355","addr:city":"Pottenstein","amenity":"townhall","addr:postcode":"2563"},{"geometry":{"type":"Point","coordinates":[15.9741948,47.9728218]},"id":"node/6537015304","addr:city":"Furth an der Triesting","amenity":"townhall","addr:postcode":"2564"},{"geometry":{"type":"Point","coordinates":[16.0387328,47.9822713]},"id":"node/11640412372","addr:city":"Weissenbach an der Triesting","amenity":"townhall","addr:postcode":"2564"},{"geometry":{"type":"Point","coordinates":[15.8977913,48.024048]},"id":"node/416089605","addr:city":"Kaumberg","amenity":"townhall","addr:postcode":"2572"},{"geometry":{"type":"Point","coordinates":[16.2505295,47.8972699]},"id":"node/3081906729","addr:city":"Sollenau","amenity":"townhall","addr:postcode":"2601"},{"geometry":{"type":"Point","coordinates":[16.303002,47.9269023]},"id":"node/9310186783","addr:city":"Blumau-Neurißhof","amenity":"townhall","addr:postcode":"2602"},{"geometry":{"type":"Point","coordinates":[16.2425861,47.881999]},"id":"node/11646605364","addr:city":"Felixdorf","amenity":"townhall","addr:postcode":"2603"},{"geometry":{"type":"Point","coordinates":[16.2483783,47.8611043]},"id":"node/3081906730","addr:city":"Theresienfeld","amenity":"townhall","addr:postcode":"2604"},{"geometry":{"type":"Point","coordinates":[16.1036961,47.7114014]},"id":"node/3090436184","addr:city":"Natschbach","amenity":"townhall","addr:postcode":"2620"},{"geometry":{"type":"Point","coordinates":[16.081541,47.7206908]},"id":"node/305123602","addr:city":"Neunkirchen","amenity":"townhall","addr:postcode":"2620"},{"geometry":{"type":"Point","coordinates":[16.0749569,47.6926617]},"id":"node/1373653268","addr:city":"Wartmannstetten","amenity":"townhall","addr:postcode":"2620"},{"geometry":{"type":"Point","coordinates":[16.1413041,47.7331067]},"id":"node/3090436183","addr:city":"Breitenau","amenity":"townhall","addr:postcode":"2624"},{"geometry":{"type":"Point","coordinates":[16.1691399,47.7318011]},"id":"node/3090436680","addr:city":"Schwarzau am Steinfeld","amenity":"townhall","addr:postcode":"2625"},{"geometry":{"type":"Point","coordinates":[15.9839205,47.6966677]},"id":"node/11665310643","addr:city":"Buchbach","amenity":"townhall","addr:postcode":"2630"},{"geometry":{"type":"Point","coordinates":[15.9646328,47.7202167]},"id":"node/11665310632","addr:city":"Bürg-Vöstenhof","amenity":"townhall","addr:postcode":"2630"},{"geometry":{"type":"Point","coordinates":[16.0192052,47.7067291]},"id":"node/4252959538","addr:city":"Ternitz","amenity":"townhall","addr:postcode":"2630"},{"geometry":{"type":"Point","coordinates":[16.0158898,47.6599766]},"id":"node/4876707428","addr:city":"Altendorf","amenity":"townhall","addr:postcode":"2632"},{"geometry":{"type":"Point","coordinates":[16.0062687,47.6837503]},"id":"node/11665310657","addr:city":"Grafenbach-St. Valentin","amenity":"townhall","addr:postcode":"2632"},{"geometry":{"type":"Point","coordinates":[16.0270545,47.6998765]},"id":"node/11665310638","addr:city":"Wimpassing im Schwarzatale","amenity":"townhall","addr:postcode":"2632"},{"geometry":{"type":"Point","coordinates":[15.9534734,47.6688088]},"id":"node/775321119","addr:city":"Enzenreith","amenity":"townhall","addr:postcode":"2640"},{"geometry":{"type":"Point","coordinates":[15.9354155,47.6747687]},"id":"node/11665310644","addr:city":"Gloggnitz","amenity":"townhall","addr:postcode":"2640"},{"geometry":{"type":"Point","coordinates":[15.9280957,47.7031428]},"id":"node/11665310633","addr:city":"Prigglitz","amenity":"townhall","addr:postcode":"2640"},{"geometry":{"type":"Point","coordinates":[15.9303092,47.6432078]},"id":"node/11665310629","addr:city":"Raach am Hochgebirge","amenity":"townhall","addr:postcode":"2640"},{"geometry":{"type":"Point","coordinates":[15.8725289,47.6573856]},"id":"node/2613120759","addr:city":"Schottwien","amenity":"townhall","addr:postcode":"2641"},{"geometry":{"type":"Point","coordinates":[15.8629681,47.6918697]},"id":"node/1234615256","addr:city":"Payerbach","amenity":"townhall","addr:postcode":"2650"},{"geometry":{"type":"Point","coordinates":[15.843122,47.6957867]},"id":"node/11665310634","addr:city":"Reichenau an der Rax","amenity":"townhall","addr:postcode":"2651"},{"geometry":{"type":"Point","coordinates":[15.7050835,47.8131428]},"id":"node/11665310635","addr:city":"Schwarzau im Gebirge","amenity":"townhall","addr:postcode":"2662"},{"geometry":{"type":"Point","coordinates":[15.7359118,47.8954573]},"id":"node/1292839061","addr:city":"Rohr im Gebirge","amenity":"townhall","addr:postcode":"2663"},{"geometry":{"type":"Point","coordinates":[15.8212101,47.659446]},"id":"node/675123693","addr:city":"Breitenstein","amenity":"townhall","addr:postcode":"2673"},{"geometry":{"type":"Point","coordinates":[15.8303078,47.6331212]},"id":"node/11665310654","addr:city":"Semmering","amenity":"townhall","addr:postcode":"2680"},{"geometry":{"type":"Point","coordinates":[16.2435884,47.8127023]},"id":"node/464572615","addr:city":"Wiener Neustadt","amenity":"townhall","addr:postcode":"2700"},{"geometry":{"type":"Point","coordinates":[16.1666494,47.8317436]},"id":"node/11646605339","addr:city":"Bad Fischau-Brunn","amenity":"townhall","addr:postcode":"2721"},{"geometry":{"type":"Point","coordinates":[16.143164,47.8056917]},"id":"node/3086008419","addr:city":"Weikersdorf am Steinfelde","amenity":"townhall","addr:postcode":"2722"},{"geometry":{"type":"Point","coordinates":[16.1120047,47.8090174]},"id":"node/11646605340","addr:city":"Winzendorf","amenity":"townhall","addr:postcode":"2722"},{"geometry":{"type":"Point","coordinates":[16.0532342,47.820223]},"id":"node/11646605341","addr:city":"Hohe Wand","amenity":"townhall","addr:postcode":"2724"},{"geometry":{"type":"Point","coordinates":[16.1033769,47.7813182]},"id":"node/313019393","addr:city":"St. Egyden am Steinfeld","amenity":"townhall","addr:postcode":"2731"},{"geometry":{"type":"Point","coordinates":[16.0320474,47.8016372]},"id":"node/5696628370","addr:city":"Höflein an der Hohen Wand","amenity":"townhall","addr:postcode":"2732"},{"geometry":{"type":"Point","coordinates":[16.0529096,47.7905801]},"id":"node/11665310637","addr:city":"Willendorf am Steinfelde","amenity":"townhall","addr:postcode":"2732"},{"geometry":{"type":"Point","coordinates":[16.0548411,47.7772027]},"id":"node/3090367989","addr:city":"Würflach","amenity":"townhall","addr:postcode":"2732"},{"geometry":{"type":"Point","coordinates":[15.9888934,47.7964462]},"id":"node/11665310631","addr:city":"Grünbach am Schneeberg","amenity":"townhall","addr:postcode":"2733"},{"geometry":{"type":"Point","coordinates":[15.9937421,47.7890276]},"id":"node/11665310627","addr:city":"Schrattenbach","amenity":"townhall","addr:postcode":"2733"},{"geometry":{"type":"Point","coordinates":[15.9133489,47.789479]},"id":"node/11665310636","addr:city":"Puchberg am Schneeberg","amenity":"townhall","addr:postcode":"2734"},{"geometry":{"type":"Point","coordinates":[16.2146884,47.891889]},"id":"node/11646605363","addr:city":"Matzendorf-Hölles","amenity":"townhall","addr:postcode":"2751"},{"geometry":{"type":"Point","coordinates":[16.1694731,47.8653966]},"id":"node/11646605360","addr:city":"Wöllersdorf","amenity":"townhall","addr:postcode":"2752"},{"geometry":{"type":"Point","coordinates":[16.1287048,47.8731479]},"id":"node/11646605359","addr:city":"Markt Piesting","amenity":"townhall","addr:postcode":"2753"},{"geometry":{"type":"Point","coordinates":[15.9824572,47.8399788]},"id":"node/3085910637","addr:city":"Miesenbach","amenity":"townhall","addr:postcode":"2761"},{"geometry":{"type":"Point","coordinates":[15.9387917,47.9100188]},"id":"node/11646605343","addr:city":"Muggendorf","amenity":"townhall","addr:postcode":"2763"},{"geometry":{"type":"Point","coordinates":[15.9582894,47.8988299]},"id":"node/11646605345","addr:city":"Pernitz","amenity":"townhall","addr:postcode":"2763"},{"geometry":{"type":"Point","coordinates":[15.9594581,47.8860494]},"id":"node/11646605344","addr:city":"Waidmannsfeld","amenity":"townhall","addr:postcode":"2763"},{"geometry":{"type":"Point","coordinates":[15.8907181,47.876223]},"id":"node/3081898264","addr:city":"Gutenstein","amenity":"townhall","addr:postcode":"2770"},{"geometry":{"type":"Point","coordinates":[16.2701529,47.7814489]},"id":"node/318756210","addr:city":"Katzelsdorf an der Leitha","amenity":"townhall","addr:postcode":"2801"},{"geometry":{"type":"Point","coordinates":[16.2807633,47.6613221]},"id":"node/3081536819","addr:city":"Hochwolkersdorf","amenity":"townhall","addr:postcode":"2802"},{"geometry":{"type":"Point","coordinates":[16.3491775,47.6368626]},"id":"node/3081540789","addr:city":"Schwarzenbach","amenity":"townhall","addr:postcode":"2803"},{"geometry":{"type":"Point","coordinates":[16.2876135,47.6179095]},"id":"node/3081540790","addr:city":"Wiesmath","amenity":"townhall","addr:postcode":"2811"},{"geometry":{"type":"Point","coordinates":[16.2592587,47.5897103]},"id":"node/11646605335","addr:city":"Hollenthon","amenity":"townhall","addr:postcode":"2812"},{"geometry":{"type":"Point","coordinates":[16.1970016,47.5999664]},"id":"node/3085979539","addr:city":"Lichtenegg","amenity":"townhall","addr:postcode":"2813"},{"geometry":{"type":"Point","coordinates":[16.2382919,47.7430544]},"id":"node/9521847120","addr:city":"Lanzenkirchen","amenity":"townhall","addr:postcode":"2821"},{"geometry":{"type":"Point","coordinates":[16.2146728,47.7280031]},"id":"node/3081536818","addr:city":"Bad Erlach","amenity":"townhall","addr:postcode":"2822"},{"geometry":{"type":"Point","coordinates":[16.1863367,47.7160394]},"id":"node/3090436185","addr:city":"Pitten","amenity":"townhall","addr:postcode":"2823"},{"geometry":{"type":"Point","coordinates":[16.1578792,47.7038342]},"id":"node/8458285758","addr:city":"Seebenstein","amenity":"townhall","addr:postcode":"2824"},{"geometry":{"type":"Point","coordinates":[16.1352896,47.6584911]},"id":"node/3090436679","addr:city":"Scheiblingkirchen","amenity":"townhall","addr:postcode":"2831"},{"geometry":{"type":"Point","coordinates":[16.1276139,47.6533168]},"id":"node/11665310660","addr:city":"Warth","amenity":"townhall","addr:postcode":"2831"},{"geometry":{"type":"Point","coordinates":[16.2118252,47.6649891]},"id":"node/11646605336","addr:city":"Bromberg","amenity":"townhall","addr:postcode":"2833"},{"geometry":{"type":"Point","coordinates":[16.125921,47.616719]},"id":"node/942815027","addr:city":"Grimmenstein","amenity":"townhall","addr:postcode":"2840"},{"geometry":{"type":"Point","coordinates":[16.1417927,47.5971035]},"id":"node/1804849698","addr:city":"Edlitz","amenity":"townhall","addr:postcode":"2842"},{"geometry":{"type":"Point","coordinates":[16.1412556,47.5979572]},"id":"node/11665310664","addr:city":"Edlitz","amenity":"townhall","addr:postcode":"2842"},{"geometry":{"type":"Point","coordinates":[16.1930343,47.5233612]},"id":"node/1445697284","addr:city":"Krumbach","amenity":"townhall","addr:postcode":"2851"},{"geometry":{"type":"Point","coordinates":[16.2000401,47.457922]},"id":"node/3081662501","addr:city":"Hochneukirchen","amenity":"townhall","addr:postcode":"2852"},{"geometry":{"type":"Point","coordinates":[16.2329089,47.4956535]},"id":"node/3081662498","addr:city":"Bad Schönau","amenity":"townhall","addr:postcode":"2853"},{"geometry":{"type":"Point","coordinates":[16.2964435,47.5022964]},"id":"node/11646605334","addr:city":"Kirchschlag in der Buckligen Welt","amenity":"townhall","addr:postcode":"2860"},{"geometry":{"type":"Point","coordinates":[16.0905017,47.5547263]},"id":"node/1412849365","addr:city":"Aspang-Markt","amenity":"townhall","addr:postcode":"2870"},{"geometry":{"type":"Point","coordinates":[16.0846281,47.5539962]},"id":"node/11665335274","addr:city":"Aspangberg-St. Peter","amenity":"townhall","addr:postcode":"2870"},{"geometry":{"type":"Point","coordinates":[16.1299641,47.5126274]},"id":"node/11665335278","addr:city":"Zöbern","amenity":"townhall","addr:postcode":"2871"},{"geometry":{"type":"Point","coordinates":[16.0405634,47.511929]},"id":"node/11665335277","addr:city":"Mönichkirchen","amenity":"townhall","addr:postcode":"2872"},{"geometry":{"type":"Point","coordinates":[16.0542722,47.5992527]},"id":"node/11665310661","addr:city":"Feistritz am Wechsel","amenity":"townhall","addr:postcode":"2873"},{"geometry":{"type":"Point","coordinates":[15.9902653,47.6089913]},"id":"node/5429604320","addr:city":"Kirchberg am Wechsel","amenity":"townhall","addr:postcode":"2880"},{"geometry":{"type":"Point","coordinates":[15.9395125,47.6225591]},"id":"node/11665310630","addr:city":"Otterthal","amenity":"townhall","addr:postcode":"2880"},{"geometry":{"type":"Point","coordinates":[16.0148384,47.5804647]},"id":"node/11665310662","addr:city":"St. Corona am Wechsel","amenity":"townhall","addr:postcode":"2880"},{"geometry":{"type":"Point","coordinates":[15.8915976,47.602977]},"id":"node/11665310628","addr:city":"Trattenbach","amenity":"townhall","addr:postcode":"2881"},{"geometry":{"type":"Point","coordinates":[16.1242832,48.1674897]},"id":"node/11476925907","addr:city":"Wolfsgraben","amenity":"townhall","addr:postcode":"3012"},{"geometry":{"type":"Point","coordinates":[16.0934371,48.1843967]},"id":"node/1807468188","addr:city":"Tullnerbach-Lawies","amenity":"townhall","addr:postcode":"3013"},{"geometry":{"type":"Point","coordinates":[16.0768725,48.1793721]},"id":"node/11476925908","addr:city":"Pressbaum","amenity":"townhall","addr:postcode":"3021"},{"geometry":{"type":"Point","coordinates":[15.9836067,48.1726621]},"id":"node/11552070706","addr:city":"Eichgraben","amenity":"townhall","addr:postcode":"3032"},{"geometry":{"type":"Point","coordinates":[15.9302267,48.1529599]},"id":"node/7813397591","addr:city":"Altlengbach","amenity":"townhall","addr:postcode":"3033"},{"geometry":{"type":"Point","coordinates":[15.9312822,48.190119]},"id":"node/11476925910","addr:city":"Maria Anzbach","amenity":"townhall","addr:postcode":"3034"},{"geometry":{"type":"Point","coordinates":[15.909478,48.2003528]},"id":"node/1120145960","addr:city":"Neulengbach","amenity":"townhall","addr:postcode":"3040"},{"geometry":{"type":"Point","coordinates":[15.9264247,48.2431541]},"id":"node/11476925909","addr:city":"Asperhofen","amenity":"townhall","addr:postcode":"3041"},{"geometry":{"type":"Point","coordinates":[15.8605601,48.2510592]},"id":"node/1951730145","addr:city":"Würmla","amenity":"townhall","addr:postcode":"3042"},{"geometry":{"type":"Point","coordinates":[15.9127725,48.133277]},"id":"node/3914545364","addr:city":"Innermanzing","amenity":"townhall","addr:postcode":"3052"},{"geometry":{"type":"Point","coordinates":[15.8826148,48.1093422]},"id":"node/2568434192","addr:city":"Brand-Laaben","amenity":"townhall","addr:postcode":"3053"},{"geometry":{"type":"Point","coordinates":[15.8203706,48.1898203]},"id":"node/639262231","addr:city":"Kirchstetten","amenity":"townhall","addr:postcode":"3062"},{"geometry":{"type":"Point","coordinates":[15.7621943,48.1978787]},"id":"node/297556893","addr:city":"Böheimkirchen","amenity":"townhall","addr:postcode":"3071"},{"geometry":{"type":"Point","coordinates":[15.7799144,48.1526378]},"id":"node/11476925914","addr:city":"Kasten bei Böheimkirchen","amenity":"townhall","addr:postcode":"3072"},{"geometry":{"type":"Point","coordinates":[15.8137612,48.1231986]},"id":"node/11476925911","addr:city":"Stössing","amenity":"townhall","addr:postcode":"3073"},{"geometry":{"type":"Point","coordinates":[15.760511,48.1004075]},"id":"node/7546267355","addr:city":"Michelbach","amenity":"townhall","addr:postcode":"3074"},{"geometry":{"type":"Point","coordinates":[15.6229147,48.2043706]},"id":"node/11554201738","addr:city":"St. Pölten","amenity":"townhall","addr:postcode":"3100"},{"geometry":{"type":"Point","coordinates":[15.5561873,48.2376556]},"id":"node/8977568268","addr:city":"Neidling","amenity":"townhall","addr:postcode":"3110"},{"geometry":{"type":"Point","coordinates":[15.5656502,48.2585673]},"id":"node/9331742397","addr:city":"Karlstetten","amenity":"townhall","addr:postcode":"3121"},{"geometry":{"type":"Point","coordinates":[15.5933303,48.292064]},"id":"node/8947888443","addr:city":"Obritzberg","amenity":"townhall","addr:postcode":"3123"},{"geometry":{"type":"Point","coordinates":[15.5915184,48.3188026]},"id":"node/317427711","addr:city":"Oberwölbling","amenity":"townhall","addr:postcode":"3124"},{"geometry":{"type":"Point","coordinates":[15.6353071,48.3083797]},"id":"node/6905084343","addr:city":"Absdorf","amenity":"townhall","addr:postcode":"3125"},{"geometry":{"type":"Point","coordinates":[15.6948414,48.2852472]},"id":"node/11476925929","addr:city":"Herzogenburg","amenity":"townhall","addr:postcode":"3130"},{"geometry":{"type":"Point","coordinates":[15.6775526,48.3183972]},"id":"node/6844679465","addr:city":"Inzersdorf ob der Traisen","amenity":"townhall","addr:postcode":"3131"},{"geometry":{"type":"Point","coordinates":[15.6952786,48.3532341]},"id":"node/11476925942","addr:city":"Nußdorf ob der Traisen","amenity":"townhall","addr:postcode":"3134"},{"geometry":{"type":"Point","coordinates":[15.7572807,48.2585662]},"id":"node/11476925928","addr:city":"Kapelln","amenity":"townhall","addr:postcode":"3141"},{"geometry":{"type":"Point","coordinates":[15.7962927,48.2605753]},"id":"node/5426726275","addr:city":"Perschling","amenity":"townhall","addr:postcode":"3142"},{"geometry":{"type":"Point","coordinates":[15.6858245,48.1588499]},"id":"node/11476925915","addr:city":"Pyhra","amenity":"townhall","addr:postcode":"3143"},{"geometry":{"type":"Point","coordinates":[15.6061469,48.1049468]},"id":"node/1408525012","addr:city":"Wilhlemsburg","amenity":"townhall","addr:postcode":"3150"},{"geometry":{"type":"Point","coordinates":[15.5667537,48.0483977]},"id":"node/3081288232","addr:city":"Eschenau","amenity":"townhall","addr:postcode":"3153"},{"geometry":{"type":"Point","coordinates":[15.6091896,48.0413642]},"id":"node/1792035355","addr:city":"Traisen","amenity":"townhall","addr:postcode":"3160"},{"geometry":{"type":"Point","coordinates":[15.6692733,48.0435053]},"id":"node/11554378969","addr:city":"St. Veit an der Gölsen","amenity":"townhall","addr:postcode":"3161"},{"geometry":{"type":"Point","coordinates":[15.7404526,48.0472848]},"id":"node/2260650551","addr:city":"Rohrbach an der Gölsen","amenity":"townhall","addr:postcode":"3163"},{"geometry":{"type":"Point","coordinates":[15.7731585,48.0347188]},"id":"node/293544113","addr:city":"Hainfeld","amenity":"townhall","addr:postcode":"3170"},{"geometry":{"type":"Point","coordinates":[15.7354449,47.9793154]},"id":"node/3081291933","addr:city":"Kleinzell","amenity":"townhall","addr:postcode":"3171"},{"geometry":{"type":"Point","coordinates":[15.8030538,48.0029686]},"id":"node/11554378982","addr:city":"Ramsau","amenity":"townhall","addr:postcode":"3172"},{"geometry":{"type":"Point","coordinates":[15.5947198,48.0149555]},"id":"node/1311776851","addr:city":"Lilienfeld","amenity":"townhall","addr:postcode":"3180"},{"geometry":{"type":"Point","coordinates":[15.4901809,47.9304049]},"id":"node/1116660295","addr:city":"Türnitz","amenity":"townhall","addr:postcode":"3184"},{"geometry":{"type":"Point","coordinates":[15.6197651,47.9082286]},"id":"node/11554378983","addr:city":"Hohenberg","amenity":"townhall","addr:postcode":"3192"},{"geometry":{"type":"Point","coordinates":[15.5622218,47.85327]},"id":"node/1314506561","addr:city":"St.Aegyd am Neuwalde","amenity":"townhall","addr:postcode":"3193"},{"geometry":{"type":"Point","coordinates":[15.5441858,48.1507857]},"id":"node/11476925939","addr:city":"Ober-Grafendorf","amenity":"townhall","addr:postcode":"3200"},{"geometry":{"type":"Point","coordinates":[15.5117234,48.0969164]},"id":"node/459487514","addr:city":"Hofstetten-Grünau","amenity":"townhall","addr:postcode":"3202"},{"geometry":{"type":"Point","coordinates":[15.4658117,48.0653122]},"id":"node/2624452413","addr:city":"Rabenstein an der Pielach","amenity":"townhall","addr:postcode":"3203"},{"geometry":{"type":"Point","coordinates":[15.5335834,48.1141174]},"id":"node/2110817841","addr:city":"Weinburg","amenity":"townhall","addr:postcode":"3205"},{"geometry":{"type":"Point","coordinates":[15.3826685,47.9472291]},"id":"node/11476925930","addr:city":"Schwarzenbach an der Pielach","amenity":"townhall","addr:postcode":"3212"},{"geometry":{"type":"Point","coordinates":[15.3260691,47.9823629]},"id":"node/1338293036","addr:city":"Frankenfels","amenity":"townhall","addr:postcode":"3213"},{"geometry":{"type":"Point","coordinates":[15.376368,47.8721818]},"id":"node/11554378984","addr:city":"Annaberg","amenity":"townhall","addr:postcode":"3222"},{"geometry":{"type":"Point","coordinates":[15.2957424,47.8147279]},"id":"node/3081291934","addr:city":"Mitterbach am Erlaufsee","amenity":"townhall","addr:postcode":"3224"},{"geometry":{"type":"Point","coordinates":[15.4923186,48.1588736]},"id":"node/11476925940","addr:city":"St. Margarethen an der Sierning","amenity":"townhall","addr:postcode":"3231"},{"geometry":{"type":"Point","coordinates":[15.4704183,48.1235719]},"id":"node/11472500442","addr:city":"Bischofstetten","amenity":"townhall","addr:postcode":"3232"},{"geometry":{"type":"Point","coordinates":[15.4077941,48.1008936]},"id":"node/11472500445","addr:city":"Kilb","amenity":"townhall","addr:postcode":"3233"},{"geometry":{"type":"Point","coordinates":[15.3410112,48.1110119]},"id":"node/10587028412","addr:city":"Mank","amenity":"townhall","addr:postcode":"3240"},{"geometry":{"type":"Point","coordinates":[15.3227413,48.0710591]},"id":"node/11472500433","addr:city":"Kirnberg an der Mank","amenity":"townhall","addr:postcode":"3241"},{"geometry":{"type":"Point","coordinates":[15.3249447,48.04903]},"id":"node/11472500446","addr:city":"Texingtal","amenity":"townhall","addr:postcode":"3242"},{"geometry":{"type":"Point","coordinates":[15.2852614,48.1426643]},"id":"node/11472500432","addr:city":"St. Leonhard am Forst","amenity":"townhall","addr:postcode":"3243"},{"geometry":{"type":"Point","coordinates":[15.2766837,48.1366754]},"id":"node/11472500447","addr:city":"Ruprechtshofen","amenity":"townhall","addr:postcode":"3244"},{"geometry":{"type":"Point","coordinates":[15.1328932,48.0587922]},"id":"node/11479082102","addr:city":"Purgstall","amenity":"townhall","addr:postcode":"3251"},{"geometry":{"type":"Point","coordinates":[15.152922,48.1437727]},"id":"node/9179612884","addr:city":"Petzenkirchen","amenity":"townhall","addr:postcode":"3252"},{"geometry":{"type":"Point","coordinates":[15.1845981,48.1840019]},"id":"node/8334932979","addr:city":"Erlauf","amenity":"townhall","addr:postcode":"3253"},{"geometry":{"type":"Point","coordinates":[15.1829486,48.1555554]},"id":"node/11472500393","addr:city":"Bergland","amenity":"townhall","addr:postcode":"3254"},{"geometry":{"type":"Point","coordinates":[14.9730485,48.0113818]},"id":"node/3079691336","addr:city":"Randegg","amenity":"townhall","addr:postcode":"3263"},{"geometry":{"type":"Point","coordinates":[15.0699473,47.9862997]},"id":"node/3079691337","addr:city":"Reinsberg","amenity":"townhall","addr:postcode":"3264"},{"geometry":{"type":"Point","coordinates":[15.1675822,48.0055394]},"id":"node/11479082103","addr:city":"Scheibbs","amenity":"townhall","addr:postcode":"3270"},{"geometry":{"type":"Point","coordinates":[15.2265764,48.0314083]},"id":"node/3079691338","addr:city":"Sankt Georgen an der Leys","amenity":"townhall","addr:postcode":"3282"},{"geometry":{"type":"Point","coordinates":[15.0875056,47.9285031]},"id":"node/1577434391","addr:city":"Gaming","amenity":"townhall","addr:postcode":"3292"},{"geometry":{"type":"Point","coordinates":[14.8713389,48.1230715]},"id":"node/11543138702","addr:city":"Amstetten","amenity":"townhall","addr:postcode":"3300"},{"geometry":{"type":"Point","coordinates":[14.8481083,48.0907811]},"id":"node/11543138700","addr:city":"Winklarn","amenity":"townhall","addr:postcode":"3300"},{"geometry":{"type":"Point","coordinates":[14.9551039,48.1289195]},"id":"node/3078035119","addr:city":"St. Georgen am Ybbsfelde","amenity":"townhall","addr:postcode":"3304"},{"geometry":{"type":"Point","coordinates":[14.8077711,48.1285936]},"id":"node/3072961626","addr:city":"Zeillern","amenity":"townhall","addr:postcode":"3311"},{"geometry":{"type":"Point","coordinates":[14.7157158,48.1671181]},"id":"node/11543138699","addr:city":"Wallsee-Sindelburg","amenity":"townhall","addr:postcode":"3313"},{"geometry":{"type":"Point","coordinates":[14.6520945,48.1428503]},"id":"node/3078035120","addr:city":"Strengberg","amenity":"townhall","addr:postcode":"3314"},{"geometry":{"type":"Point","coordinates":[14.825909,48.1812907]},"id":"node/11543001848","addr:city":"Ardagger","amenity":"townhall","addr:postcode":"3321"},{"geometry":{"type":"Point","coordinates":[14.9024976,48.1925884]},"id":"node/3077892495","addr:city":"Neustadtl an der Donau","amenity":"townhall","addr:postcode":"3323"},{"geometry":{"type":"Point","coordinates":[14.9316095,48.0825472]},"id":"node/11543001844","addr:city":"Euratsfeld","amenity":"townhall","addr:postcode":"3324"},{"geometry":{"type":"Point","coordinates":[14.9840577,48.0939713]},"id":"node/3077892492","addr:city":"Ferschnitz","amenity":"townhall","addr:postcode":"3325"},{"geometry":{"type":"Point","coordinates":[14.7682484,48.0272833]},"id":"node/292871702","addr:city":"Kematen an der Ybbs","amenity":"townhall","addr:postcode":"3331"},{"geometry":{"type":"Point","coordinates":[14.740808,48.0096751]},"id":"node/3077934843","addr:city":"Rosenau am Sonntagberg","amenity":"townhall","addr:postcode":"3332"},{"geometry":{"type":"Point","coordinates":[14.6647094,47.8573029]},"id":"node/3067884916","addr:city":"Weyer","amenity":"townhall","addr:postcode":"3335"},{"geometry":{"type":"Point","coordinates":[14.7744817,47.9610547]},"id":"node/11543211142","addr:city":"Waidhofen an der Ybbs","amenity":"townhall","addr:postcode":"3340"},{"geometry":{"type":"Point","coordinates":[14.8941377,47.9477969]},"id":"node/11543001850","addr:city":"Ybbsitz","amenity":"townhall","addr:postcode":"3341"},{"geometry":{"type":"Point","coordinates":[14.8236808,47.8769997]},"id":"node/1742953663","addr:city":"Opponitz","amenity":"townhall","addr:postcode":"3342"},{"geometry":{"type":"Point","coordinates":[14.7718654,47.8035835]},"id":"node/1704099491","addr:city":"Hollenstein an der Ybbs","amenity":"townhall","addr:postcode":"3343"},{"geometry":{"type":"Point","coordinates":[14.8806113,47.8402138]},"id":"node/11543001849","addr:city":"St. Georgen am Reith","amenity":"townhall","addr:postcode":"3344"},{"geometry":{"type":"Point","coordinates":[14.9309977,47.808039]},"id":"node/3078266308","addr:city":"Göstling an der Ybbs","amenity":"townhall","addr:postcode":"3345"},{"geometry":{"type":"Point","coordinates":[14.565559,48.1119461]},"id":"node/11543001853","addr:city":"Haag","amenity":"townhall","addr:postcode":"3350"},{"geometry":{"type":"Point","coordinates":[14.5838932,48.0555057]},"id":"node/3078190109","addr:city":"Weistrach","amenity":"townhall","addr:postcode":"3351"},{"geometry":{"type":"Point","coordinates":[14.6249137,48.0457273]},"id":"node/3073011885","addr:city":"Sankt Peter in der Au","amenity":"townhall","addr:postcode":"3352"},{"geometry":{"type":"Point","coordinates":[14.7072938,48.0292372]},"id":"node/3072961539","addr:city":"Biberbach","amenity":"townhall","addr:postcode":"3353"},{"geometry":{"type":"Point","coordinates":[14.6512958,48.0364512]},"id":"node/9399388028","addr:city":"Seitenstetten","amenity":"townhall","addr:postcode":"3353"},{"geometry":{"type":"Point","coordinates":[14.6689151,48.0795832]},"id":"node/1217538549","addr:city":"Wolfsbach","amenity":"townhall","addr:postcode":"3354"},{"geometry":{"type":"Point","coordinates":[14.6314091,47.9770573]},"id":"node/3073010522","addr:city":"Ertl","amenity":"townhall","addr:postcode":"3355"},{"geometry":{"type":"Point","coordinates":[14.749112,48.0726309]},"id":"node/11543138698","addr:city":"Aschbach-Markt","amenity":"townhall","addr:postcode":"3361"},{"geometry":{"type":"Point","coordinates":[14.7987031,48.1015239]},"id":"node/2720680860","addr:city":"Öhling","amenity":"townhall","addr:postcode":"3362"},{"geometry":{"type":"Point","coordinates":[14.8534673,48.0571169]},"id":"node/11543138701","addr:city":"Neuhofen an der Ybbs","amenity":"townhall","addr:postcode":"3364"},{"geometry":{"type":"Point","coordinates":[14.7924779,48.0266903]},"id":"node/412782807","addr:city":"Allhartsberg","amenity":"townhall","addr:postcode":"3365"},{"geometry":{"type":"Point","coordinates":[15.0852115,48.1770112]},"id":"node/11472500431","addr:city":"Ybbs an der Donau","amenity":"townhall","addr:postcode":"3370"},{"geometry":{"type":"Point","coordinates":[15.0589121,48.1406425]},"id":"node/11472500448","addr:city":"Neumarkt an der Ybbs","amenity":"townhall","addr:postcode":"3371"},{"geometry":{"type":"Point","coordinates":[14.9897202,48.1285312]},"id":"node/11472500392","addr:city":"Blindenmarkt","amenity":"townhall","addr:postcode":"3372"},{"geometry":{"type":"Point","coordinates":[15.1617417,48.2085056]},"id":"node/11472500430","addr:city":"Krummnußbaum","amenity":"townhall","addr:postcode":"3375"},{"geometry":{"type":"Point","coordinates":[15.0189191,48.1651955]},"id":"node/2488091444","addr:city":"St. Martin - Karlsbach","amenity":"townhall","addr:postcode":"3376"},{"geometry":{"type":"Point","coordinates":[15.2111695,48.2121183]},"id":"node/4427714094","addr:city":"Pöchlarn","amenity":"townhall","addr:postcode":"3380"},{"geometry":{"type":"Point","coordinates":[15.1815511,48.2048492]},"id":"node/8957247085","addr:city":"Golling an der Erlauf","amenity":"townhall","addr:postcode":"3381"},{"geometry":{"type":"Point","coordinates":[15.4014279,48.2006937]},"id":"node/8715051547","addr:city":"Loosdorf","amenity":"townhall","addr:postcode":"3382"},{"geometry":{"type":"Point","coordinates":[15.3814964,48.1839254]},"id":"node/11472500440","addr:city":"Schollach","amenity":"townhall","addr:postcode":"3382"},{"geometry":{"type":"Point","coordinates":[15.4108102,48.1554677]},"id":"node/6691881640","addr:city":"Hürm","amenity":"townhall","addr:postcode":"3383"},{"geometry":{"type":"Point","coordinates":[15.4537337,48.2005454]},"id":"node/8752959399","addr:city":"Haunoldstein","amenity":"townhall","addr:postcode":"3384"},{"geometry":{"type":"Point","coordinates":[15.5548238,48.199324]},"id":"node/4982680289","addr:city":"Gerersdorf","amenity":"townhall","addr:postcode":"3385"},{"geometry":{"type":"Point","coordinates":[15.5009813,48.1922479]},"id":"node/9048669457","addr:city":"Markersdorf an der Pielach","amenity":"townhall","addr:postcode":"3385"},{"geometry":{"type":"Point","coordinates":[15.5166343,48.2030946]},"id":"node/8832668863","addr:city":"Prinzersdorf","amenity":"townhall","addr:postcode":"3385"},{"geometry":{"type":"Point","coordinates":[15.4873605,48.2166568]},"id":"node/8575355156","addr:city":"Hafnerbach","amenity":"townhall","addr:postcode":"3386"},{"geometry":{"type":"Point","coordinates":[15.3322041,48.227269]},"id":"node/11472500441","addr:city":"Melk","amenity":"townhall","addr:postcode":"3390"},{"geometry":{"type":"Point","coordinates":[15.4209624,48.2508907]},"id":"node/11472500438","addr:city":"Gerolding","amenity":"townhall","addr:postcode":"3392"},{"geometry":{"type":"Point","coordinates":[15.2571613,48.1844824]},"id":"node/9657718516","addr:city":"Zelking","amenity":"townhall","addr:postcode":"3393"},{"geometry":{"type":"Point","coordinates":[15.4152835,48.2941932]},"id":"node/7233164327","addr:city":"Aggsbach-Dorf","amenity":"townhall","addr:postcode":"3394"},{"geometry":{"type":"Point","coordinates":[16.3255948,48.3047791]},"id":"node/61723059","addr:city":"Klosterneuburg","amenity":"townhall","addr:postcode":"3400"},{"geometry":{"type":"Point","coordinates":[16.324363,48.3054997]},"id":"node/10137522140","addr:city":"Klosterneuburg","amenity":"townhall","addr:postcode":"3400"},{"geometry":{"type":"Point","coordinates":[16.1748255,48.32808]},"id":"node/2118582055","addr:city":"Zeiselmauer","amenity":"townhall","addr:postcode":"3424"},{"geometry":{"type":"Point","coordinates":[16.1510416,48.3302949]},"id":"node/2120108742","addr:city":"Muckendorf an der Donau","amenity":"townhall","addr:postcode":"3426"},{"geometry":{"type":"Point","coordinates":[16.0497002,48.332413]},"id":"node/5001826993","addr:city":"Tulln","amenity":"townhall","addr:postcode":"3430"},{"geometry":{"type":"Point","coordinates":[16.1454217,48.3011706]},"id":"node/11537294373","addr:city":"Königstetten","amenity":"townhall","addr:postcode":"3433"},{"geometry":{"type":"Point","coordinates":[16.1085045,48.2844659]},"id":"node/11537294372","addr:city":"Katzelsdorf am Wienerwald","amenity":"townhall","addr:postcode":"3434"},{"geometry":{"type":"Point","coordinates":[15.911247,48.3458283]},"id":"node/8358771709","addr:city":"Zwentendorf an der Donau","amenity":"townhall","addr:postcode":"3435"},{"geometry":{"type":"Point","coordinates":[16.0332222,48.2831603]},"id":"node/11537272567","addr:city":"Baumgarten am Tullnerfeld","amenity":"townhall","addr:postcode":"3441"},{"geometry":{"type":"Point","coordinates":[16.0070231,48.308046]},"id":"node/5514415354","addr:city":"Langenrohr","amenity":"townhall","addr:postcode":"3442"},{"geometry":{"type":"Point","coordinates":[16.0161889,48.2557154]},"id":"node/11537294369","addr:city":"Sieghartskirchen","amenity":"townhall","addr:postcode":"3443"},{"geometry":{"type":"Point","coordinates":[15.9409318,48.2900171]},"id":"node/6764026095","addr:city":"Michelhausen","amenity":"townhall","addr:postcode":"3451"},{"geometry":{"type":"Point","coordinates":[15.980048,48.3995721]},"id":"node/7179840388","addr:city":"Absdorf","amenity":"townhall","addr:postcode":"3462"},{"geometry":{"type":"Point","coordinates":[16.0154726,48.4088179]},"id":"node/5130477035","addr:city":"Stetteldorf am Wagram","amenity":"townhall","addr:postcode":"3463"},{"geometry":{"type":"Point","coordinates":[16.0996384,48.3943027]},"id":"node/2047737952","addr:city":"Hausleiten","amenity":"townhall","addr:postcode":"3464"},{"geometry":{"type":"Point","coordinates":[15.9460779,48.4173864]},"id":"node/11537272481","addr:city":"Königsbrunn am Wagram","amenity":"townhall","addr:postcode":"3465"},{"geometry":{"type":"Point","coordinates":[15.9002075,48.4341214]},"id":"node/11537272480","addr:city":"Kirchberg am Wagram","amenity":"townhall","addr:postcode":"3470"},{"geometry":{"type":"Point","coordinates":[15.867227,48.4842536]},"id":"node/11537272477","addr:city":"Großriedenthal","amenity":"townhall","addr:postcode":"3471"},{"geometry":{"type":"Point","coordinates":[15.8292432,48.5064037]},"id":"node/4320822476","addr:city":"Hohenwarth","amenity":"townhall","addr:postcode":"3472"},{"geometry":{"type":"Point","coordinates":[15.821688,48.4369748]},"id":"node/4269730081","addr:city":"Fels am Wagram","amenity":"townhall","addr:postcode":"3481"},{"geometry":{"type":"Point","coordinates":[15.7761244,48.4071872]},"id":"node/11537272479","addr:city":"Grafenwörth","amenity":"townhall","addr:postcode":"3484"},{"geometry":{"type":"Point","coordinates":[15.7360375,48.4731907]},"id":"node/11453514764","addr:city":"Straß im Straßertale","amenity":"townhall","addr:postcode":"3491"},{"geometry":{"type":"Point","coordinates":[15.7422186,48.4437988]},"id":"node/11453777517","addr:city":"Etsdorf am Kamp","amenity":"townhall","addr:postcode":"3492"},{"geometry":{"type":"Point","coordinates":[15.7200795,48.4581454]},"id":"node/495120072","addr:city":"Hadersdorf-Kammern","amenity":"townhall","addr:postcode":"3493"},{"geometry":{"type":"Point","coordinates":[15.656475,48.4190039]},"id":"node/1871376269","addr:city":"Rohrendorf bei Krems","amenity":"townhall","addr:postcode":"3495"},{"geometry":{"type":"Point","coordinates":[15.5999087,48.4113379]},"id":"node/5443237882","addr:city":"Krems an der Donau","amenity":"townhall","addr:postcode":"3500"},{"geometry":{"type":"Point","coordinates":[15.6203764,48.3510042]},"id":"node/4807698830","addr:city":"Paudorf","amenity":"townhall","addr:postcode":"3508"},{"geometry":{"type":"Point","coordinates":[15.613764,48.3739716]},"id":"node/4592843838","addr:city":"Furth bei Göttweig","amenity":"townhall","addr:postcode":"3511"},{"geometry":{"type":"Point","coordinates":[15.5474031,48.3741573]},"id":"node/11453777524","addr:city":"Bergern im Dunkelsteinerwald","amenity":"townhall","addr:postcode":"3512"},{"geometry":{"type":"Point","coordinates":[15.5778904,48.3935776]},"id":"node/11453777471","addr:city":"Mautern an der Donau","amenity":"townhall","addr:postcode":"3512"},{"geometry":{"type":"Point","coordinates":[15.3908667,48.4965841]},"id":"node/11453777529","addr:city":"Lichtenau im Waldviertel","amenity":"townhall","addr:postcode":"3522"},{"geometry":{"type":"Point","coordinates":[15.2315488,48.4666891]},"id":"node/11483101712","addr:city":"Sallingberg","amenity":"townhall","addr:postcode":"3525"},{"geometry":{"type":"Point","coordinates":[15.3301033,48.5741102]},"id":"node/6396547297","addr:city":"Rastenfeld","amenity":"townhall","addr:postcode":"3532"},{"geometry":{"type":"Point","coordinates":[15.5543212,48.4502126]},"id":"node/6171404936","addr:city":"Senftenberg","amenity":"townhall","addr:postcode":"3541"},{"geometry":{"type":"Point","coordinates":[15.4905523,48.5171995]},"id":"node/11453514767","addr:city":"Gföhl","amenity":"townhall","addr:postcode":"3542"},{"geometry":{"type":"Point","coordinates":[15.4852456,48.5298711]},"id":"node/8692919780","addr:city":"Jaidhof","amenity":"townhall","addr:postcode":"3542"},{"geometry":{"type":"Point","coordinates":[15.6767325,48.4723754]},"id":"node/11453514768","addr:city":"Langenlois","amenity":"townhall","addr:postcode":"3550"},{"geometry":{"type":"Point","coordinates":[15.5727989,48.464779]},"id":"node/6207364852","addr:city":"Droß","amenity":"townhall","addr:postcode":"3552"},{"geometry":{"type":"Point","coordinates":[15.5960099,48.4716006]},"id":"node/11329537622","addr:city":"Lengenfeld","amenity":"townhall","addr:postcode":"3552"},{"geometry":{"type":"Point","coordinates":[15.6046744,48.4501727]},"id":"node/317806525","addr:city":"Stratzing","amenity":"townhall","addr:postcode":"3552"},{"geometry":{"type":"Point","coordinates":[15.6977325,48.5174592]},"id":"node/4282512730","addr:city":"Schönberg am Kamp","amenity":"townhall","addr:postcode":"3562"},{"geometry":{"type":"Point","coordinates":[15.6598673,48.5971174]},"id":"node/11508936487","addr:city":"Gars am Kamp","amenity":"townhall","addr:postcode":"3571"},{"geometry":{"type":"Point","coordinates":[15.5464317,48.5988539]},"id":"node/3756320947","addr:city":"St. Leonhard am Hornerwald","amenity":"townhall","addr:postcode":"3572"},{"geometry":{"type":"Point","coordinates":[15.6377035,48.6288195]},"id":"node/1558322096","addr:city":"Rosenburg-Mold","amenity":"townhall","addr:postcode":"3573"},{"geometry":{"type":"Point","coordinates":[15.6564429,48.6654053]},"id":"node/11547050551","addr:city":"Horn","amenity":"townhall","addr:postcode":"3580"},{"geometry":{"type":"Point","coordinates":[15.5964165,48.685947]},"id":"node/11508910861","addr:city":"St. Bernhard-Frauenhofen","amenity":"townhall","addr:postcode":"3580"},{"geometry":{"type":"Point","coordinates":[15.5934674,48.6456433]},"id":"node/8653219608","addr:city":"Altenburg","amenity":"townhall","addr:postcode":"3591"},{"geometry":{"type":"Point","coordinates":[15.5131746,48.6578396]},"id":"node/1561651242","addr:city":"Röhrenbach","amenity":"townhall","addr:postcode":"3592"},{"geometry":{"type":"Point","coordinates":[15.4472642,48.6426052]},"id":"node/8653219609","addr:city":"Pölla","amenity":"townhall","addr:postcode":"3593"},{"geometry":{"type":"Point","coordinates":[15.517433,48.693272]},"id":"node/4429278049","addr:city":"Brunn an der Wild","amenity":"townhall","addr:postcode":"3595"},{"geometry":{"type":"Point","coordinates":[15.5201478,48.3955527]},"id":"node/11453514766","addr:city":"Dürnstein","amenity":"townhall","addr:postcode":"3601"},{"geometry":{"type":"Point","coordinates":[15.5053957,48.3971475]},"id":"node/11453777523","addr:city":"Rossatz-Arnsdorf","amenity":"townhall","addr:postcode":"3602"},{"geometry":{"type":"Point","coordinates":[15.4692905,48.3963622]},"id":"node/11453777520","addr:city":"Weißenkirchen in der Wachau","amenity":"townhall","addr:postcode":"3610"},{"geometry":{"type":"Point","coordinates":[15.3684542,48.462305]},"id":"node/11453777518","addr:city":"Albrechtsberg an der Großen Krems","amenity":"townhall","addr:postcode":"3613"},{"geometry":{"type":"Point","coordinates":[15.4149992,48.3624926]},"id":"node/7389899673","addr:city":"Spitz","amenity":"townhall","addr:postcode":"3620"},{"geometry":{"type":"Point","coordinates":[15.3465579,48.3728103]},"id":"node/11453777521","addr:city":"Mühldorf","amenity":"townhall","addr:postcode":"3622"},{"geometry":{"type":"Point","coordinates":[15.3039685,48.4160393]},"id":"node/11483101718","addr:city":"Kottes","amenity":"townhall","addr:postcode":"3623"},{"geometry":{"type":"Point","coordinates":[15.2227595,48.3939987]},"id":"node/1707332404","addr:city":"Kirchschlag","amenity":"townhall","addr:postcode":"3631"},{"geometry":{"type":"Point","coordinates":[15.2216528,48.4227823]},"id":"node/11483101716","addr:city":"Ottenschlag","amenity":"townhall","addr:postcode":"3631"},{"geometry":{"type":"Point","coordinates":[15.113472,48.4341921]},"id":"node/11483101714","addr:city":"Bad Traunstein","amenity":"townhall","addr:postcode":"3632"},{"geometry":{"type":"Point","coordinates":[15.037479,48.4527912]},"id":"node/11483101713","addr:city":"Schönbach","amenity":"townhall","addr:postcode":"3633"},{"geometry":{"type":"Point","coordinates":[15.4041413,48.296861]},"id":"node/2239083874","addr:city":"Aggsbach","amenity":"townhall","addr:postcode":"3641"},{"geometry":{"type":"Point","coordinates":[15.4043354,48.2948504]},"id":"node/7525464127","addr:city":"Aggsbach","amenity":"townhall","addr:postcode":"3641"},{"geometry":{"type":"Point","coordinates":[15.3445972,48.3026247]},"id":"node/11453777522","addr:city":"Maria Laach am Jauerling","amenity":"townhall","addr:postcode":"3643"},{"geometry":{"type":"Point","coordinates":[15.3356333,48.2405219]},"id":"node/7622336347","addr:city":"Emmersdorf an der Donau","amenity":"townhall","addr:postcode":"3644"},{"geometry":{"type":"Point","coordinates":[15.1991746,48.317492]},"id":"node/11472500417","addr:city":"Pöggstall","amenity":"townhall","addr:postcode":"3650"},{"geometry":{"type":"Point","coordinates":[15.2748,48.2453159]},"id":"node/4089735943","addr:city":"Leiben","amenity":"townhall","addr:postcode":"3652"},{"geometry":{"type":"Point","coordinates":[15.2643087,48.2909191]},"id":"node/6066834916","addr:city":"Weiten","amenity":"townhall","addr:postcode":"3653"},{"geometry":{"type":"Point","coordinates":[15.2775514,48.3410801]},"id":"node/11472500396","addr:city":"Raxendorf","amenity":"townhall","addr:postcode":"3654"},{"geometry":{"type":"Point","coordinates":[15.2153403,48.2188657]},"id":"node/7810041709","addr:city":"Klein-Pöchlarn","amenity":"townhall","addr:postcode":"3660"},{"geometry":{"type":"Point","coordinates":[15.2046265,48.2424505]},"id":"node/11472500395","addr:city":"Artstetten","amenity":"townhall","addr:postcode":"3661"},{"geometry":{"type":"Point","coordinates":[15.1332939,48.2656509]},"id":"node/1878227410","addr:city":"Münichreith-Laimbach","amenity":"townhall","addr:postcode":"3662"},{"geometry":{"type":"Point","coordinates":[15.1500457,48.3755593]},"id":"node/3781286541","addr:city":"Martinsberg","amenity":"townhall","addr:postcode":"3664"},{"geometry":{"type":"Point","coordinates":[15.0025824,48.3909495]},"id":"node/4021661146","addr:city":"Bärnkopf","amenity":"townhall","addr:postcode":"3665"},{"geometry":{"type":"Point","coordinates":[15.1513267,48.2143084]},"id":"node/11472500394","addr:city":"Marbach an der Donau","amenity":"townhall","addr:postcode":"3671"},{"geometry":{"type":"Point","coordinates":[15.1596572,48.2257677]},"id":"node/1288155783","addr:city":"Maria Taferl","amenity":"townhall","addr:postcode":"3672"},{"geometry":{"type":"Point","coordinates":[15.080086,48.1877732]},"id":"node/4074811696","addr:city":"Persenbeug","amenity":"townhall","addr:postcode":"3680"},{"geometry":{"type":"Point","coordinates":[15.0790156,48.1955796]},"id":"node/11472500429","addr:city":"Hofamt Priel","amenity":"townhall","addr:postcode":"3681"},{"geometry":{"type":"Point","coordinates":[15.0656944,48.2831884]},"id":"node/11472500425","addr:city":"Yspertal","amenity":"townhall","addr:postcode":"3683"},{"geometry":{"type":"Point","coordinates":[15.0388657,48.2676327]},"id":"node/11472500427","addr:city":"Sankt Oswald","amenity":"townhall","addr:postcode":"3684"},{"geometry":{"type":"Point","coordinates":[14.9836685,48.223294]},"id":"node/11472500428","addr:city":"Nöchling","amenity":"townhall","addr:postcode":"3691"},{"geometry":{"type":"Point","coordinates":[15.9827887,48.4729515]},"id":"node/11537272476","addr:city":"Großweikersdorf","amenity":"townhall","addr:postcode":"3701"},{"geometry":{"type":"Point","coordinates":[16.0381572,48.4502368]},"id":"node/5162098041","addr:city":"Niederrußbach","amenity":"townhall","addr:postcode":"3702"},{"geometry":{"type":"Point","coordinates":[15.9491711,48.4995854]},"id":"node/402745413","addr:city":"Kleinwetzdorf","amenity":"townhall","addr:postcode":"3704"},{"geometry":{"type":"Point","coordinates":[15.9278378,48.5275959]},"id":"node/604766744","addr:city":"Ziersdorf","amenity":"townhall","addr:postcode":"3710"},{"geometry":{"type":"Point","coordinates":[15.8283662,48.5708958]},"id":"node/11515966624","addr:city":"Maissau","amenity":"townhall","addr:postcode":"3712"},{"geometry":{"type":"Point","coordinates":[15.9419341,48.5985179]},"id":"node/11515966610","addr:city":"Sitzendorf an der Schmida","amenity":"townhall","addr:postcode":"3714"},{"geometry":{"type":"Point","coordinates":[15.8499466,48.5516811]},"id":"node/2539403141","addr:city":"Ravelsbach","amenity":"townhall","addr:postcode":"3720"},{"geometry":{"type":"Point","coordinates":[15.8641593,48.6103571]},"id":"node/4352730584","addr:city":"Straning-Grafenberg","amenity":"townhall","addr:postcode":"3722"},{"geometry":{"type":"Point","coordinates":[15.8145203,48.6075715]},"id":"node/11508936486","addr:city":"Burgschleinitz","amenity":"townhall","addr:postcode":"3730"},{"geometry":{"type":"Point","coordinates":[15.8175216,48.6419791]},"id":"node/11508936483","addr:city":"Eggenburg","amenity":"townhall","addr:postcode":"3730"},{"geometry":{"type":"Point","coordinates":[15.8593681,48.7057567]},"id":"node/11515966574","addr:city":"Pulkau","amenity":"townhall","addr:postcode":"3741"},{"geometry":{"type":"Point","coordinates":[15.790005,48.7310044]},"id":"node/1428670697","addr:city":"Theras","amenity":"townhall","addr:postcode":"3742"},{"geometry":{"type":"Point","coordinates":[15.886285,48.6661877]},"id":"node/11508936482","addr:city":"Röschitz","amenity":"townhall","addr:postcode":"3743"},{"geometry":{"type":"Point","coordinates":[15.75125,48.6640393]},"id":"node/11508936481","addr:city":"Meiseldorf","amenity":"townhall","addr:postcode":"3744"},{"geometry":{"type":"Point","coordinates":[15.7434515,48.6874503]},"id":"node/11508936480","addr:city":"Sigmundsherberg","amenity":"townhall","addr:postcode":"3751"},{"geometry":{"type":"Point","coordinates":[15.6269055,48.7380432]},"id":"node/11508936478","addr:city":"Pernegg","amenity":"townhall","addr:postcode":"3753"},{"geometry":{"type":"Point","coordinates":[15.5362609,48.7463901]},"id":"node/11508936476","addr:city":"Irnfritz-Messern","amenity":"townhall","addr:postcode":"3754"},{"geometry":{"type":"Point","coordinates":[15.4910855,48.7698756]},"id":"node/11506286932","addr:city":"Ludweis-Aigen","amenity":"townhall","addr:postcode":"3762"},{"geometry":{"type":"Point","coordinates":[15.569532,48.793423]},"id":"node/11233133135","addr:city":"Japons","amenity":"townhall","addr:postcode":"3763"},{"geometry":{"type":"Point","coordinates":[15.4008472,48.7248184]},"id":"node/11483101703","addr:city":"Göpfritz an der Wild","amenity":"townhall","addr:postcode":"3800"},{"geometry":{"type":"Point","coordinates":[15.3293757,48.6956062]},"id":"node/11483101705","addr:city":"Allentsteig","amenity":"townhall","addr:postcode":"3804"},{"geometry":{"type":"Point","coordinates":[15.4063301,48.7915617]},"id":"node/1562580584","addr:city":"Groß-Siegharts","amenity":"townhall","addr:postcode":"3812"},{"geometry":{"type":"Point","coordinates":[15.3809988,48.794234]},"id":"node/11233147652","addr:city":"Dietmanns","amenity":"townhall","addr:postcode":"3813"},{"geometry":{"type":"Point","coordinates":[15.4943285,48.8471206]},"id":"node/926196233","addr:city":"Raabs an der Thaya","amenity":"townhall","addr:postcode":"3820"},{"geometry":{"type":"Point","coordinates":[15.4044627,48.8835968]},"id":"node/513776295","addr:city":"Karlstein an der Thaya","amenity":"townhall","addr:postcode":"3822"},{"geometry":{"type":"Point","coordinates":[15.2869047,48.8150569]},"id":"node/5996502461","addr:city":"Waidhofen an der Thaya","amenity":"townhall","addr:postcode":"3830"},{"geometry":{"type":"Point","coordinates":[15.2792608,48.8107008]},"id":"node/11506286933","addr:city":"Waidhofen an der Thaya","amenity":"townhall","addr:postcode":"3830"},{"geometry":{"type":"Point","coordinates":[15.2871416,48.7650835]},"id":"node/9008362735","addr:city":"Windigsteig","amenity":"townhall","addr:postcode":"3841"},{"geometry":{"type":"Point","coordinates":[15.2870862,48.8556317]},"id":"node/11506286903","addr:city":"Thaya","amenity":"townhall","addr:postcode":"3842"},{"geometry":{"type":"Point","coordinates":[15.3213805,48.9158926]},"id":"node/11506286911","addr:city":"Dobersberg","amenity":"townhall","addr:postcode":"3843"},{"geometry":{"type":"Point","coordinates":[15.3518354,48.939448]},"id":"node/11506286912","addr:city":"Waldkirchen an der Thaya","amenity":"townhall","addr:postcode":"3844"},{"geometry":{"type":"Point","coordinates":[15.2409321,48.9285868]},"id":"node/11506286908","addr:city":"Kautzen","amenity":"townhall","addr:postcode":"3851"},{"geometry":{"type":"Point","coordinates":[15.2190894,48.8960251]},"id":"node/7133553470","addr:city":"Gastern","amenity":"townhall","addr:postcode":"3852"},{"geometry":{"type":"Point","coordinates":[15.122041,48.8655251]},"id":"node/11492125315","addr:city":"Heidenreichstein","amenity":"townhall","addr:postcode":"3860"},{"geometry":{"type":"Point","coordinates":[15.1474844,48.9084455]},"id":"node/11492125314","addr:city":"Eggern","amenity":"townhall","addr:postcode":"3861"},{"geometry":{"type":"Point","coordinates":[15.0998256,48.9162255]},"id":"node/11492125313","addr:city":"Eisgarn","amenity":"townhall","addr:postcode":"3862"},{"geometry":{"type":"Point","coordinates":[15.1486854,48.9657022]},"id":"node/11492125311","addr:city":"Reingers","amenity":"townhall","addr:postcode":"3863"},{"geometry":{"type":"Point","coordinates":[14.9939789,48.839173]},"id":"node/11492125316","addr:city":"Alt-Nagelberg","amenity":"townhall","addr:postcode":"3871"},{"geometry":{"type":"Point","coordinates":[15.0871841,48.8303027]},"id":"node/1369272395","addr:city":"Amaliendorf-Aalfang","amenity":"townhall","addr:postcode":"3872"},{"geometry":{"type":"Point","coordinates":[15.0580992,48.9953082]},"id":"node/5787161834","addr:city":"Haugschlag","amenity":"townhall","addr:postcode":"3874"},{"geometry":{"type":"Point","coordinates":[15.0456268,48.9440777]},"id":"node/11492125312","addr:city":"Litschau","amenity":"townhall","addr:postcode":"3874"},{"geometry":{"type":"Point","coordinates":[15.2590589,48.7434413]},"id":"node/11483101706","addr:city":"Schwarzenau","amenity":"townhall","addr:postcode":"3900"},{"geometry":{"type":"Point","coordinates":[15.1838429,48.7590558]},"id":"node/11506286935","addr:city":"Vitis","amenity":"townhall","addr:postcode":"3902"},{"geometry":{"type":"Point","coordinates":[15.2177127,48.7196383]},"id":"node/11483101707","addr:city":"Echsenbach","amenity":"townhall","addr:postcode":"3903"},{"geometry":{"type":"Point","coordinates":[15.0800557,48.5212062]},"id":"node/11483101710","addr:city":"Rappottenstein","amenity":"townhall","addr:postcode":"3911"},{"geometry":{"type":"Point","coordinates":[15.1662397,48.5004107]},"id":"node/11483101711","addr:city":"Grafenschlag","amenity":"townhall","addr:postcode":"3912"},{"geometry":{"type":"Point","coordinates":[15.1893951,48.5394369]},"id":"node/5890469238","addr:city":"Großgöttfritz","amenity":"townhall","addr:postcode":"3913"},{"geometry":{"type":"Point","coordinates":[15.260624,48.5221216]},"id":"node/11483101709","addr:city":"Waldhausen","amenity":"townhall","addr:postcode":"3914"},{"geometry":{"type":"Point","coordinates":[14.9580342,48.5743332]},"id":"node/582480114","addr:city":"Groß Gerungs","amenity":"townhall","addr:postcode":"3920"},{"geometry":{"type":"Point","coordinates":[14.8843285,48.5749715]},"id":"node/3475251164","addr:city":"Langschlag","amenity":"townhall","addr:postcode":"3921"},{"geometry":{"type":"Point","coordinates":[14.942166,48.6517449]},"id":"node/11492125340","addr:city":"Großschönau","amenity":"townhall","addr:postcode":"3922"},{"geometry":{"type":"Point","coordinates":[14.9660418,48.4621469]},"id":"node/2358236587","addr:city":"Altmelon","amenity":"townhall","addr:postcode":"3925"},{"geometry":{"type":"Point","coordinates":[14.9556233,48.4942147]},"id":"node/11483101719","addr:city":"Arbesbach","amenity":"townhall","addr:postcode":"3925"},{"geometry":{"type":"Point","coordinates":[15.0632201,48.6672556]},"id":"node/11483101708","addr:city":"Schweiggers","amenity":"townhall","addr:postcode":"3931"},{"geometry":{"type":"Point","coordinates":[15.1262178,48.7441307]},"id":"node/11492125334","addr:city":"Hirschbach","amenity":"townhall","addr:postcode":"3942"},{"geometry":{"type":"Point","coordinates":[15.025669,48.7718006]},"id":"node/4338988521","addr:city":"Hoheneich","amenity":"townhall","addr:postcode":"3945"},{"geometry":{"type":"Point","coordinates":[14.9466352,48.7471352]},"id":"node/6835371872","addr:city":"Dietmanns","amenity":"townhall","addr:postcode":"3950"},{"geometry":{"type":"Point","coordinates":[15.0198782,48.7290069]},"id":"node/2501561017","addr:city":"Waldenstein","amenity":"townhall","addr:postcode":"3961"},{"geometry":{"type":"Point","coordinates":[14.7981602,48.7100038]},"id":"node/11492125337","addr:city":"Moorbad Harbach","amenity":"townhall","addr:postcode":"3970"},{"geometry":{"type":"Point","coordinates":[14.8992808,48.723579]},"id":"node/11492125335","addr:city":"Weitra","amenity":"townhall","addr:postcode":"3970"},{"geometry":{"type":"Point","coordinates":[14.893624,48.7007114]},"id":"node/11492125336","addr:city":"Weitra","amenity":"townhall","addr:postcode":"3970"},{"geometry":{"type":"Point","coordinates":[14.8380983,48.6655196]},"id":"node/11492125338","addr:city":"St. Martin","amenity":"townhall","addr:postcode":"3971"},{"geometry":{"type":"Point","coordinates":[14.8244782,48.629128]},"id":"node/2372240294","addr:city":"Bad Großpertholz","amenity":"townhall","addr:postcode":"3972"},{"geometry":{"type":"Point","coordinates":[14.2503391,48.2047666]},"id":"node/3040731974","addr:city":"Ansfelden","amenity":"townhall","addr:postcode":"4053"},{"geometry":{"type":"Point","coordinates":[14.2484348,48.2792601]},"id":"node/920072490","addr:city":"Leonding","amenity":"townhall","addr:postcode":"4060"},{"geometry":{"type":"Point","coordinates":[14.15753,48.3504575]},"id":"node/1377842212","amenity":"townhall","addr:postcode":"4111"},{"geometry":{"type":"Point","coordinates":[14.4671433,48.3681613]},"id":"node/3033925629","addr:city":"Unterweitersdorf","amenity":"townhall","addr:postcode":"4213"},{"geometry":{"type":"Point","coordinates":[14.4756466,48.2527001]},"id":"node/3053504381","addr:city":"Langenstein","amenity":"townhall","addr:postcode":"4222"},{"geometry":{"type":"Point","coordinates":[14.5145216,48.3660993]},"id":"node/413487737","addr:city":"Hagenberg im Mühlkreis","amenity":"townhall","addr:postcode":"4232"},{"geometry":{"type":"Point","coordinates":[14.8068834,48.5322365]},"id":"node/2285609692","addr:city":"Liebenau","amenity":"townhall","addr:postcode":"4252"},{"geometry":{"type":"Point","coordinates":[14.6698321,48.3502518]},"id":"node/3031867041","addr:city":"Bad Zell","amenity":"townhall","addr:postcode":"4283"},{"geometry":{"type":"Point","coordinates":[14.5333375,48.17463]},"id":"node/3072988770","addr:city":"St. Valentin","amenity":"townhall","addr:postcode":"4300"},{"geometry":{"type":"Point","coordinates":[14.5674768,48.2101626]},"id":"node/11543001852","addr:city":"Sankt Pantaleon-Erla","amenity":"townhall","addr:postcode":"4303"},{"geometry":{"type":"Point","coordinates":[14.9829859,48.3268349]},"id":"node/11472500426","addr:city":"Dorfstetten","amenity":"townhall","addr:postcode":"4392"},{"geometry":{"type":"Point","coordinates":[14.5161554,48.0769921]},"id":"node/11543001854","addr:city":"Haidershofen","amenity":"townhall","addr:postcode":"4431"},{"geometry":{"type":"Point","coordinates":[14.4826908,48.1263846]},"id":"node/11543001851","addr:city":"Ernsthofen","amenity":"townhall","addr:postcode":"4432"},{"geometry":{"type":"Point","coordinates":[14.4974708,48.034065]},"id":"node/3072961538","addr:city":"Behamberg","amenity":"townhall","addr:postcode":"4441"},{"geometry":{"type":"Point","coordinates":[14.4917439,48.2122691]},"id":"node/3072988319","addr:city":"Ennsdorf","amenity":"townhall","addr:postcode":"4482"},{"geometry":{"type":"Point","coordinates":[14.3812811,48.2061469]},"id":"node/1670058300","addr:city":"St. Florian","amenity":"townhall","addr:postcode":"4490"},{"geometry":{"type":"Point","coordinates":[14.2287293,48.1370993]},"id":"node/9653425234","addr:city":"Neuhofen an der Krems","amenity":"townhall","addr:postcode":"4501"},{"geometry":{"type":"Point","coordinates":[14.1633043,47.9718681]},"id":"node/310886935","addr:city":"Nußbach","amenity":"townhall","addr:postcode":"4542"},{"geometry":{"type":"Point","coordinates":[14.389157,47.7125787]},"id":"node/3067884914","addr:city":"Rosenau am Hengstpaß","amenity":"townhall","addr:postcode":"4581"},{"geometry":{"type":"Point","coordinates":[13.9578147,48.0790001]},"id":"node/392062336","addr:city":"Steinerkirchen an der Traun","amenity":"townhall","addr:postcode":"4652"},{"geometry":{"type":"Point","coordinates":[13.7902062,48.1096022]},"id":"node/3029637619","addr:city":"Aichkirchen","amenity":"townhall","addr:postcode":"4671"},{"geometry":{"type":"Point","coordinates":[13.6392382,48.1847788]},"id":"node/2567900041","addr:city":"Haag am Hausruck","amenity":"townhall","addr:postcode":"4680"},{"geometry":{"type":"Point","coordinates":[13.8144025,48.2064623]},"id":"node/1420034756","addr:city":"Gallspach","amenity":"townhall","addr:postcode":"4713"},{"geometry":{"type":"Point","coordinates":[13.8570682,48.3294068]},"id":"node/3055235670","addr:city":"Waizenkirchen","amenity":"townhall","addr:postcode":"4730"},{"geometry":{"type":"Point","coordinates":[13.5720489,48.4123509]},"id":"node/3044999128","addr:city":"Diersbach","amenity":"townhall","addr:postcode":"4776"},{"geometry":{"type":"Point","coordinates":[13.4420426,48.4416884]},"id":"node/3029070448","addr:city":"St. Florian am Inn","amenity":"townhall","addr:postcode":"4782"},{"geometry":{"type":"Point","coordinates":[13.5678115,48.483445]},"id":"node/512637104","amenity":"townhall","addr:postcode":"4792"},{"geometry":{"type":"Point","coordinates":[13.6219614,47.7111245]},"id":"node/3043007235","addr:city":"Bad Ischl","amenity":"townhall","addr:postcode":"4820"},{"geometry":{"type":"Point","coordinates":[13.6616301,48.0067759]},"id":"node/1864021428","addr:city":"Vöcklabruck","amenity":"townhall","addr:postcode":"4840"},{"geometry":{"type":"Point","coordinates":[13.5853,47.954518]},"id":"node/3060445576","addr:city":"Seewalchen am Attersee","amenity":"townhall","addr:postcode":"4863"},{"geometry":{"type":"Point","coordinates":[13.4875182,47.8040078]},"id":"node/3057237263","addr:city":"Unterach am Attersee","amenity":"townhall","addr:postcode":"4866"},{"geometry":{"type":"Point","coordinates":[13.48584,48.0023622]},"id":"node/3046772423","addr:city":"Vöcklamarkt","amenity":"townhall","addr:postcode":"4870"},{"geometry":{"type":"Point","coordinates":[13.4906057,47.9333403]},"id":"node/3069952412","addr:city":"St. Georgen im Attergau","amenity":"townhall","addr:postcode":"4880"},{"geometry":{"type":"Point","coordinates":[13.2133086,48.2812856]},"id":"node/3033956524","addr:city":"Mühlheim am Inn","amenity":"townhall","addr:postcode":"4961"},{"geometry":{"type":"Point","coordinates":[12.957408,47.992711]},"id":"node/5191764421","addr:city":"Lamprechtshausen","amenity":"townhall","addr:postcode":"5112"},{"geometry":{"type":"Point","coordinates":[13.0076015,48.134551]},"id":"node/3048529275","addr:city":"Handenberg","amenity":"townhall","addr:postcode":"5144"},{"geometry":{"type":"Point","coordinates":[13.2247939,47.9452277]},"id":"node/3805269423","addr:city":"Neumarkt am Wallersee","amenity":"townhall","addr:postcode":"5202"},{"geometry":{"type":"Point","coordinates":[13.2247992,47.9453265]},"id":"node/5715790111","addr:city":"Neumarkt am Wallersee","amenity":"townhall","addr:postcode":"5202"},{"geometry":{"type":"Point","coordinates":[13.0354126,48.2578088]},"id":"node/1627957617","addr:city":"Braunau am Inn","amenity":"townhall","addr:postcode":"5280"},{"geometry":{"type":"Point","coordinates":[13.2130417,47.8197529]},"id":"node/5807356513","addr:city":"Hof bei Salzburg","amenity":"townhall","addr:postcode":"5322"},{"geometry":{"type":"Point","coordinates":[13.2333589,47.7781652]},"id":"node/5760535756","addr:city":"Faistenau","amenity":"townhall","addr:postcode":"5324"},{"geometry":{"type":"Point","coordinates":[13.0902745,47.7166978]},"id":"node/8210527431","addr:city":"Puch bei Hallein","amenity":"townhall","addr:postcode":"5412"},{"geometry":{"type":"Point","coordinates":[13.346078,47.5634951]},"id":"node/920521651","addr:city":"Abtenau","amenity":"townhall","addr:postcode":"5441"},{"geometry":{"type":"Point","coordinates":[13.3073937,47.4156016]},"id":"node/3704630083","addr:city":"Hüttau","amenity":"townhall","addr:postcode":"5511"},{"geometry":{"type":"Point","coordinates":[13.5073645,47.3040009]},"id":"node/5836121561","addr:city":"Untertauern","amenity":"townhall","addr:postcode":"5561"},{"geometry":{"type":"Point","coordinates":[13.6792754,47.1341066]},"id":"node/9050489156","addr:city":"Mauterndorf","amenity":"townhall","addr:postcode":"5570"},{"geometry":{"type":"Point","coordinates":[13.7040737,47.1757647]},"id":"node/9017753061","addr:city":"Weißpriach","amenity":"townhall","addr:postcode":"5573"},{"geometry":{"type":"Point","coordinates":[13.764591,47.174778]},"id":"node/5840946379","addr:city":"Göriach","amenity":"townhall","addr:postcode":"5574"},{"geometry":{"type":"Point","coordinates":[13.6958475,47.0796374]},"id":"node/3090168686","addr:city":"Sankt Margarethen im Lungau","amenity":"townhall","addr:postcode":"5581"},{"geometry":{"type":"Point","coordinates":[13.1511239,47.3208816]},"id":"node/2078771823","addr:city":"Schwarzach im Pongau","amenity":"townhall","addr:postcode":"5620"},{"geometry":{"type":"Point","coordinates":[12.4815092,47.2813089]},"id":"node/915301419","addr:city":"Mittersill","amenity":"townhall","addr:postcode":"5730"},{"geometry":{"type":"Point","coordinates":[12.9044514,47.4068862]},"id":"node/1437463180","addr:city":"Maria Alm am Steinernen Meer","amenity":"townhall","addr:postcode":"5761"},{"geometry":{"type":"Point","coordinates":[11.4725206,47.2933379]},"id":"node/3077131810","addr:city":"Thaur","amenity":"townhall","addr:postcode":"6065"},{"geometry":{"type":"Point","coordinates":[11.3109151,47.2366821]},"id":"node/3068619600","addr:city":"Götzens","amenity":"townhall","addr:postcode":"6091"},{"geometry":{"type":"Point","coordinates":[11.2803123,47.232588]},"id":"node/312885663","addr:city":"Axams","amenity":"townhall","addr:postcode":"6094"},{"geometry":{"type":"Point","coordinates":[11.7085093,47.3450382]},"id":"node/3059261371","addr:city":"Schwaz","amenity":"townhall","addr:postcode":"6130"},{"geometry":{"type":"Point","coordinates":[11.4054059,47.1863754]},"id":"node/3077094286","addr:city":"Schönberg im Stubaital","amenity":"townhall","addr:postcode":"6141"},{"geometry":{"type":"Point","coordinates":[11.4677377,47.0903504]},"id":"node/3077094289","addr:city":"Steinach am Brenner","amenity":"townhall","addr:postcode":"6150"},{"geometry":{"type":"Point","coordinates":[11.4788916,47.0379162]},"id":"node/3068695363","addr:city":"Gries am Brenner","amenity":"townhall","addr:postcode":"6156"},{"geometry":{"type":"Point","coordinates":[11.4204739,47.0161989]},"id":"node/3074786299","addr:city":"Obernberg am Brenner","amenity":"townhall","addr:postcode":"6157"},{"geometry":{"type":"Point","coordinates":[11.3758405,47.2342612]},"id":"node/3074786295","addr:city":"Natters","amenity":"townhall","addr:postcode":"6161"},{"geometry":{"type":"Point","coordinates":[11.3760059,47.2269602]},"id":"node/3068695377","addr:city":"Mutters","amenity":"townhall","addr:postcode":"6162"},{"geometry":{"type":"Point","coordinates":[11.7683082,47.3776995]},"id":"node/3055954740","addr:city":"Buch in Tirol","amenity":"townhall","addr:postcode":"6220"},{"geometry":{"type":"Point","coordinates":[11.8740607,47.2049885]},"id":"node/3059134843","addr:city":"Ramsau im Zillertal","amenity":"townhall","addr:postcode":"6284"},{"geometry":{"type":"Point","coordinates":[12.0574144,47.5299716]},"id":"node/3039602514","addr:city":"Mariastein","amenity":"townhall","addr:postcode":"6324"},{"geometry":{"type":"Point","coordinates":[12.1170155,47.5947234]},"id":"node/3039645650","addr:city":"Thiersee","amenity":"townhall","addr:postcode":"6335"},{"geometry":{"type":"Point","coordinates":[12.4303731,47.52186]},"id":"node/3050268654","addr:city":"St. Johann in Tirol","amenity":"townhall","addr:postcode":"6380"},{"geometry":{"type":"Point","coordinates":[12.5441586,47.4768528]},"id":"node/3050218045","addr:city":"Fieberbrunn","amenity":"townhall","addr:postcode":"6391"},{"geometry":{"type":"Point","coordinates":[11.0067487,47.3182794]},"id":"node/3077172151","addr:city":"Wildermieming","amenity":"townhall","addr:postcode":"6413"},{"geometry":{"type":"Point","coordinates":[10.8198124,47.2169282]},"id":"node/2451340969","addr:city":"Roppen","amenity":"townhall","addr:postcode":"6426"},{"geometry":{"type":"Point","coordinates":[10.73156,47.1682551]},"id":"node/2177279832","addr:city":"Wenns","amenity":"townhall","addr:postcode":"6473"},{"geometry":{"type":"Point","coordinates":[10.5888903,47.1583614]},"id":"node/3054198279","addr:city":"Zams","amenity":"townhall","addr:postcode":"6511"},{"geometry":{"type":"Point","coordinates":[10.2925328,47.0144046]},"id":"node/4348647060","addr:city":"Ischgl","amenity":"townhall","addr:postcode":"6561"},{"geometry":{"type":"Point","coordinates":[10.265999,47.1286596]},"id":"node/1039461223","addr:city":"St. Anton am Arlberg","amenity":"townhall","addr:postcode":"6580"},{"geometry":{"type":"Point","coordinates":[10.6806397,47.5410219]},"id":"node/3066806232","addr:city":"Pinswang","amenity":"townhall","addr:postcode":"6600"},{"geometry":{"type":"Point","coordinates":[10.5849464,47.3078651]},"id":"node/3065506251","addr:city":"Pfafflar","amenity":"townhall","addr:postcode":"6647"},{"geometry":{"type":"Point","coordinates":[10.5366033,47.2678983]},"id":"node/3064841039","addr:city":"Gramais","amenity":"townhall","addr:postcode":"6650"},{"geometry":{"type":"Point","coordinates":[10.4038951,47.2699744]},"id":"node/1211057751","addr:city":"Bach","amenity":"townhall","addr:postcode":"6653"},{"geometry":{"type":"Point","coordinates":[10.3440773,47.2599327]},"id":"node/3065506245","addr:city":"Holzgau","amenity":"townhall","addr:postcode":"6654"},{"geometry":{"type":"Point","coordinates":[10.5164144,47.4996546]},"id":"node/3066807058","addr:city":"Tannheim","amenity":"townhall","addr:postcode":"6675"},{"geometry":{"type":"Point","coordinates":[9.783362,47.192867]},"id":"node/2965916671","addr:city":"Ludesch","amenity":"townhall","addr:postcode":"6713"},{"geometry":{"type":"Point","coordinates":[9.7655234,47.1996883]},"id":"node/2967296572","amenity":"townhall","addr:postcode":"6719"},{"geometry":{"type":"Point","coordinates":[9.9029823,47.2394888]},"id":"node/340515046","addr:city":"Sonntag","amenity":"townhall","addr:postcode":"6731"},{"geometry":{"type":"Point","coordinates":[9.8370598,47.210797]},"id":"node/2966004876","addr:city":"Raggal","amenity":"townhall","addr:postcode":"6741"},{"geometry":{"type":"Point","coordinates":[9.8652516,47.0953063]},"id":"node/2967338809","addr:city":"Vandans","amenity":"townhall","addr:postcode":"6773"},{"geometry":{"type":"Point","coordinates":[9.9015607,47.0773893]},"id":"node/2967300436","amenity":"townhall","addr:postcode":"6774"},{"geometry":{"type":"Point","coordinates":[9.9738102,47.0209199]},"id":"node/2967291831","addr:city":"St. Gallenkirch","amenity":"townhall","addr:postcode":"6791"},{"geometry":{"type":"Point","coordinates":[10.0255331,46.9878114]},"id":"node/6833978090","addr:city":"Gaschurn","amenity":"townhall","addr:postcode":"6793"},{"geometry":{"type":"Point","coordinates":[9.699517,47.2165597]},"id":"node/2966012003","addr:city":"Röns","amenity":"townhall","addr:postcode":"6822"},{"geometry":{"type":"Point","coordinates":[9.6633984,47.2911891]},"id":"node/330019272","addr:city":"Röthis","amenity":"townhall","addr:postcode":"6832"},{"geometry":{"type":"Point","coordinates":[9.6536449,47.3027975]},"id":"node/9793365374","addr:city":"Weiler","amenity":"townhall","addr:postcode":"6837"},{"geometry":{"type":"Point","coordinates":[9.7641136,47.4472571]},"id":"node/2967252504","amenity":"townhall","addr:postcode":"6858"},{"geometry":{"type":"Point","coordinates":[9.8951725,47.3712968]},"id":"node/2966003605","amenity":"townhall","addr:postcode":"6870"},{"geometry":{"type":"Point","coordinates":[10.0164558,47.3120211]},"id":"node/2967256120","amenity":"townhall","addr:postcode":"6886"},{"geometry":{"type":"Point","coordinates":[10.0918997,47.2575239]},"id":"node/329994080","addr:city":"Schröcken","amenity":"townhall","addr:postcode":"6888"},{"geometry":{"type":"Point","coordinates":[9.7485235,47.5024124]},"id":"node/6329350821","addr:city":"Bregenz","amenity":"townhall","addr:postcode":"6900"},{"geometry":{"type":"Point","coordinates":[9.8164712,47.5727849]},"id":"node/2966000247","amenity":"townhall","addr:postcode":"6900"},{"geometry":{"type":"Point","coordinates":[9.7800092,47.5368701]},"id":"node/2965816164","addr:city":"Eichenberg","amenity":"townhall","addr:postcode":"6911"},{"geometry":{"type":"Point","coordinates":[9.7818653,47.5882508]},"id":"node/2965854593","amenity":"townhall","addr:postcode":"6914"},{"geometry":{"type":"Point","coordinates":[9.7306117,47.4749803]},"id":"node/3716324250","addr:city":"Lauterach","amenity":"townhall","addr:postcode":"6923"},{"geometry":{"type":"Point","coordinates":[9.8285168,47.5078491]},"id":"node/2965889645","amenity":"townhall","addr:postcode":"6932"},{"geometry":{"type":"Point","coordinates":[9.896945,47.468545]},"id":"node/455226153","addr:city":"Langenegg","amenity":"townhall","addr:postcode":"6941"},{"geometry":{"type":"Point","coordinates":[9.8184611,47.482044]},"id":"node/2965713616","amenity":"townhall","addr:postcode":"6960"},{"geometry":{"type":"Point","coordinates":[16.5390324,47.7798851]},"id":"node/1658440242","addr:city":"Siegendorf im Burgenland","amenity":"townhall","addr:postcode":"7011"},{"geometry":{"type":"Point","coordinates":[16.4889523,47.7459402]},"id":"node/5107761279","addr:city":"Draßburg","amenity":"townhall","addr:postcode":"7021"},{"geometry":{"type":"Point","coordinates":[16.437639,47.7532044]},"id":"node/6166134749","addr:city":"Pöttelsdorf","amenity":"townhall","addr:postcode":"7023"},{"geometry":{"type":"Point","coordinates":[16.4525465,47.7614464]},"id":"node/2073645090","addr:city":"Zemendorf-Stöttera","amenity":"townhall","addr:postcode":"7023"},{"geometry":{"type":"Point","coordinates":[16.4561141,47.7873684]},"id":"node/1618619283","addr:city":"Hirm","amenity":"townhall","addr:postcode":"7024"},{"geometry":{"type":"Point","coordinates":[16.6226452,47.8338085]},"id":"node/4248400914","amenity":"townhall","addr:postcode":"7064"},{"geometry":{"type":"Point","coordinates":[16.6256298,47.8502453]},"id":"node/3678715161","addr:city":"Schützen am Gebirge","amenity":"townhall","addr:postcode":"7081"},{"geometry":{"type":"Point","coordinates":[16.6952933,47.9132149]},"id":"node/7695027876","addr:city":"Purbach am Neusiedler See","amenity":"townhall","addr:postcode":"7083"},{"geometry":{"type":"Point","coordinates":[16.7316869,47.9445198]},"id":"node/1912786638","addr:city":"Breitenbrunn am Neusiedlersee","amenity":"townhall","addr:postcode":"7091"},{"geometry":{"type":"Point","coordinates":[16.7926393,47.9598794]},"id":"node/4809872064","addr:city":"Jois","amenity":"townhall","addr:postcode":"7093"},{"geometry":{"type":"Point","coordinates":[16.9101371,47.8970337]},"id":"node/252255200","addr:city":"Gols","amenity":"townhall","addr:postcode":"7122"},{"geometry":{"type":"Point","coordinates":[16.9726727,47.8716868]},"id":"node/1641183190","addr:city":"Halbturn","amenity":"townhall","addr:postcode":"7131"},{"geometry":{"type":"Point","coordinates":[16.8365062,47.8543836]},"id":"node/9311801218","addr:city":"Podersdorf am See","amenity":"townhall","addr:postcode":"7141"},{"geometry":{"type":"Point","coordinates":[16.8311395,47.7427302]},"id":"node/681316627","addr:city":"Apetlon","amenity":"townhall","addr:postcode":"7143"},{"geometry":{"type":"Point","coordinates":[16.3443355,47.7109668]},"id":"node/3904735481","addr:city":"Forchtenstein","amenity":"townhall","addr:postcode":"7212"},{"geometry":{"type":"Point","coordinates":[16.4244591,47.7085589]},"id":"node/3642559190","addr:city":"Rohrbach bei Mattersburg","amenity":"townhall","addr:postcode":"7222"},{"geometry":{"type":"Point","coordinates":[16.6583942,47.5356709]},"id":"node/6176587369","addr:city":"Nikitsch","amenity":"townhall","addr:postcode":"7302"},{"geometry":{"type":"Point","coordinates":[16.5497792,47.5973424]},"id":"node/4264531713","amenity":"townhall","addr:postcode":"7311"},{"geometry":{"type":"Point","coordinates":[16.4640825,47.5896652]},"id":"node/2574517739","addr:city":"Lackenbach","amenity":"townhall","addr:postcode":"7322"},{"geometry":{"type":"Point","coordinates":[16.4269344,47.5777572]},"id":"node/6404593974","addr:city":"Weppersdorf","amenity":"townhall","addr:postcode":"7331"},{"geometry":{"type":"Point","coordinates":[16.4764606,47.5291427]},"id":"node/4405714067","addr:city":"Stoob","amenity":"townhall","addr:postcode":"7344"},{"geometry":{"type":"Point","coordinates":[16.3628002,47.5140084]},"id":"node/4260099660","amenity":"townhall","addr:postcode":"7372"},{"geometry":{"type":"Point","coordinates":[16.4149229,47.4467982]},"id":"node/3520239256","amenity":"townhall","addr:postcode":"7373"},{"geometry":{"type":"Point","coordinates":[16.2291874,47.3325022]},"id":"node/2328009004","addr:city":"Bad Tatzmannsdorf","amenity":"townhall","addr:postcode":"7431"},{"geometry":{"type":"Point","coordinates":[16.2635872,47.40806]},"id":"node/2157946655","addr:city":"Bernstein","amenity":"townhall","addr:postcode":"7434"},{"geometry":{"type":"Point","coordinates":[16.5234659,47.4270251]},"id":"node/1249769970","addr:city":"Mannersdorf an der Rabnitz","amenity":"townhall","addr:postcode":"7444"},{"geometry":{"type":"Point","coordinates":[16.2789791,47.3240829]},"id":"node/355157687","amenity":"townhall","addr:postcode":"7461"},{"geometry":{"type":"Point","coordinates":[16.440205,47.3056221]},"id":"node/1627140967","amenity":"townhall","addr:postcode":"7471"},{"geometry":{"type":"Point","coordinates":[16.4484501,47.1636663]},"id":"node/1348144137","addr:city":"Deutsch Schützen-Eisenberg","amenity":"townhall","addr:postcode":"7474"},{"geometry":{"type":"Point","coordinates":[16.3131403,47.1942063]},"id":"node/3639300005","amenity":"townhall","addr:postcode":"7511"},{"geometry":{"type":"Point","coordinates":[16.355324,47.1761603]},"id":"node/1704436017","amenity":"townhall","addr:postcode":"7512"},{"geometry":{"type":"Point","coordinates":[16.4123487,47.0456361]},"id":"node/1065837481","amenity":"townhall","addr:postcode":"7522"},{"geometry":{"type":"Point","coordinates":[16.2041742,47.1885359]},"id":"node/5615831587","addr:city":"Olbendorf","amenity":"townhall","addr:postcode":"7534"},{"geometry":{"type":"Point","coordinates":[16.2694413,47.1262431]},"id":"node/1746825562","addr:city":"Sankt Michael im Burgenland","amenity":"townhall","addr:postcode":"7535"},{"geometry":{"type":"Point","coordinates":[16.3219126,47.0593689]},"id":"node/972065881","addr:city":"Güssing","amenity":"townhall","addr:postcode":"7540"},{"geometry":{"type":"Point","coordinates":[16.259925,47.0248608]},"id":"node/9178066093","addr:city":"Neustift bei Güssing","amenity":"townhall","addr:postcode":"7540"},{"geometry":{"type":"Point","coordinates":[16.1664192,47.1604229]},"id":"node/4244158517","addr:city":"Stegersbach","amenity":"townhall","addr:postcode":"7551"},{"geometry":{"type":"Point","coordinates":[16.1068528,47.0877338]},"id":"node/1820445495","addr:city":"Deutsch Kaltenbrunn","amenity":"townhall","addr:postcode":"7572"},{"geometry":{"type":"Point","coordinates":[15.5565346,47.0995194]},"id":"node/2077297833","addr:city":"Kainbach bei Graz","amenity":"townhall","addr:postcode":"8010"},{"geometry":{"type":"Point","coordinates":[15.4036006,47.0111746]},"id":"node/9701158231","addr:city":"Seiersberg-Pirka","amenity":"townhall","addr:postcode":"8054"},{"geometry":{"type":"Point","coordinates":[15.3362432,47.1139013]},"id":"node/9394076524","addr:city":"Gratwein-Straßengel","amenity":"townhall","addr:postcode":"8111"},{"geometry":{"type":"Point","coordinates":[15.2337045,47.2269821]},"id":"node/3610542472","amenity":"townhall","addr:postcode":"8124"},{"geometry":{"type":"Point","coordinates":[15.3265382,47.2692116]},"id":"node/289168016","addr:city":"Frohnleiten","amenity":"townhall","addr:postcode":"8130"},{"geometry":{"type":"Point","coordinates":[15.3286605,47.2719499]},"id":"node/888806505","addr:city":"Frohnleiten","amenity":"townhall","addr:postcode":"8130"},{"geometry":{"type":"Point","coordinates":[15.1755041,47.1017801]},"id":"node/6058232651","addr:city":"Geistthal-Södingberg","amenity":"townhall","addr:postcode":"8152"},{"geometry":{"type":"Point","coordinates":[15.6916222,47.2741203]},"id":"node/3002556062","addr:city":"Anger","amenity":"townhall","addr:postcode":"8184"},{"geometry":{"type":"Point","coordinates":[15.6506603,47.363088]},"id":"node/2097634583","addr:city":"Haslau","amenity":"townhall","addr:postcode":"8190"},{"geometry":{"type":"Point","coordinates":[15.9538434,47.4422154]},"id":"node/2085783170","addr:city":"Sankt Lorenzen am Wechsel","amenity":"townhall","addr:postcode":"8242"},{"geometry":{"type":"Point","coordinates":[16.0652494,47.4440145]},"id":"node/1783539160","addr:city":"Pinggau","amenity":"townhall","addr:postcode":"8243"},{"geometry":{"type":"Point","coordinates":[16.052676,47.1157433]},"id":"node/3810176080","addr:city":"Bad Blumau","amenity":"townhall","addr:postcode":"8283"},{"geometry":{"type":"Point","coordinates":[16.1143971,47.1945592]},"id":"node/4239131073","amenity":"townhall","addr:postcode":"8292"},{"geometry":{"type":"Point","coordinates":[15.5829925,47.077057]},"id":"node/2045206399","addr:city":"Laßnitzhöhe","amenity":"townhall","addr:postcode":"8301"},{"geometry":{"type":"Point","coordinates":[15.8434779,47.0538696]},"id":"node/3402615854","addr:city":"Markt Hartmannsdorf","amenity":"townhall","addr:postcode":"8311"},{"geometry":{"type":"Point","coordinates":[15.6346018,47.0199454]},"id":"node/2144339770","amenity":"townhall","addr:postcode":"8323"},{"geometry":{"type":"Point","coordinates":[15.9320969,46.9423969]},"id":"node/2609668327","addr:city":"Feldbach","amenity":"townhall","addr:postcode":"8330"},{"geometry":{"type":"Point","coordinates":[15.9352258,47.0008383]},"id":"node/392747388","amenity":"townhall","addr:postcode":"8333"},{"geometry":{"type":"Point","coordinates":[16.230321,46.9480224]},"id":"node/4078033465","addr:city":"Mogersdorf","amenity":"townhall","addr:postcode":"8382"},{"geometry":{"type":"Point","coordinates":[16.1340746,46.9205402]},"id":"node/10822461165","addr:city":"Sankt Martin an der Raab","amenity":"townhall","addr:postcode":"8383"},{"geometry":{"type":"Point","coordinates":[15.4783656,46.9644755]},"id":"node/281266438","amenity":"townhall","addr:postcode":"8401"},{"geometry":{"type":"Point","coordinates":[15.5356295,46.8574967]},"id":"node/6808375303","addr:city":"Lebring-Sankt Margarethen","amenity":"townhall","addr:postcode":"8403"},{"geometry":{"type":"Point","coordinates":[15.6250644,46.7500695]},"id":"node/2367507359","amenity":"townhall","addr:postcode":"8423"},{"geometry":{"type":"Point","coordinates":[15.4882926,46.7595528]},"id":"node/5829733950","addr:city":"Heimschuh","amenity":"townhall","addr:postcode":"8451"},{"geometry":{"type":"Point","coordinates":[15.4407372,46.7370664]},"id":"node/1999731213","addr:city":"Großklein","amenity":"townhall","addr:postcode":"8452"},{"geometry":{"type":"Point","coordinates":[15.2967275,46.8555509]},"id":"node/2361250779","addr:city":"Stainz","amenity":"townhall","addr:postcode":"8522"},{"geometry":{"type":"Point","coordinates":[15.2154793,47.0093905]},"id":"node/454299513","amenity":"townhall","addr:postcode":"8564"},{"geometry":{"type":"Point","coordinates":[15.1280129,47.0707128]},"id":"node/6019753962","addr:city":"Bärnbach","amenity":"townhall","addr:postcode":"8572"},{"geometry":{"type":"Point","coordinates":[15.1156062,47.0961407]},"id":"node/1923563294","amenity":"townhall","addr:postcode":"8572"},{"geometry":{"type":"Point","coordinates":[15.1140773,47.0551207]},"id":"node/3832525220","addr:city":"Rosental an der Kainach","amenity":"townhall","addr:postcode":"8582"},{"geometry":{"type":"Point","coordinates":[15.0503469,47.0214613]},"id":"node/6046393241","addr:city":"Edelschrott","amenity":"townhall","addr:postcode":"8583"},{"geometry":{"type":"Point","coordinates":[15.2893419,47.4395905]},"id":"node/1099614655","amenity":"townhall","addr:postcode":"8605"},{"geometry":{"type":"Point","coordinates":[15.5703402,47.3830801]},"id":"node/8988197383","addr:city":"Gasen","amenity":"townhall","addr:postcode":"8616"},{"geometry":{"type":"Point","coordinates":[15.5743154,47.6669852]},"id":"node/3655838295","addr:city":"Neuberg an der Mürz","amenity":"townhall","addr:postcode":"8692"},{"geometry":{"type":"Point","coordinates":[14.829589,47.214988]},"id":"node/2040941616","addr:city":"Knittefeld","amenity":"townhall","addr:postcode":"8720"},{"geometry":{"type":"Point","coordinates":[14.8100062,47.1867076]},"id":"node/6542850360","addr:city":"Lobmingtal","amenity":"townhall","addr:postcode":"8734"},{"geometry":{"type":"Point","coordinates":[14.5799786,47.2202585]},"id":"node/6174659458","addr:city":"Pöls-Oberkurzheim","amenity":"townhall","addr:postcode":"8761"},{"geometry":{"type":"Point","coordinates":[14.3747257,47.3081058]},"id":"node/10669051231","addr:city":"Pusterwald","amenity":"townhall","addr:postcode":"8764"},{"geometry":{"type":"Point","coordinates":[14.8231707,47.3993489]},"id":"node/7729618855","addr:city":"Mautern in Steiermark","amenity":"townhall","addr:postcode":"8774"},{"geometry":{"type":"Point","coordinates":[14.7590033,47.5431746]},"id":"node/6710653141","addr:city":"Radmer","amenity":"townhall","addr:postcode":"8795"},{"geometry":{"type":"Point","coordinates":[14.4454093,47.1986233]},"id":"node/4241518442","addr:city":"Unzmarkt-Frauenburg","amenity":"townhall","addr:postcode":"8800"},{"geometry":{"type":"Point","coordinates":[14.3216257,47.0956486]},"id":"node/1075462990","addr:city":"Sankt Lambrecht","amenity":"townhall","addr:postcode":"8812"},{"geometry":{"type":"Point","coordinates":[14.3752132,47.1518339]},"id":"node/4178698834","addr:city":"Niederwölz","amenity":"townhall","addr:postcode":"8831"},{"geometry":{"type":"Point","coordinates":[14.1734485,47.1093645]},"id":"node/325781210","addr:city":"Murau","amenity":"townhall","addr:postcode":"8850"},{"geometry":{"type":"Point","coordinates":[14.4608476,47.5759827]},"id":"node/8653219611","addr:city":"Admont","amenity":"townhall","addr:postcode":"8911"},{"geometry":{"type":"Point","coordinates":[14.7332333,47.6558769]},"id":"node/8653219610","addr:city":"Landl","amenity":"townhall","addr:postcode":"8931"},{"geometry":{"type":"Point","coordinates":[13.9403401,47.4366476]},"id":"node/7825538402","addr:city":"Sölk","amenity":"townhall","addr:postcode":"8961"},{"geometry":{"type":"Point","coordinates":[13.8755574,47.4230258]},"id":"node/5649200701","addr:city":"Michaelerberg-Pruggern","amenity":"townhall","addr:postcode":"8965"},{"geometry":{"type":"Point","coordinates":[13.7656102,47.6409566]},"id":"node/3363874287","addr:city":"Altaussee","amenity":"townhall","addr:postcode":"8992"},{"geometry":{"type":"Point","coordinates":[14.2989471,46.6201404]},"id":"node/2929806459","addr:city":"Klagenfurt am Wörthersee","amenity":"townhall","addr:postcode":"9020"},{"geometry":{"type":"Point","coordinates":[14.465495,46.6173475]},"id":"node/355619904","addr:city":"Grafenstein","amenity":"townhall","addr:postcode":"9131"},{"geometry":{"type":"Point","coordinates":[14.640759,46.592796]},"id":"node/4359952117","addr:city":"Eberndorf, Österreich","amenity":"townhall","addr:postcode":"9141"},{"geometry":{"type":"Point","coordinates":[14.7479118,46.577973]},"id":"node/2134693617","addr:city":"St. Michael bei Bleiburg","amenity":"townhall","addr:postcode":"9143"},{"geometry":{"type":"Point","coordinates":[14.1688096,46.5227716]},"id":"node/307479130","addr:city":"Feistritz im Rosental","amenity":"townhall","addr:postcode":"9181"},{"geometry":{"type":"Point","coordinates":[14.0418693,46.6131545]},"id":"node/300901317","addr:city":"Velden am Wörther See","amenity":"townhall","addr:postcode":"9220"},{"geometry":{"type":"Point","coordinates":[14.4699657,46.8714771]},"id":"node/1947977617","addr:city":"Althofen","amenity":"townhall","addr:postcode":"9330"},{"geometry":{"type":"Point","coordinates":[14.3318107,46.8954049]},"id":"node/4087753285","amenity":"townhall","addr:postcode":"9341"},{"geometry":{"type":"Point","coordinates":[14.2896281,46.8744034]},"id":"node/4260262793","amenity":"townhall","addr:postcode":"9342"},{"geometry":{"type":"Point","coordinates":[14.5320911,46.7486777]},"id":"node/1347298466","amenity":"townhall","addr:postcode":"9371"},{"geometry":{"type":"Point","coordinates":[14.9422763,46.6412027]},"id":"node/3900811087","addr:city":"Lavamünd","amenity":"townhall","addr:postcode":"9473"},{"geometry":{"type":"Point","coordinates":[13.8466732,46.6127184]},"id":"node/330242044","addr:city":"Villach","amenity":"townhall","addr:postcode":"9500"},{"geometry":{"type":"Point","coordinates":[13.7969077,46.8141827]},"id":"node/6609298186","addr:city":"Bad Kleinkirchheim","amenity":"townhall","addr:postcode":"9546"},{"geometry":{"type":"Point","coordinates":[14.2108881,46.7151054]},"id":"node/3498506853","addr:city":"Glanegg","amenity":"townhall","addr:postcode":"9555"},{"geometry":{"type":"Point","coordinates":[14.0351294,46.7495587]},"id":"node/6568741029","addr:city":"Himmelberg","amenity":"townhall","addr:postcode":"9562"},{"geometry":{"type":"Point","coordinates":[14.0749294,46.8560019]},"id":"node/11597453355","addr:city":"Deutsch-Griffen","amenity":"townhall","addr:postcode":"9572"},{"geometry":{"type":"Point","coordinates":[13.7100972,46.549736]},"id":"node/4286868297","addr:city":"Arnoldstein","amenity":"townhall","addr:postcode":"9601"},{"geometry":{"type":"Point","coordinates":[13.0790721,46.6622342]},"id":"node/665212685","addr:city":"Dellach im Gailtal","amenity":"townhall","addr:postcode":"9635"},{"geometry":{"type":"Point","coordinates":[13.3690189,46.8372661]},"id":"node/2021583085","amenity":"townhall","addr:postcode":"9813"},{"geometry":{"type":"Point","coordinates":[12.7591178,46.8494065]},"id":"node/3062835815","addr:city":"Thurn","amenity":"townhall","addr:postcode":"9904"},{"geometry":{"type":"Point","coordinates":[12.4889981,46.7499022]},"id":"node/3062835814","addr:city":"Strassen","amenity":"townhall","addr:postcode":"9918"},{"geometry":{"type":"Point","coordinates":[12.4294642,46.7868391]},"id":"node/3059335907","addr:city":"Außervillgraten","amenity":"townhall","addr:postcode":"9931"},{"geometry":{"type":"Point","coordinates":[12.6778828,46.7037341]},"id":"node/3062835817","addr:city":"Untertilliach","amenity":"townhall","addr:postcode":"9943"},{"geometry":{"type":"Point","coordinates":[12.6885489,46.8666667]},"id":"node/3059335903","addr:city":"Ainet","amenity":"townhall","addr:postcode":"9951"},{"geometry":{"type":"Point","coordinates":[12.8143602,46.8308788]},"id":"node/1482828851","addr:city":"Nußdorf-Debant","amenity":"townhall","addr:postcode":"9990"},{"geometry":{"type":"Point","coordinates":[12.841737,46.8269467]},"id":"node/3059335908","addr:city":"Dölsach","amenity":"townhall","addr:postcode":"9991"},{"geometry":{"type":"Point","coordinates":[12.8450334,46.8369304]},"id":"node/3060956436","addr:city":"Iselsberg-Stronach","amenity":"townhall","addr:postcode":"9992"},{"geometry":{"type":"Point","coordinates":[13.6033483,47.9465553]},"id":"node/3041253782","addr:city":"Schörfling am Attersee","amenity":"townhall"},{"geometry":{"type":"Point","coordinates":[14.3406385,47.6644795]},"id":"node/3045175141","addr:city":"Spital am Pyhrn","amenity":"townhall"},{"geometry":{"type":"Point","coordinates":[15.4266085,48.4498995]},"id":"node/11453777519","addr:city":"Weinzierl am Walde","amenity":"townhall"},{"geometry":{"type":"Point","coordinates":[11.4473635,47.2382993]},"id":"node/253793212","amenity":"townhall"},{"geometry":{"type":"Point","coordinates":[14.4154443,48.3539234]},"id":"node/270700935","amenity":"townhall"},{"geometry":{"type":"Point","coordinates":[14.1873018,48.3244825]},"id":"node/277464312","amenity":"townhall"},{"geometry":{"type":"Point","coordinates":[14.1009506,48.3271369]},"id":"node/279924667","amenity":"townhall"},{"geometry":{"type":"Point","coordinates":[15.6939119,48.3286589]},"id":"node/283400828","amenity":"townhall"},{"geometry":{"type":"Point","coordinates":[13.616569,47.6408578]},"id":"node/286467078","amenity":"townhall"},{"geometry":{"type":"Point","coordinates":[13.1622244,48.2763666]},"id":"node/291872334","amenity":"townhall"},{"geometry":{"type":"Point","coordinates":[14.4796814,48.2145358]},"id":"node/297580133","amenity":"townhall"},{"geometry":{"type":"Point","coordinates":[14.1226267,47.9059233]},"id":"node/299106359","amenity":"townhall"},{"geometry":{"type":"Point","coordinates":[15.5904014,46.7821992]},"id":"node/302348106","amenity":"townhall"},{"geometry":{"type":"Point","coordinates":[15.6462946,48.3683032]},"id":"node/305347145","amenity":"townhall"},{"geometry":{"type":"Point","coordinates":[14.5046752,48.5113961]},"id":"node/308868594","amenity":"townhall"},{"geometry":{"type":"Point","coordinates":[11.4161247,47.0826793]},"id":"node/310812084","amenity":"townhall"},{"geometry":{"type":"Point","coordinates":[11.6445975,47.3038416]},"id":"node/311553945","amenity":"townhall"},{"geometry":{"type":"Point","coordinates":[14.6141633,48.4178084]},"id":"node/313360150","amenity":"townhall"},{"geometry":{"type":"Point","coordinates":[12.1909618,47.5030939]},"id":"node/316125890","amenity":"townhall"},{"geometry":{"type":"Point","coordinates":[14.0164276,47.9613309]},"id":"node/340448024","amenity":"townhall"},{"geometry":{"type":"Point","coordinates":[10.142135,47.2106994]},"id":"node/340516373","amenity":"townhall"},{"geometry":{"type":"Point","coordinates":[14.1905128,48.1089865]},"id":"node/354343624","amenity":"townhall"},{"geometry":{"type":"Point","coordinates":[11.4584237,47.2872932]},"id":"node/355700470","amenity":"townhall"},{"geometry":{"type":"Point","coordinates":[14.1321629,47.8783607]},"id":"node/360679833","amenity":"townhall"},{"geometry":{"type":"Point","coordinates":[13.2820256,48.293977]},"id":"node/369136578","amenity":"townhall"},{"geometry":{"type":"Point","coordinates":[14.5081883,48.3480513]},"id":"node/369791691","amenity":"townhall"},{"geometry":{"type":"Point","coordinates":[13.118974,48.1558607]},"id":"node/401551926","amenity":"townhall"},{"geometry":{"type":"Point","coordinates":[13.8299881,48.2350207]},"id":"node/413351218","amenity":"townhall"},{"geometry":{"type":"Point","coordinates":[14.1978004,48.0286903]},"id":"node/414215057","amenity":"townhall"},{"geometry":{"type":"Point","coordinates":[12.9620266,46.8614345]},"id":"node/416631684","amenity":"townhall"},{"geometry":{"type":"Point","coordinates":[16.9823195,48.0149316]},"id":"node/417408645","amenity":"townhall"},{"geometry":{"type":"Point","coordinates":[16.8437264,47.9486363]},"id":"node/418601407","amenity":"townhall"},{"geometry":{"type":"Point","coordinates":[11.3273764,47.2518157]},"id":"node/440637462","amenity":"townhall"},{"geometry":{"type":"Point","coordinates":[15.6630829,48.3621953]},"id":"node/440748340","amenity":"townhall"},{"geometry":{"type":"Point","coordinates":[9.7836626,47.215413]},"id":"node/440752290","amenity":"townhall"},{"geometry":{"type":"Point","coordinates":[15.5250171,46.7745023]},"id":"node/449697181","amenity":"townhall"},{"geometry":{"type":"Point","coordinates":[14.3592987,47.130869]},"id":"node/477264209","amenity":"townhall"},{"geometry":{"type":"Point","coordinates":[15.9956807,47.0769136]},"id":"node/538491577","amenity":"townhall"},{"geometry":{"type":"Point","coordinates":[14.1825961,46.6063746]},"id":"node/539499297","amenity":"townhall"},{"geometry":{"type":"Point","coordinates":[16.8232656,48.6999134]},"id":"node/570790585","amenity":"townhall"},{"geometry":{"type":"Point","coordinates":[14.1027326,48.5679239]},"id":"node/607975264","amenity":"townhall"},{"geometry":{"type":"Point","coordinates":[15.3755872,46.9470787]},"id":"node/685106677","amenity":"townhall"},{"geometry":{"type":"Point","coordinates":[12.3315204,46.9159251]},"id":"node/741298091","amenity":"townhall"},{"geometry":{"type":"Point","coordinates":[13.700863,46.7996121]},"id":"node/742554789","amenity":"townhall"},{"geometry":{"type":"Point","coordinates":[14.3597703,46.6103548]},"id":"node/745807330","amenity":"townhall"},{"geometry":{"type":"Point","coordinates":[16.7164813,48.1179089]},"id":"node/747362995","amenity":"townhall"},{"geometry":{"type":"Point","coordinates":[16.9406068,47.8817364]},"id":"node/761839360","amenity":"townhall"},{"geometry":{"type":"Point","coordinates":[15.5696755,46.7371495]},"id":"node/763095054","amenity":"townhall"},{"geometry":{"type":"Point","coordinates":[14.0992135,47.1045955]},"id":"node/763447328","amenity":"townhall"},{"geometry":{"type":"Point","coordinates":[13.1827605,47.8319988]},"id":"node/792253672","amenity":"townhall"},{"geometry":{"type":"Point","coordinates":[14.8549774,48.2269236]},"id":"node/826754331","amenity":"townhall"},{"geometry":{"type":"Point","coordinates":[11.3590946,47.1647947]},"id":"node/849870623","amenity":"townhall"},{"geometry":{"type":"Point","coordinates":[14.7421079,48.1216597]},"id":"node/871699402","amenity":"townhall"},{"geometry":{"type":"Point","coordinates":[13.4625573,47.3845254]},"id":"node/888685858","amenity":"townhall"},{"geometry":{"type":"Point","coordinates":[14.0967177,48.223011]},"id":"node/920621697","amenity":"townhall"},{"geometry":{"type":"Point","coordinates":[13.3059098,47.9522293]},"id":"node/940575094","amenity":"townhall"},{"geometry":{"type":"Point","coordinates":[16.2080099,47.3510545]},"id":"node/952275741","amenity":"townhall"},{"geometry":{"type":"Point","coordinates":[13.9804056,48.0447938]},"id":"node/1027677784","amenity":"townhall"},{"geometry":{"type":"Point","coordinates":[16.231348,47.3648086]},"id":"node/1078732914","amenity":"townhall"},{"geometry":{"type":"Point","coordinates":[10.6910954,47.4729716]},"id":"node/1085904135","amenity":"townhall"},{"geometry":{"type":"Point","coordinates":[14.2576292,48.3604069]},"id":"node/1088060123","amenity":"townhall"},{"geometry":{"type":"Point","coordinates":[14.5377954,48.4429007]},"id":"node/1198120557","amenity":"townhall"},{"geometry":{"type":"Point","coordinates":[10.4884283,47.3074114]},"id":"node/1201044639","amenity":"townhall"},{"geometry":{"type":"Point","coordinates":[10.1832683,47.2577859]},"id":"node/1209561798","amenity":"townhall"},{"geometry":{"type":"Point","coordinates":[15.8291919,46.7524723]},"id":"node/1231909302","amenity":"townhall"},{"geometry":{"type":"Point","coordinates":[16.0266374,47.2205305]},"id":"node/1237974680","amenity":"townhall"},{"geometry":{"type":"Point","coordinates":[11.1447163,47.3690058]},"id":"node/1244825389","amenity":"townhall"},{"geometry":{"type":"Point","coordinates":[13.9925949,48.4569309]},"id":"node/1258610309","amenity":"townhall"},{"geometry":{"type":"Point","coordinates":[14.3616343,48.5026422]},"id":"node/1284492732","amenity":"townhall"},{"geometry":{"type":"Point","coordinates":[16.4461025,47.1657798]},"id":"node/1345855955","amenity":"townhall"},{"geometry":{"type":"Point","coordinates":[13.1785056,48.0085922]},"id":"node/1363534216","amenity":"townhall"},{"geometry":{"type":"Point","coordinates":[12.6925481,47.5864997]},"id":"node/1368375469","amenity":"townhall"},{"geometry":{"type":"Point","coordinates":[12.1704557,47.582845]},"id":"node/1371016844","amenity":"townhall"},{"geometry":{"type":"Point","coordinates":[14.4163563,48.0909969]},"id":"node/1372253760","amenity":"townhall"},{"geometry":{"type":"Point","coordinates":[12.4196248,46.7474103]},"id":"node/1375855616","amenity":"townhall"},{"geometry":{"type":"Point","coordinates":[12.9700101,46.7482516]},"id":"node/1376104919","amenity":"townhall"},{"geometry":{"type":"Point","coordinates":[12.8248894,47.2863782]},"id":"node/1377967596","amenity":"townhall"},{"geometry":{"type":"Point","coordinates":[10.0916944,47.1316125]},"id":"node/1382105583","amenity":"townhall"},{"geometry":{"type":"Point","coordinates":[12.7491068,46.8093759]},"id":"node/1387597127","amenity":"townhall"},{"geometry":{"type":"Point","coordinates":[14.2144511,46.62609]},"id":"node/1388803429","amenity":"townhall"},{"geometry":{"type":"Point","coordinates":[16.1196721,48.3321918]},"id":"node/1406124176","amenity":"townhall"},{"geometry":{"type":"Point","coordinates":[14.041479,48.5753845]},"id":"node/1416259294","amenity":"townhall"},{"geometry":{"type":"Point","coordinates":[12.2166018,47.6301634]},"id":"node/1464782675","amenity":"townhall"},{"geometry":{"type":"Point","coordinates":[12.4489125,47.5581905]},"id":"node/1483627020","amenity":"townhall"},{"geometry":{"type":"Point","coordinates":[15.476862,48.3031403]},"id":"node/1488581801","amenity":"townhall"},{"geometry":{"type":"Point","coordinates":[13.5721825,48.5440264]},"id":"node/1492409645","amenity":"townhall"},{"geometry":{"type":"Point","coordinates":[10.2999163,47.2149615]},"id":"node/1500408485","amenity":"townhall"},{"geometry":{"type":"Point","coordinates":[13.606239,48.2340555]},"id":"node/1583591391","amenity":"townhall"},{"geometry":{"type":"Point","coordinates":[14.143469,47.5203127]},"id":"node/1605536793","amenity":"townhall"},{"geometry":{"type":"Point","coordinates":[15.1680365,47.5443759]},"id":"node/1613286013","amenity":"townhall"},{"geometry":{"type":"Point","coordinates":[13.0671347,47.8667356]},"id":"node/1617126269","amenity":"townhall"},{"geometry":{"type":"Point","coordinates":[14.7517113,47.1892054]},"id":"node/1620643617","amenity":"townhall"},{"geometry":{"type":"Point","coordinates":[15.511244,46.9297223]},"id":"node/1625385870","amenity":"townhall"},{"geometry":{"type":"Point","coordinates":[17.105083,48.0115838]},"id":"node/1636863558","amenity":"townhall"},{"geometry":{"type":"Point","coordinates":[15.8709082,46.9931056]},"id":"node/1640942079","amenity":"townhall"},{"geometry":{"type":"Point","coordinates":[16.9263966,47.8375552]},"id":"node/1641121586","amenity":"townhall"},{"geometry":{"type":"Point","coordinates":[11.6661124,47.2984348]},"id":"node/1655065352","amenity":"townhall"},{"geometry":{"type":"Point","coordinates":[11.7108589,47.3467919]},"id":"node/1655065385","amenity":"townhall"},{"geometry":{"type":"Point","coordinates":[13.4882488,48.2100666]},"id":"node/1681529054","amenity":"townhall"},{"geometry":{"type":"Point","coordinates":[16.3794108,48.3488986]},"id":"node/1705062638","amenity":"townhall"},{"geometry":{"type":"Point","coordinates":[14.1145969,48.1913091]},"id":"node/1708303708","amenity":"townhall"},{"geometry":{"type":"Point","coordinates":[14.2261046,48.1153692]},"id":"node/1711264116","amenity":"townhall"},{"geometry":{"type":"Point","coordinates":[10.8818406,47.4013363]},"id":"node/1712784848","amenity":"townhall"},{"geometry":{"type":"Point","coordinates":[13.5363554,48.4100709]},"id":"node/1717617393","amenity":"townhall"},{"geometry":{"type":"Point","coordinates":[10.926939,47.2659799]},"id":"node/1741568548","amenity":"townhall"},{"geometry":{"type":"Point","coordinates":[13.4963661,48.5199187]},"id":"node/1769461954","amenity":"townhall"},{"geometry":{"type":"Point","coordinates":[14.726705,48.477414]},"id":"node/1784517547","amenity":"townhall"},{"geometry":{"type":"Point","coordinates":[14.1435823,48.5445773]},"id":"node/1787442800","amenity":"townhall"},{"geometry":{"type":"Point","coordinates":[9.5966321,47.4663346]},"id":"node/1835275617","amenity":"townhall"},{"geometry":{"type":"Point","coordinates":[16.2169453,48.4290338]},"id":"node/1844930519","amenity":"townhall"},{"geometry":{"type":"Point","coordinates":[13.1498969,48.1054991]},"id":"node/1862799349","amenity":"townhall"},{"geometry":{"type":"Point","coordinates":[16.6275247,47.5980943]},"id":"node/1863451195","amenity":"townhall"},{"geometry":{"type":"Point","coordinates":[10.2946162,47.2432947]},"id":"node/1878028128","amenity":"townhall"},{"geometry":{"type":"Point","coordinates":[13.6125223,48.0016953]},"id":"node/1880543314","amenity":"townhall"},{"geometry":{"type":"Point","coordinates":[10.0377017,47.4269413]},"id":"node/1931894140","amenity":"townhall"},{"geometry":{"type":"Point","coordinates":[15.7062119,46.774336]},"id":"node/2000163552","amenity":"townhall"},{"geometry":{"type":"Point","coordinates":[14.7579711,48.3480674]},"id":"node/2048876620","amenity":"townhall"},{"geometry":{"type":"Point","coordinates":[12.7689557,46.8292165]},"id":"node/2063695093","amenity":"townhall"},{"geometry":{"type":"Point","coordinates":[12.4057716,47.6702295]},"id":"node/2064921031","amenity":"townhall"},{"geometry":{"type":"Point","coordinates":[14.4442969,46.8625939]},"id":"node/2065295325","amenity":"townhall"},{"geometry":{"type":"Point","coordinates":[15.276519,46.9047886]},"id":"node/2067096490","amenity":"townhall"},{"geometry":{"type":"Point","coordinates":[12.7964534,47.3233453]},"id":"node/2074445808","amenity":"townhall"},{"geometry":{"type":"Point","coordinates":[12.433934,47.4178765]},"id":"node/2084170967","amenity":"townhall"},{"geometry":{"type":"Point","coordinates":[15.6881468,47.0175088]},"id":"node/2085739139","amenity":"townhall"},{"geometry":{"type":"Point","coordinates":[13.5724502,48.0442648]},"id":"node/2091908865","amenity":"townhall"},{"geometry":{"type":"Point","coordinates":[10.4368099,47.290798]},"id":"node/2094197712","amenity":"townhall"},{"geometry":{"type":"Point","coordinates":[16.0365008,46.8869386]},"id":"node/2094657441","amenity":"townhall"},{"geometry":{"type":"Point","coordinates":[11.9106765,47.4463433]},"id":"node/2095516208","amenity":"townhall"},{"geometry":{"type":"Point","coordinates":[15.4935395,47.6755533]},"id":"node/2102118267","amenity":"townhall"},{"geometry":{"type":"Point","coordinates":[10.9703444,47.0702869]},"id":"node/2114383574","amenity":"townhall"},{"geometry":{"type":"Point","coordinates":[9.8149296,47.2204936]},"id":"node/2122814500","amenity":"townhall"},{"geometry":{"type":"Point","coordinates":[13.4345612,48.2074106]},"id":"node/2132215869","amenity":"townhall"},{"geometry":{"type":"Point","coordinates":[14.0232339,48.3095087]},"id":"node/2150745527","amenity":"townhall"},{"geometry":{"type":"Point","coordinates":[9.798732,47.1743953]},"id":"node/2164587955","amenity":"townhall"},{"geometry":{"type":"Point","coordinates":[13.4575116,48.5077358]},"id":"node/2167659982","amenity":"townhall"},{"geometry":{"type":"Point","coordinates":[13.6352225,48.3020851]},"id":"node/2168943684","amenity":"townhall"},{"geometry":{"type":"Point","coordinates":[12.8809247,48.044606]},"id":"node/2184409548","amenity":"townhall"},{"geometry":{"type":"Point","coordinates":[14.2893321,46.7379007]},"id":"node/2211577183","amenity":"townhall"},{"geometry":{"type":"Point","coordinates":[14.5110913,46.8900176]},"id":"node/2245012736","amenity":"townhall"},{"geometry":{"type":"Point","coordinates":[14.2920399,48.2925794]},"id":"node/2258291090","amenity":"townhall"},{"geometry":{"type":"Point","coordinates":[16.325123,47.7753638]},"id":"node/2268124365","amenity":"townhall"},{"geometry":{"type":"Point","coordinates":[15.4042367,47.2173113]},"id":"node/2292921803","amenity":"townhall"},{"geometry":{"type":"Point","coordinates":[15.2877735,48.1444257]},"id":"node/2293584626","amenity":"townhall"},{"geometry":{"type":"Point","coordinates":[14.3606998,48.25805]},"id":"node/2305618987","amenity":"townhall"},{"geometry":{"type":"Point","coordinates":[15.3075885,47.7405816]},"id":"node/2327096849","amenity":"townhall"},{"geometry":{"type":"Point","coordinates":[13.7268069,48.2737131]},"id":"node/2327490876","amenity":"townhall"},{"geometry":{"type":"Point","coordinates":[14.6337684,48.2505114]},"id":"node/2331113900","amenity":"townhall"},{"geometry":{"type":"Point","coordinates":[13.2151823,47.8183631]},"id":"node/2344705740","amenity":"townhall"},{"geometry":{"type":"Point","coordinates":[13.5147838,48.5657632]},"id":"node/2346925034","amenity":"townhall"},{"geometry":{"type":"Point","coordinates":[16.0083772,47.1699208]},"id":"node/2417802390","amenity":"townhall"},{"geometry":{"type":"Point","coordinates":[11.8494074,47.34813]},"id":"node/2433820368","amenity":"townhall"},{"geometry":{"type":"Point","coordinates":[14.1335729,48.3698461]},"id":"node/2437977786","amenity":"townhall"},{"geometry":{"type":"Point","coordinates":[9.7469442,47.5034338]},"id":"node/2442746072","amenity":"townhall"},{"geometry":{"type":"Point","coordinates":[13.6588228,48.0956777]},"id":"node/2478850989","amenity":"townhall"},{"geometry":{"type":"Point","coordinates":[14.6403069,46.592488]},"id":"node/2505889117","amenity":"townhall"},{"geometry":{"type":"Point","coordinates":[14.3093039,48.0450323]},"id":"node/2514378440","amenity":"townhall"},{"geometry":{"type":"Point","coordinates":[13.5493387,47.830894]},"id":"node/2543763985","amenity":"townhall"},{"geometry":{"type":"Point","coordinates":[10.3752198,47.0634125]},"id":"node/2561478548","amenity":"townhall"},{"geometry":{"type":"Point","coordinates":[9.6302725,47.2172053]},"id":"node/2610149646","amenity":"townhall"},{"geometry":{"type":"Point","coordinates":[12.175514,47.2221301]},"id":"node/2630265969","amenity":"townhall"},{"geometry":{"type":"Point","coordinates":[14.0582747,46.8221355]},"id":"node/2631762299","amenity":"townhall"},{"geometry":{"type":"Point","coordinates":[13.6792421,47.1341778]},"id":"node/2656196772","amenity":"townhall"},{"geometry":{"type":"Point","coordinates":[14.055586,46.5475595]},"id":"node/2694378302","amenity":"townhall"},{"geometry":{"type":"Point","coordinates":[12.9673227,48.1779548]},"id":"node/2769733232","amenity":"townhall"},{"geometry":{"type":"Point","coordinates":[14.6160501,46.7437565]},"id":"node/2824249740","amenity":"townhall"},{"geometry":{"type":"Point","coordinates":[11.212139,47.2575474]},"id":"node/2830105439","amenity":"townhall"},{"geometry":{"type":"Point","coordinates":[14.2812186,47.204484]},"id":"node/2922004715","amenity":"townhall"},{"geometry":{"type":"Point","coordinates":[10.6638523,47.0766641]},"id":"node/2961764305","amenity":"townhall"},{"geometry":{"type":"Point","coordinates":[9.9050619,47.0933867]},"id":"node/2965664165","amenity":"townhall"},{"geometry":{"type":"Point","coordinates":[9.8341546,47.2231032]},"id":"node/2965679138","amenity":"townhall"},{"geometry":{"type":"Point","coordinates":[10.0014041,47.1237655]},"id":"node/2965724846","amenity":"townhall"},{"geometry":{"type":"Point","coordinates":[14.7864944,47.6680155]},"id":"node/2992074356","amenity":"townhall"},{"geometry":{"type":"Point","coordinates":[13.1886661,47.4769229]},"id":"node/2994217252","amenity":"townhall"},{"geometry":{"type":"Point","coordinates":[13.2058426,47.4571355]},"id":"node/3006932608","amenity":"townhall"},{"geometry":{"type":"Point","coordinates":[13.4589101,48.4696195]},"id":"node/3029070445","amenity":"townhall"},{"geometry":{"type":"Point","coordinates":[13.5350606,48.4557803]},"id":"node/3029070456","amenity":"townhall"},{"geometry":{"type":"Point","coordinates":[13.4304856,48.4573537]},"id":"node/3029070457","amenity":"townhall"},{"geometry":{"type":"Point","coordinates":[13.6123167,48.4816572]},"id":"node/3029145917","amenity":"townhall"},{"geometry":{"type":"Point","coordinates":[13.4301777,48.4108159]},"id":"node/3029145918","amenity":"townhall"},{"geometry":{"type":"Point","coordinates":[13.4514357,48.3877787]},"id":"node/3029145919","amenity":"townhall"},{"geometry":{"type":"Point","coordinates":[13.6488452,48.5292936]},"id":"node/3029145920","amenity":"townhall"},{"geometry":{"type":"Point","coordinates":[14.2085141,48.0351437]},"id":"node/3029569585","amenity":"townhall"},{"geometry":{"type":"Point","coordinates":[14.2193153,48.5518353]},"id":"node/3029637620","amenity":"townhall"},{"geometry":{"type":"Point","coordinates":[14.2255296,48.4632764]},"id":"node/3029637894","amenity":"townhall"},{"geometry":{"type":"Point","coordinates":[13.7683605,48.1001341]},"id":"node/3031363608","amenity":"townhall"},{"geometry":{"type":"Point","coordinates":[13.9670764,48.6370272]},"id":"node/3031363609","amenity":"townhall"},{"geometry":{"type":"Point","coordinates":[13.9121791,48.6748609]},"id":"node/3031363610","amenity":"townhall"},{"geometry":{"type":"Point","coordinates":[13.7751854,48.0554667]},"id":"node/3031363613","amenity":"townhall"},{"geometry":{"type":"Point","coordinates":[13.9713944,48.6468065]},"id":"node/3031363624","amenity":"townhall"},{"geometry":{"type":"Point","coordinates":[13.7413815,48.1866911]},"id":"node/3031486306","amenity":"townhall"},{"geometry":{"type":"Point","coordinates":[13.7407771,48.2208402]},"id":"node/3031486307","amenity":"townhall"},{"geometry":{"type":"Point","coordinates":[13.7019632,48.184012]},"id":"node/3031486308","amenity":"townhall"},{"geometry":{"type":"Point","coordinates":[14.4837069,48.4277383]},"id":"node/3031614808","amenity":"townhall"},{"geometry":{"type":"Point","coordinates":[14.349835,48.456345]},"id":"node/3031614809","amenity":"townhall"},{"geometry":{"type":"Point","coordinates":[14.3500866,48.4563877]},"id":"node/3031619239","amenity":"townhall"},{"geometry":{"type":"Point","coordinates":[14.6516533,48.3016056]},"id":"node/3031867040","amenity":"townhall"},{"geometry":{"type":"Point","coordinates":[14.0270196,48.2821725]},"id":"node/3031867042","amenity":"townhall"},{"geometry":{"type":"Point","coordinates":[14.6819593,48.2842874]},"id":"node/3031867046","amenity":"townhall"},{"geometry":{"type":"Point","coordinates":[13.9702746,48.4853929]},"id":"node/3033924802","amenity":"townhall"},{"geometry":{"type":"Point","coordinates":[13.9946255,48.5249981]},"id":"node/3033924803","amenity":"townhall"},{"geometry":{"type":"Point","coordinates":[14.4224476,48.3409827]},"id":"node/3033924804","amenity":"townhall"},{"geometry":{"type":"Point","coordinates":[13.2287963,48.2486681]},"id":"node/3033956521","amenity":"townhall"},{"geometry":{"type":"Point","coordinates":[13.7632482,47.9009231]},"id":"node/3033956522","amenity":"townhall"},{"geometry":{"type":"Point","coordinates":[13.6725646,47.9518784]},"id":"node/3033956523","amenity":"townhall"},{"geometry":{"type":"Point","coordinates":[13.1780481,48.234383]},"id":"node/3033964817","amenity":"townhall"},{"geometry":{"type":"Point","coordinates":[12.3169556,47.6537397]},"id":"node/3035624535","amenity":"townhall"},{"geometry":{"type":"Point","coordinates":[12.0639114,47.4870183]},"id":"node/3035624536","amenity":"townhall"},{"geometry":{"type":"Point","coordinates":[11.9441877,47.3987385]},"id":"node/3036926603","amenity":"townhall"},{"geometry":{"type":"Point","coordinates":[12.0665103,47.5069701]},"id":"node/3036926604","amenity":"townhall"},{"geometry":{"type":"Point","coordinates":[12.0393088,47.5058191]},"id":"node/3036926605","amenity":"townhall"},{"geometry":{"type":"Point","coordinates":[12.1193346,47.5101641]},"id":"node/3036926606","amenity":"townhall"},{"geometry":{"type":"Point","coordinates":[11.893145,47.4885553]},"id":"node/3036971916","amenity":"townhall"},{"geometry":{"type":"Point","coordinates":[11.9738942,47.4787613]},"id":"node/3036971917","amenity":"townhall"},{"geometry":{"type":"Point","coordinates":[11.8787283,47.4301321]},"id":"node/3036971918","amenity":"townhall"},{"geometry":{"type":"Point","coordinates":[12.3018024,47.5134621]},"id":"node/3036971919","amenity":"townhall"},{"geometry":{"type":"Point","coordinates":[12.1803984,47.6815667]},"id":"node/3039602509","amenity":"townhall"},{"geometry":{"type":"Point","coordinates":[12.0864444,47.5112765]},"id":"node/3039602510","amenity":"townhall"},{"geometry":{"type":"Point","coordinates":[11.8830627,47.4482675]},"id":"node/3039602511","amenity":"townhall"},{"geometry":{"type":"Point","coordinates":[11.9843973,47.4690349]},"id":"node/3039602512","amenity":"townhall"},{"geometry":{"type":"Point","coordinates":[12.1001881,47.5508047]},"id":"node/3039602513","amenity":"townhall"},{"geometry":{"type":"Point","coordinates":[11.8327426,47.4207824]},"id":"node/3039602515","amenity":"townhall"},{"geometry":{"type":"Point","coordinates":[12.2151454,47.6512505]},"id":"node/3039602516","amenity":"townhall"},{"geometry":{"type":"Point","coordinates":[12.2409593,47.6619529]},"id":"node/3039602517","amenity":"townhall"},{"geometry":{"type":"Point","coordinates":[11.8939578,47.4391936]},"id":"node/3039645645","amenity":"townhall"},{"geometry":{"type":"Point","coordinates":[11.878546,47.4167794]},"id":"node/3039645646","amenity":"townhall"},{"geometry":{"type":"Point","coordinates":[12.2630826,47.6526227]},"id":"node/3039645647","amenity":"townhall"},{"geometry":{"type":"Point","coordinates":[12.2491236,47.5285036]},"id":"node/3039645648","amenity":"townhall"},{"geometry":{"type":"Point","coordinates":[12.1405851,47.5436205]},"id":"node/3039645649","amenity":"townhall"},{"geometry":{"type":"Point","coordinates":[12.0472722,47.4431784]},"id":"node/3039645651","amenity":"townhall"},{"geometry":{"type":"Point","coordinates":[13.6879206,48.3233315]},"id":"node/3040385669","amenity":"townhall"},{"geometry":{"type":"Point","coordinates":[13.7707604,48.3436965]},"id":"node/3040385670","amenity":"townhall"},{"geometry":{"type":"Point","coordinates":[13.6480766,48.3880253]},"id":"node/3040385671","amenity":"townhall"},{"geometry":{"type":"Point","coordinates":[13.6470745,48.352095]},"id":"node/3040385676","amenity":"townhall"},{"geometry":{"type":"Point","coordinates":[13.5666495,48.0933973]},"id":"node/3040480505","amenity":"townhall"},{"geometry":{"type":"Point","coordinates":[13.5993653,48.0764008]},"id":"node/3040480531","amenity":"townhall"},{"geometry":{"type":"Point","coordinates":[13.5735546,48.3710791]},"id":"node/3040731972","amenity":"townhall"},{"geometry":{"type":"Point","coordinates":[13.5251296,48.26484]},"id":"node/3040731973","amenity":"townhall"},{"geometry":{"type":"Point","coordinates":[14.4216972,48.220419]},"id":"node/3040731975","amenity":"townhall"},{"geometry":{"type":"Point","coordinates":[13.5755781,48.2633215]},"id":"node/3040732012","amenity":"townhall"},{"geometry":{"type":"Point","coordinates":[13.4610928,48.2760338]},"id":"node/3040732013","amenity":"townhall"},{"geometry":{"type":"Point","coordinates":[13.6287567,48.3149238]},"id":"node/3040732014","amenity":"townhall"},{"geometry":{"type":"Point","coordinates":[13.4010591,48.3457516]},"id":"node/3040770085","amenity":"townhall"},{"geometry":{"type":"Point","coordinates":[13.4776145,48.3490734]},"id":"node/3040770086","amenity":"townhall"},{"geometry":{"type":"Point","coordinates":[13.4343047,48.3159975]},"id":"node/3040770087","amenity":"townhall"},{"geometry":{"type":"Point","coordinates":[14.7048201,48.2282579]},"id":"node/3040822103","amenity":"townhall"},{"geometry":{"type":"Point","coordinates":[14.0249293,48.3665612]},"id":"node/3040822104","amenity":"townhall"},{"geometry":{"type":"Point","coordinates":[14.0531918,48.346083]},"id":"node/3040822105","amenity":"townhall"},{"geometry":{"type":"Point","coordinates":[14.712181,48.2655717]},"id":"node/3040822109","amenity":"townhall"},{"geometry":{"type":"Point","coordinates":[14.0386319,48.4163506]},"id":"node/3040822110","amenity":"townhall"},{"geometry":{"type":"Point","coordinates":[14.3355222,48.0127676]},"id":"node/3041199728","amenity":"townhall"},{"geometry":{"type":"Point","coordinates":[13.2674828,48.1659748]},"id":"node/3041199730","amenity":"townhall"},{"geometry":{"type":"Point","coordinates":[13.2510845,48.2015614]},"id":"node/3041200033","amenity":"townhall"},{"geometry":{"type":"Point","coordinates":[14.2668966,47.9697652]},"id":"node/3041200034","amenity":"townhall"},{"geometry":{"type":"Point","coordinates":[14.3575048,47.9456522]},"id":"node/3041200035","amenity":"townhall"},{"geometry":{"type":"Point","coordinates":[13.4885204,47.9347652]},"id":"node/3041253781","amenity":"townhall"},{"geometry":{"type":"Point","coordinates":[13.5698465,47.9009313]},"id":"node/3041253791","amenity":"townhall"},{"geometry":{"type":"Point","coordinates":[13.6680545,48.0377788]},"id":"node/3041275729","amenity":"townhall"},{"geometry":{"type":"Point","coordinates":[13.70386,48.0835461]},"id":"node/3042702530","amenity":"townhall"},{"geometry":{"type":"Point","coordinates":[13.9046643,48.5461349]},"id":"node/3042702531","amenity":"townhall"},{"geometry":{"type":"Point","coordinates":[13.7655979,48.0559655]},"id":"node/3042702635","amenity":"townhall"},{"geometry":{"type":"Point","coordinates":[13.9048228,48.5461275]},"id":"node/3042702679","amenity":"townhall"},{"geometry":{"type":"Point","coordinates":[13.6513491,48.0062222]},"id":"node/3042702680","amenity":"townhall"},{"geometry":{"type":"Point","coordinates":[13.1070569,48.0650388]},"id":"node/3042724037","amenity":"townhall"},{"geometry":{"type":"Point","coordinates":[13.1000765,48.0402924]},"id":"node/3042724038","amenity":"townhall"},{"geometry":{"type":"Point","coordinates":[13.1469053,48.0749958]},"id":"node/3042724039","amenity":"townhall"},{"geometry":{"type":"Point","coordinates":[13.4559831,48.2498687]},"id":"node/3042752399","amenity":"townhall"},{"geometry":{"type":"Point","coordinates":[13.4299346,48.2395046]},"id":"node/3042752400","amenity":"townhall"},{"geometry":{"type":"Point","coordinates":[13.4176391,48.2614313]},"id":"node/3042753145","amenity":"townhall"},{"geometry":{"type":"Point","coordinates":[13.7944404,48.1296367]},"id":"node/3043007233","amenity":"townhall"},{"geometry":{"type":"Point","coordinates":[14.7609943,48.3130053]},"id":"node/3043116367","amenity":"townhall"},{"geometry":{"type":"Point","coordinates":[13.9020369,48.0635078]},"id":"node/3043360517","amenity":"townhall"},{"geometry":{"type":"Point","coordinates":[13.930276,48.264398]},"id":"node/3043360528","amenity":"townhall"},{"geometry":{"type":"Point","coordinates":[13.922699,48.0032327]},"id":"node/3043360529","amenity":"townhall"},{"geometry":{"type":"Point","coordinates":[14.7452669,48.2094674]},"id":"node/3043441733","amenity":"townhall"},{"geometry":{"type":"Point","coordinates":[14.7114351,48.1852574]},"id":"node/3043441736","amenity":"townhall"},{"geometry":{"type":"Point","coordinates":[13.7732317,48.0210972]},"id":"node/3043481074","amenity":"townhall"},{"geometry":{"type":"Point","coordinates":[14.4234278,48.1475234]},"id":"node/3044999129","amenity":"townhall"},{"geometry":{"type":"Point","coordinates":[14.4651204,48.1420253]},"id":"node/3044999130","amenity":"townhall"},{"geometry":{"type":"Point","coordinates":[14.908092,48.3060751]},"id":"node/3045057571","amenity":"townhall"},{"geometry":{"type":"Point","coordinates":[13.6271058,48.2791561]},"id":"node/3045057572","amenity":"townhall"},{"geometry":{"type":"Point","coordinates":[13.7993935,47.9180866]},"id":"node/3045057574","amenity":"townhall"},{"geometry":{"type":"Point","coordinates":[14.8175888,48.3211851]},"id":"node/3045057577","amenity":"townhall"},{"geometry":{"type":"Point","coordinates":[14.8970066,48.3592165]},"id":"node/3045059547","amenity":"townhall"},{"geometry":{"type":"Point","coordinates":[13.7902317,47.8448735]},"id":"node/3045059548","amenity":"townhall"},{"geometry":{"type":"Point","coordinates":[13.5615004,48.1537947]},"id":"node/3045162062","amenity":"townhall"},{"geometry":{"type":"Point","coordinates":[13.6331399,48.1521132]},"id":"node/3045162063","amenity":"townhall"},{"geometry":{"type":"Point","coordinates":[14.0733409,48.0258365]},"id":"node/3045175140","amenity":"townhall"},{"geometry":{"type":"Point","coordinates":[13.8418272,48.1289194]},"id":"node/3045263034","amenity":"townhall"},{"geometry":{"type":"Point","coordinates":[12.9916213,48.0779512]},"id":"node/3045360391","amenity":"townhall"},{"geometry":{"type":"Point","coordinates":[14.1457566,48.1308032]},"id":"node/3045360392","amenity":"townhall"},{"geometry":{"type":"Point","coordinates":[13.7850495,48.4036238]},"id":"node/3045360394","amenity":"townhall"},{"geometry":{"type":"Point","coordinates":[13.0451626,48.0674325]},"id":"node/3045360395","amenity":"townhall"},{"geometry":{"type":"Point","coordinates":[13.8221177,48.3540651]},"id":"node/3045360398","amenity":"townhall"},{"geometry":{"type":"Point","coordinates":[14.2760868,48.4131716]},"id":"node/3045360399","amenity":"townhall"},{"geometry":{"type":"Point","coordinates":[12.988259,48.0477611]},"id":"node/3045360400","amenity":"townhall"},{"geometry":{"type":"Point","coordinates":[13.8781989,48.3852411]},"id":"node/3045360431","amenity":"townhall"},{"geometry":{"type":"Point","coordinates":[13.4298446,48.0229444]},"id":"node/3045470456","amenity":"townhall"},{"geometry":{"type":"Point","coordinates":[13.4920924,48.0686485]},"id":"node/3045470457","amenity":"townhall"},{"geometry":{"type":"Point","coordinates":[13.4184111,47.984984]},"id":"node/3045470458","amenity":"townhall"},{"geometry":{"type":"Point","coordinates":[12.9104958,48.0514104]},"id":"node/3045470459","amenity":"townhall"},{"geometry":{"type":"Point","coordinates":[13.4817113,48.0181229]},"id":"node/3045470461","amenity":"townhall"},{"geometry":{"type":"Point","coordinates":[14.7251379,47.8957765]},"id":"node/3045669050","amenity":"townhall"},{"geometry":{"type":"Point","coordinates":[13.7790482,48.2123113]},"id":"node/3045703524","amenity":"townhall"},{"geometry":{"type":"Point","coordinates":[12.6129913,46.7089242]},"id":"node/3046530086","amenity":"townhall"},{"geometry":{"type":"Point","coordinates":[14.4083475,48.0221416]},"id":"node/3046772419","amenity":"townhall"},{"geometry":{"type":"Point","coordinates":[13.5375722,48.0410953]},"id":"node/3046772420","amenity":"townhall"},{"geometry":{"type":"Point","coordinates":[14.424413,48.0215886]},"id":"node/3046772421","amenity":"townhall"},{"geometry":{"type":"Point","coordinates":[14.4195397,48.0388672]},"id":"node/3046772422","amenity":"townhall"},{"geometry":{"type":"Point","coordinates":[13.5807045,48.2003134]},"id":"node/3046795133","amenity":"townhall"},{"geometry":{"type":"Point","coordinates":[13.5441589,48.1927555]},"id":"node/3046795134","amenity":"townhall"},{"geometry":{"type":"Point","coordinates":[13.5787157,48.182129]},"id":"node/3046795244","amenity":"townhall"},{"geometry":{"type":"Point","coordinates":[13.2928143,48.2647416]},"id":"node/3046842895","amenity":"townhall"},{"geometry":{"type":"Point","coordinates":[12.9387408,48.1300184]},"id":"node/3046842896","amenity":"townhall"},{"geometry":{"type":"Point","coordinates":[14.1891563,48.3810666]},"id":"node/3046842897","amenity":"townhall"},{"geometry":{"type":"Point","coordinates":[13.649389,47.5617863]},"id":"node/3046842898","amenity":"townhall"},{"geometry":{"type":"Point","coordinates":[13.2829552,48.2297346]},"id":"node/3046842902","amenity":"townhall"},{"geometry":{"type":"Point","coordinates":[14.459803,47.8898309]},"id":"node/3046887633","amenity":"townhall"},{"geometry":{"type":"Point","coordinates":[14.7922507,48.2074339]},"id":"node/3046887634","amenity":"townhall"},{"geometry":{"type":"Point","coordinates":[13.9562672,47.8543568]},"id":"node/3047041960","amenity":"townhall"},{"geometry":{"type":"Point","coordinates":[14.2625118,47.970345]},"id":"node/3047041962","amenity":"townhall"},{"geometry":{"type":"Point","coordinates":[14.0318189,47.8918844]},"id":"node/3047041974","amenity":"townhall"},{"geometry":{"type":"Point","coordinates":[13.8449634,47.9345686]},"id":"node/3048511054","amenity":"townhall"},{"geometry":{"type":"Point","coordinates":[13.916215,48.4095582]},"id":"node/3048511056","amenity":"townhall"},{"geometry":{"type":"Point","coordinates":[14.3006869,48.4312252]},"id":"node/3048511059","amenity":"townhall"},{"geometry":{"type":"Point","coordinates":[13.8982709,47.9706446]},"id":"node/3048511060","amenity":"townhall"},{"geometry":{"type":"Point","coordinates":[13.3334601,48.2916468]},"id":"node/3048511097","amenity":"townhall"},{"geometry":{"type":"Point","coordinates":[13.3735399,48.2764983]},"id":"node/3048511099","amenity":"townhall"},{"geometry":{"type":"Point","coordinates":[14.0028539,48.3625798]},"id":"node/3048529276","amenity":"townhall"},{"geometry":{"type":"Point","coordinates":[14.1530124,47.6993527]},"id":"node/3048559280","amenity":"townhall"},{"geometry":{"type":"Point","coordinates":[14.2084655,47.764226]},"id":"node/3048559283","amenity":"townhall"},{"geometry":{"type":"Point","coordinates":[14.0369012,48.2515509]},"id":"node/3048559284","amenity":"townhall"},{"geometry":{"type":"Point","coordinates":[14.4130249,48.4873387]},"id":"node/3048661520","amenity":"townhall"},{"geometry":{"type":"Point","coordinates":[14.3778208,48.142495]},"id":"node/3048661521","amenity":"townhall"},{"geometry":{"type":"Point","coordinates":[13.3501983,47.8558753]},"id":"node/3048880245","amenity":"townhall"},{"geometry":{"type":"Point","coordinates":[13.4341965,47.8656093]},"id":"node/3048880246","amenity":"townhall"},{"geometry":{"type":"Point","coordinates":[13.3502358,47.8557707]},"id":"node/3048880278","amenity":"townhall"},{"geometry":{"type":"Point","coordinates":[13.1837231,48.0669516]},"id":"node/3048914579","amenity":"townhall"},{"geometry":{"type":"Point","coordinates":[13.8671603,48.6584247]},"id":"node/3048929515","amenity":"townhall"},{"geometry":{"type":"Point","coordinates":[13.8459004,48.6278088]},"id":"node/3048929516","amenity":"townhall"},{"geometry":{"type":"Point","coordinates":[13.893742,48.6180007]},"id":"node/3048929517","amenity":"townhall"},{"geometry":{"type":"Point","coordinates":[12.3288878,47.5140332]},"id":"node/3050218046","amenity":"townhall"},{"geometry":{"type":"Point","coordinates":[12.6183282,47.4698502]},"id":"node/3050218047","amenity":"townhall"},{"geometry":{"type":"Point","coordinates":[12.1585503,47.4494265]},"id":"node/3050218048","amenity":"townhall"},{"geometry":{"type":"Point","coordinates":[12.1432204,47.4702796]},"id":"node/3050218049","amenity":"townhall"},{"geometry":{"type":"Point","coordinates":[12.3153074,47.4481144]},"id":"node/3050268649","amenity":"townhall"},{"geometry":{"type":"Point","coordinates":[12.3901626,47.4462181]},"id":"node/3050268650","amenity":"townhall"},{"geometry":{"type":"Point","coordinates":[12.3849856,47.4999767]},"id":"node/3050268651","amenity":"townhall"},{"geometry":{"type":"Point","coordinates":[12.343302,47.4761155]},"id":"node/3050268652","amenity":"townhall"},{"geometry":{"type":"Point","coordinates":[12.5594877,47.5009052]},"id":"node/3050268653","amenity":"townhall"},{"geometry":{"type":"Point","coordinates":[12.5732791,47.5284696]},"id":"node/3050268655","amenity":"townhall"},{"geometry":{"type":"Point","coordinates":[12.567978,47.5847997]},"id":"node/3050268656","amenity":"townhall"},{"geometry":{"type":"Point","coordinates":[10.6712501,47.0798933]},"id":"node/3050286373","amenity":"townhall"},{"geometry":{"type":"Point","coordinates":[10.67669,47.0537973]},"id":"node/3050286374","amenity":"townhall"},{"geometry":{"type":"Point","coordinates":[10.6183923,47.0552628]},"id":"node/3050286375","amenity":"townhall"},{"geometry":{"type":"Point","coordinates":[10.6274822,47.1199948]},"id":"node/3050286376","amenity":"townhall"},{"geometry":{"type":"Point","coordinates":[10.411878,47.1469587]},"id":"node/3050499133","amenity":"townhall"},{"geometry":{"type":"Point","coordinates":[10.1867561,46.9682892]},"id":"node/3050499134","amenity":"townhall"},{"geometry":{"type":"Point","coordinates":[10.5154024,47.1412256]},"id":"node/3050499135","amenity":"townhall"},{"geometry":{"type":"Point","coordinates":[10.7060007,47.0827258]},"id":"node/3050499137","amenity":"townhall"},{"geometry":{"type":"Point","coordinates":[10.7471803,47.0297038]},"id":"node/3050499138","amenity":"townhall"},{"geometry":{"type":"Point","coordinates":[10.6927064,47.0778537]},"id":"node/3050499139","amenity":"townhall"},{"geometry":{"type":"Point","coordinates":[10.6493168,47.0753088]},"id":"node/3050499140","amenity":"townhall"},{"geometry":{"type":"Point","coordinates":[10.5638771,47.1393836]},"id":"node/3051993081","amenity":"townhall"},{"geometry":{"type":"Point","coordinates":[10.5016244,46.8915239]},"id":"node/3051993082","amenity":"townhall"},{"geometry":{"type":"Point","coordinates":[10.3394024,47.1480229]},"id":"node/3051993083","amenity":"townhall"},{"geometry":{"type":"Point","coordinates":[10.5372543,46.9695459]},"id":"node/3051993084","amenity":"townhall"},{"geometry":{"type":"Point","coordinates":[10.5112068,47.1342215]},"id":"node/3051993085","amenity":"townhall"},{"geometry":{"type":"Point","coordinates":[14.7766022,48.4500684]},"id":"node/3053028266","amenity":"townhall"},{"geometry":{"type":"Point","coordinates":[14.4710621,48.3189783]},"id":"node/3053028267","amenity":"townhall"},{"geometry":{"type":"Point","coordinates":[14.6764353,48.4423161]},"id":"node/3053031028","amenity":"townhall"},{"geometry":{"type":"Point","coordinates":[13.7540626,48.2454538]},"id":"node/3053031029","amenity":"townhall"},{"geometry":{"type":"Point","coordinates":[14.7808108,48.4349946]},"id":"node/3053031030","amenity":"townhall"},{"geometry":{"type":"Point","coordinates":[14.1590478,48.2647628]},"id":"node/3053394279","amenity":"townhall"},{"geometry":{"type":"Point","coordinates":[13.8797857,48.6948278]},"id":"node/3053436480","amenity":"townhall"},{"geometry":{"type":"Point","coordinates":[13.8345889,48.7303056]},"id":"node/3053436503","amenity":"townhall"},{"geometry":{"type":"Point","coordinates":[13.6372707,47.0988513]},"id":"node/3053501358","amenity":"townhall"},{"geometry":{"type":"Point","coordinates":[14.158521,47.8316183]},"id":"node/3053504379","amenity":"townhall"},{"geometry":{"type":"Point","coordinates":[13.248598,48.016466]},"id":"node/3053537218","amenity":"townhall"},{"geometry":{"type":"Point","coordinates":[14.0308919,48.6194175]},"id":"node/3053537219","amenity":"townhall"},{"geometry":{"type":"Point","coordinates":[10.6524322,47.0535272]},"id":"node/3054198270","amenity":"townhall"},{"geometry":{"type":"Point","coordinates":[10.6571289,47.1975827]},"id":"node/3054198271","amenity":"townhall"},{"geometry":{"type":"Point","coordinates":[10.4643093,47.0834127]},"id":"node/3054198272","amenity":"townhall"},{"geometry":{"type":"Point","coordinates":[10.6075999,47.0389165]},"id":"node/3054198273","amenity":"townhall"},{"geometry":{"type":"Point","coordinates":[10.4268494,46.9603227]},"id":"node/3054198274","amenity":"townhall"},{"geometry":{"type":"Point","coordinates":[10.5539398,47.148428]},"id":"node/3054198275","amenity":"townhall"},{"geometry":{"type":"Point","coordinates":[10.4632132,47.1248789]},"id":"node/3054198276","amenity":"townhall"},{"geometry":{"type":"Point","coordinates":[10.512772,47.1254474]},"id":"node/3054198277","amenity":"townhall"},{"geometry":{"type":"Point","coordinates":[10.6073011,47.0185313]},"id":"node/3054198278","amenity":"townhall"},{"geometry":{"type":"Point","coordinates":[11.7067408,47.5282872]},"id":"node/3054226899","amenity":"townhall"},{"geometry":{"type":"Point","coordinates":[13.5014631,48.3469552]},"id":"node/3054793972","amenity":"townhall"},{"geometry":{"type":"Point","coordinates":[13.3810986,48.2198424]},"id":"node/3054794185","amenity":"townhall"},{"geometry":{"type":"Point","coordinates":[13.6723096,48.1055764]},"id":"node/3054794186","amenity":"townhall"},{"geometry":{"type":"Point","coordinates":[13.8840248,48.2852507]},"id":"node/3055235669","amenity":"townhall"},{"geometry":{"type":"Point","coordinates":[13.1645789,48.2061012]},"id":"node/3055281224","amenity":"townhall"},{"geometry":{"type":"Point","coordinates":[13.0975272,48.2526273]},"id":"node/3055283725","amenity":"townhall"},{"geometry":{"type":"Point","coordinates":[13.2149305,48.1946032]},"id":"node/3055283726","amenity":"townhall"},{"geometry":{"type":"Point","coordinates":[13.3658253,48.3046002]},"id":"node/3055291359","amenity":"townhall"},{"geometry":{"type":"Point","coordinates":[11.8963068,47.2628949]},"id":"node/3055954737","amenity":"townhall"},{"geometry":{"type":"Point","coordinates":[11.8987453,47.1667271]},"id":"node/3055954738","amenity":"townhall"},{"geometry":{"type":"Point","coordinates":[11.8497199,47.3899295]},"id":"node/3055954739","amenity":"townhall"},{"geometry":{"type":"Point","coordinates":[11.7498477,47.4231211]},"id":"node/3055954741","amenity":"townhall"},{"geometry":{"type":"Point","coordinates":[11.8237408,47.1535792]},"id":"node/3055954743","amenity":"townhall"},{"geometry":{"type":"Point","coordinates":[11.8490314,47.347145]},"id":"node/3055954744","amenity":"townhall"},{"geometry":{"type":"Point","coordinates":[11.8444117,47.3379458]},"id":"node/3055954745","amenity":"townhall"},{"geometry":{"type":"Point","coordinates":[11.7569184,47.3634539]},"id":"node/3056109436","amenity":"townhall"},{"geometry":{"type":"Point","coordinates":[12.0342498,47.2256991]},"id":"node/3056109437","amenity":"townhall"},{"geometry":{"type":"Point","coordinates":[11.9072052,47.226451]},"id":"node/3056109438","amenity":"townhall"},{"geometry":{"type":"Point","coordinates":[11.9027405,47.2184973]},"id":"node/3056109439","amenity":"townhall"},{"geometry":{"type":"Point","coordinates":[11.8728152,47.3503101]},"id":"node/3056109440","amenity":"townhall"},{"geometry":{"type":"Point","coordinates":[11.8654465,47.2034251]},"id":"node/3056109441","amenity":"townhall"},{"geometry":{"type":"Point","coordinates":[13.8110587,48.4828269]},"id":"node/3056933983","amenity":"townhall"},{"geometry":{"type":"Point","coordinates":[13.4735989,48.1885342]},"id":"node/3056933985","amenity":"townhall"},{"geometry":{"type":"Point","coordinates":[13.7542644,48.5291295]},"id":"node/3056933986","amenity":"townhall"},{"geometry":{"type":"Point","coordinates":[13.8258545,48.5037605]},"id":"node/3056933987","amenity":"townhall"},{"geometry":{"type":"Point","coordinates":[13.4648435,48.1462993]},"id":"node/3056934267","amenity":"townhall"},{"geometry":{"type":"Point","coordinates":[14.3383635,48.160263]},"id":"node/3056969984","amenity":"townhall"},{"geometry":{"type":"Point","coordinates":[13.8744426,48.5165337]},"id":"node/3056970057","amenity":"townhall"},{"geometry":{"type":"Point","coordinates":[13.6895552,47.5553699]},"id":"node/3057221224","amenity":"townhall"},{"geometry":{"type":"Point","coordinates":[13.3183347,47.902097]},"id":"node/3057237265","amenity":"townhall"},{"geometry":{"type":"Point","coordinates":[13.7907889,47.9605873]},"id":"node/3057254432","amenity":"townhall"},{"geometry":{"type":"Point","coordinates":[13.1269,48.0152637]},"id":"node/3057259433","amenity":"townhall"},{"geometry":{"type":"Point","coordinates":[14.1258062,47.9375419]},"id":"node/3057280345","amenity":"townhall"},{"geometry":{"type":"Point","coordinates":[13.1559702,48.1191215]},"id":"node/3057289036","amenity":"townhall"},{"geometry":{"type":"Point","coordinates":[13.7705979,48.3435905]},"id":"node/3058561199","amenity":"townhall"},{"geometry":{"type":"Point","coordinates":[14.5304899,48.3555193]},"id":"node/3058561200","amenity":"townhall"},{"geometry":{"type":"Point","coordinates":[13.9908468,48.5723718]},"id":"node/3058561209","amenity":"townhall"},{"geometry":{"type":"Point","coordinates":[13.7741218,48.0544063]},"id":"node/3058561210","amenity":"townhall"},{"geometry":{"type":"Point","coordinates":[14.2374409,48.2210762]},"id":"node/3058561211","amenity":"townhall"},{"geometry":{"type":"Point","coordinates":[14.1122674,48.430198]},"id":"node/3058983128","amenity":"townhall"},{"geometry":{"type":"Point","coordinates":[14.7295252,48.3947982]},"id":"node/3058983661","amenity":"townhall"},{"geometry":{"type":"Point","coordinates":[11.8731441,47.2926088]},"id":"node/3059131720","amenity":"townhall"},{"geometry":{"type":"Point","coordinates":[11.8637309,47.1677894]},"id":"node/3059131721","amenity":"townhall"},{"geometry":{"type":"Point","coordinates":[11.8686269,47.3014055]},"id":"node/3059134844","amenity":"townhall"},{"geometry":{"type":"Point","coordinates":[11.8980618,47.2370271]},"id":"node/3059134845","amenity":"townhall"},{"geometry":{"type":"Point","coordinates":[11.8406744,47.3774997]},"id":"node/3059261370","amenity":"townhall"},{"geometry":{"type":"Point","coordinates":[11.8653435,47.2033239]},"id":"node/3059261372","amenity":"townhall"},{"geometry":{"type":"Point","coordinates":[11.8016802,47.5141973]},"id":"node/3059261374","amenity":"townhall"},{"geometry":{"type":"Point","coordinates":[11.8211497,47.396069]},"id":"node/3059261375","amenity":"townhall"},{"geometry":{"type":"Point","coordinates":[11.8857916,47.2927539]},"id":"node/3059261376","amenity":"townhall"},{"geometry":{"type":"Point","coordinates":[11.8845851,47.2937715]},"id":"node/3059261377","amenity":"townhall"},{"geometry":{"type":"Point","coordinates":[11.6429116,47.3223203]},"id":"node/3059261378","amenity":"townhall"},{"geometry":{"type":"Point","coordinates":[11.7252291,47.1544968]},"id":"node/3059261379","amenity":"townhall"},{"geometry":{"type":"Point","coordinates":[11.8645761,47.3265104]},"id":"node/3059261380","amenity":"townhall"},{"geometry":{"type":"Point","coordinates":[11.6830123,47.3418695]},"id":"node/3059261381","amenity":"townhall"},{"geometry":{"type":"Point","coordinates":[11.79778,47.4042716]},"id":"node/3059261382","amenity":"townhall"},{"geometry":{"type":"Point","coordinates":[11.8800982,47.2335626]},"id":"node/3059261383","amenity":"townhall"},{"geometry":{"type":"Point","coordinates":[11.8796396,47.2349291]},"id":"node/3059261384","amenity":"townhall"},{"geometry":{"type":"Point","coordinates":[12.5297768,46.7568546]},"id":"node/3059335902","amenity":"townhall"},{"geometry":{"type":"Point","coordinates":[12.5560741,46.772648]},"id":"node/3059335905","amenity":"townhall"},{"geometry":{"type":"Point","coordinates":[14.7811964,48.2240617]},"id":"node/3060409155","amenity":"townhall"},{"geometry":{"type":"Point","coordinates":[13.8409251,48.6053348]},"id":"node/3060445097","amenity":"townhall"},{"geometry":{"type":"Point","coordinates":[13.6593294,48.4385443]},"id":"node/3060445098","amenity":"townhall"},{"geometry":{"type":"Point","coordinates":[14.1286485,48.0533188]},"id":"node/3060445099","amenity":"townhall"},{"geometry":{"type":"Point","coordinates":[13.6045023,47.9728095]},"id":"node/3060445102","amenity":"townhall"},{"geometry":{"type":"Point","coordinates":[13.7713289,48.5524053]},"id":"node/3060445103","amenity":"townhall"},{"geometry":{"type":"Point","coordinates":[14.5037046,48.6154871]},"id":"node/3060615826","amenity":"townhall"},{"geometry":{"type":"Point","coordinates":[13.1353151,48.1907747]},"id":"node/3060615827","amenity":"townhall"},{"geometry":{"type":"Point","coordinates":[14.5270461,48.2708077]},"id":"node/3060617042","amenity":"townhall"},{"geometry":{"type":"Point","coordinates":[14.2573636,47.8845868]},"id":"node/3060625600","amenity":"townhall"},{"geometry":{"type":"Point","coordinates":[13.3495439,47.8562426]},"id":"node/3060625601","amenity":"townhall"},{"geometry":{"type":"Point","coordinates":[14.6089225,48.2253009]},"id":"node/3060625602","amenity":"townhall"},{"geometry":{"type":"Point","coordinates":[12.7704384,46.8429069]},"id":"node/3060955732","amenity":"townhall"},{"geometry":{"type":"Point","coordinates":[12.4420355,46.7493332]},"id":"node/3060956433","amenity":"townhall"},{"geometry":{"type":"Point","coordinates":[12.6445729,47.0007517]},"id":"node/3060956437","amenity":"townhall"},{"geometry":{"type":"Point","coordinates":[12.4984441,46.7258851]},"id":"node/3060956438","amenity":"townhall"},{"geometry":{"type":"Point","coordinates":[12.8444913,46.7967844]},"id":"node/3060956439","amenity":"townhall"},{"geometry":{"type":"Point","coordinates":[12.9057607,46.7854119]},"id":"node/3061018126","amenity":"townhall"},{"geometry":{"type":"Point","coordinates":[12.7312927,46.8440021]},"id":"node/3061018127","amenity":"townhall"},{"geometry":{"type":"Point","coordinates":[12.3749105,47.0165364]},"id":"node/3061091021","amenity":"townhall"},{"geometry":{"type":"Point","coordinates":[12.6273682,46.9026513]},"id":"node/3061091022","amenity":"townhall"},{"geometry":{"type":"Point","coordinates":[12.4232379,46.924564]},"id":"node/3061091023","amenity":"townhall"},{"geometry":{"type":"Point","coordinates":[12.6545608,46.8778846]},"id":"node/3061091024","amenity":"townhall"},{"geometry":{"type":"Point","coordinates":[12.7876511,46.8174643]},"id":"node/3062835816","amenity":"townhall"},{"geometry":{"type":"Point","coordinates":[12.456926,47.0030499]},"id":"node/3062835818","amenity":"townhall"},{"geometry":{"type":"Point","coordinates":[10.7464731,47.4093199]},"id":"node/3062846289","amenity":"townhall"},{"geometry":{"type":"Point","coordinates":[10.8918269,47.3827126]},"id":"node/3062846290","amenity":"townhall"},{"geometry":{"type":"Point","coordinates":[10.7894669,47.419846]},"id":"node/3062846291","amenity":"townhall"},{"geometry":{"type":"Point","coordinates":[10.7322684,47.4879436]},"id":"node/3064841034","amenity":"townhall"},{"geometry":{"type":"Point","coordinates":[10.7005779,47.4724634]},"id":"node/3064841035","amenity":"townhall"},{"geometry":{"type":"Point","coordinates":[10.92069,47.3982796]},"id":"node/3064841036","amenity":"townhall"},{"geometry":{"type":"Point","coordinates":[10.5410726,47.3381133]},"id":"node/3064841037","amenity":"townhall"},{"geometry":{"type":"Point","coordinates":[10.5859896,47.4197591]},"id":"node/3064841038","amenity":"townhall"},{"geometry":{"type":"Point","coordinates":[10.5540534,47.4986422]},"id":"node/3065307937","amenity":"townhall"},{"geometry":{"type":"Point","coordinates":[10.7472317,47.4439239]},"id":"node/3065506243","amenity":"townhall"},{"geometry":{"type":"Point","coordinates":[10.4614908,47.360541]},"id":"node/3065506244","amenity":"townhall"},{"geometry":{"type":"Point","coordinates":[10.4465832,47.5720967]},"id":"node/3065506246","amenity":"townhall"},{"geometry":{"type":"Point","coordinates":[10.7064384,47.489404]},"id":"node/3065506247","amenity":"townhall"},{"geometry":{"type":"Point","coordinates":[10.6751918,47.5303626]},"id":"node/3065506248","amenity":"townhall"},{"geometry":{"type":"Point","coordinates":[10.6559647,47.355262]},"id":"node/3065506249","amenity":"townhall"},{"geometry":{"type":"Point","coordinates":[10.6122573,47.4842323]},"id":"node/3065506250","amenity":"townhall"},{"geometry":{"type":"Point","coordinates":[10.7177753,47.5068676]},"id":"node/3065506252","amenity":"townhall"},{"geometry":{"type":"Point","coordinates":[13.7487848,48.3973845]},"id":"node/3066240312","amenity":"townhall"},{"geometry":{"type":"Point","coordinates":[13.7802153,48.4049416]},"id":"node/3066240313","amenity":"townhall"},{"geometry":{"type":"Point","coordinates":[14.084797,48.4513038]},"id":"node/3066240314","amenity":"townhall"},{"geometry":{"type":"Point","coordinates":[13.7719114,48.344884]},"id":"node/3066240315","amenity":"townhall"},{"geometry":{"type":"Point","coordinates":[13.7376913,48.4791491]},"id":"node/3066240442","amenity":"townhall"},{"geometry":{"type":"Point","coordinates":[14.0439177,48.4721486]},"id":"node/3066240444","amenity":"townhall"},{"geometry":{"type":"Point","coordinates":[13.8220245,48.4404687]},"id":"node/3066240445","amenity":"townhall"},{"geometry":{"type":"Point","coordinates":[13.3357507,48.3214478]},"id":"node/3066274602","amenity":"townhall"},{"geometry":{"type":"Point","coordinates":[13.3598097,48.334578]},"id":"node/3066274622","amenity":"townhall"},{"geometry":{"type":"Point","coordinates":[13.4400054,48.2924772]},"id":"node/3066274623","amenity":"townhall"},{"geometry":{"type":"Point","coordinates":[14.1765083,48.3314515]},"id":"node/3066323271","amenity":"townhall"},{"geometry":{"type":"Point","coordinates":[13.4844266,48.1540264]},"id":"node/3066323272","amenity":"townhall"},{"geometry":{"type":"Point","coordinates":[13.4859034,48.1397284]},"id":"node/3066323274","amenity":"townhall"},{"geometry":{"type":"Point","coordinates":[14.2408679,48.3116821]},"id":"node/3066323275","amenity":"townhall"},{"geometry":{"type":"Point","coordinates":[12.7628163,48.096196]},"id":"node/3066323276","amenity":"townhall"},{"geometry":{"type":"Point","coordinates":[12.8249624,48.0793284]},"id":"node/3066323277","amenity":"townhall"},{"geometry":{"type":"Point","coordinates":[13.5476568,48.2380327]},"id":"node/3066358538","amenity":"townhall"},{"geometry":{"type":"Point","coordinates":[13.0830028,48.1297391]},"id":"node/3066358539","amenity":"townhall"},{"geometry":{"type":"Point","coordinates":[13.7655659,48.056042]},"id":"node/3066358540","amenity":"townhall"},{"geometry":{"type":"Point","coordinates":[13.7655056,48.0561864]},"id":"node/3066358589","amenity":"townhall"},{"geometry":{"type":"Point","coordinates":[13.7654714,48.0562681]},"id":"node/3066358590","amenity":"townhall"},{"geometry":{"type":"Point","coordinates":[13.4978207,48.2311276]},"id":"node/3066358592","amenity":"townhall"},{"geometry":{"type":"Point","coordinates":[13.3691018,47.9969559]},"id":"node/3066380512","amenity":"townhall"},{"geometry":{"type":"Point","coordinates":[13.7703367,48.2821879]},"id":"node/3066380513","amenity":"townhall"},{"geometry":{"type":"Point","coordinates":[13.6802894,48.2061737]},"id":"node/3066380514","amenity":"townhall"},{"geometry":{"type":"Point","coordinates":[13.4175731,47.9501954]},"id":"node/3066380515","amenity":"townhall"},{"geometry":{"type":"Point","coordinates":[14.1855527,48.1891802]},"id":"node/3066401202","amenity":"townhall"},{"geometry":{"type":"Point","coordinates":[14.382006,48.5428711]},"id":"node/3066401209","amenity":"townhall"},{"geometry":{"type":"Point","coordinates":[13.614481,48.0466119]},"id":"node/3066401210","amenity":"townhall"},{"geometry":{"type":"Point","coordinates":[10.4624529,47.5132087]},"id":"node/3066807056","amenity":"townhall"},{"geometry":{"type":"Point","coordinates":[10.5606299,47.3844464]},"id":"node/3066807057","amenity":"townhall"},{"geometry":{"type":"Point","coordinates":[10.6308053,47.5491394]},"id":"node/3066807059","amenity":"townhall"},{"geometry":{"type":"Point","coordinates":[10.5408874,47.371107]},"id":"node/3066807060","amenity":"townhall"},{"geometry":{"type":"Point","coordinates":[10.6415017,47.4416936]},"id":"node/3066807061","amenity":"townhall"},{"geometry":{"type":"Point","coordinates":[10.6884875,47.4871404]},"id":"node/3066807062","amenity":"townhall"},{"geometry":{"type":"Point","coordinates":[10.4788028,47.5074757]},"id":"node/3066807063","amenity":"townhall"},{"geometry":{"type":"Point","coordinates":[11.4462426,47.2511216]},"id":"node/3066823584","amenity":"townhall"},{"geometry":{"type":"Point","coordinates":[11.466129,47.2624246]},"id":"node/3066823585","amenity":"townhall"},{"geometry":{"type":"Point","coordinates":[14.7110046,48.3223248]},"id":"node/3067875963","amenity":"townhall"},{"geometry":{"type":"Point","coordinates":[13.7487243,48.0254793]},"id":"node/3067875964","amenity":"townhall"},{"geometry":{"type":"Point","coordinates":[13.7902044,48.0423515]},"id":"node/3067875965","amenity":"townhall"},{"geometry":{"type":"Point","coordinates":[13.8227943,48.0237285]},"id":"node/3067884913","amenity":"townhall"},{"geometry":{"type":"Point","coordinates":[13.8690587,48.086578]},"id":"node/3067884915","amenity":"townhall"},{"geometry":{"type":"Point","coordinates":[11.5638282,47.3001784]},"id":"node/3068619593","amenity":"townhall"},{"geometry":{"type":"Point","coordinates":[11.2992072,47.2354858]},"id":"node/3068619594","amenity":"townhall"},{"geometry":{"type":"Point","coordinates":[11.4306644,47.1856989]},"id":"node/3068619595","amenity":"townhall"},{"geometry":{"type":"Point","coordinates":[11.1240393,47.2913496]},"id":"node/3068619596","amenity":"townhall"},{"geometry":{"type":"Point","coordinates":[11.5893126,47.3069642]},"id":"node/3068619597","amenity":"townhall"},{"geometry":{"type":"Point","coordinates":[11.34774,47.152778]},"id":"node/3068619598","amenity":"townhall"},{"geometry":{"type":"Point","coordinates":[11.5766891,47.3223338]},"id":"node/3068619599","amenity":"townhall"},{"geometry":{"type":"Point","coordinates":[11.1557825,47.1949651]},"id":"node/3068695364","amenity":"townhall"},{"geometry":{"type":"Point","coordinates":[11.2555728,47.2308569]},"id":"node/3068695365","amenity":"townhall"},{"geometry":{"type":"Point","coordinates":[11.3516369,47.0445998]},"id":"node/3068695366","amenity":"townhall"},{"geometry":{"type":"Point","coordinates":[11.5065702,47.2818976]},"id":"node/3068695367","amenity":"townhall"},{"geometry":{"type":"Point","coordinates":[11.1683367,47.2782122]},"id":"node/3068695368","amenity":"townhall"},{"geometry":{"type":"Point","coordinates":[11.1957344,47.2737151]},"id":"node/3068695369","amenity":"townhall"},{"geometry":{"type":"Point","coordinates":[11.2721852,47.2543983]},"id":"node/3068695370","amenity":"townhall"},{"geometry":{"type":"Point","coordinates":[11.6337432,47.3008816]},"id":"node/3068695371","amenity":"townhall"},{"geometry":{"type":"Point","coordinates":[11.6465413,47.291351]},"id":"node/3068695372","amenity":"townhall"},{"geometry":{"type":"Point","coordinates":[11.4311042,47.2374813]},"id":"node/3068695373","amenity":"townhall"},{"geometry":{"type":"Point","coordinates":[11.5328984,47.2878899]},"id":"node/3068695376","amenity":"townhall"},{"geometry":{"type":"Point","coordinates":[14.6450698,48.5595742]},"id":"node/3069694709","amenity":"townhall"},{"geometry":{"type":"Point","coordinates":[14.0569492,48.0730237]},"id":"node/3069694710","amenity":"townhall"},{"geometry":{"type":"Point","coordinates":[14.0740862,48.1610575]},"id":"node/3069694711","amenity":"townhall"},{"geometry":{"type":"Point","coordinates":[14.0308262,48.1528569]},"id":"node/3069697992","amenity":"townhall"},{"geometry":{"type":"Point","coordinates":[13.866398,48.2221691]},"id":"node/3069716085","amenity":"townhall"},{"geometry":{"type":"Point","coordinates":[13.5993004,48.3958861]},"id":"node/3069889149","amenity":"townhall"},{"geometry":{"type":"Point","coordinates":[14.2937198,48.4594238]},"id":"node/3069889150","amenity":"townhall"},{"geometry":{"type":"Point","coordinates":[14.3774261,48.0833794]},"id":"node/3069889151","amenity":"townhall"},{"geometry":{"type":"Point","coordinates":[14.2704513,48.4662353]},"id":"node/3069889152","amenity":"townhall"},{"geometry":{"type":"Point","coordinates":[12.8747112,48.1893692]},"id":"node/3069889153","amenity":"townhall"},{"geometry":{"type":"Point","coordinates":[13.2811594,48.1216688]},"id":"node/3069952413","amenity":"townhall"},{"geometry":{"type":"Point","coordinates":[13.8886249,47.9124629]},"id":"node/3069952414","amenity":"townhall"},{"geometry":{"type":"Point","coordinates":[13.3503311,47.855891]},"id":"node/3069952415","amenity":"townhall"},{"geometry":{"type":"Point","coordinates":[14.9060754,48.2330174]},"id":"node/3069952416","amenity":"townhall"},{"geometry":{"type":"Point","coordinates":[14.0308565,48.6195163]},"id":"node/3069952417","amenity":"townhall"},{"geometry":{"type":"Point","coordinates":[14.9473379,48.2740916]},"id":"node/3069952419","amenity":"townhall"},{"geometry":{"type":"Point","coordinates":[14.0821539,48.502015]},"id":"node/3070190567","amenity":"townhall"},{"geometry":{"type":"Point","coordinates":[13.2752157,48.2071301]},"id":"node/3070190568","amenity":"townhall"},{"geometry":{"type":"Point","coordinates":[14.164522,48.4678643]},"id":"node/3070190569","amenity":"townhall"},{"geometry":{"type":"Point","coordinates":[13.4474805,47.7387964]},"id":"node/3070190570","amenity":"townhall"},{"geometry":{"type":"Point","coordinates":[13.7982803,48.2446318]},"id":"node/3070190572","amenity":"townhall"},{"geometry":{"type":"Point","coordinates":[14.6227332,48.3315826]},"id":"node/3070190573","amenity":"townhall"},{"geometry":{"type":"Point","coordinates":[14.1184995,47.9891998]},"id":"node/3070190574","amenity":"townhall"},{"geometry":{"type":"Point","coordinates":[14.0246656,48.1563978]},"id":"node/3070190575","amenity":"townhall"},{"geometry":{"type":"Point","coordinates":[11.3073901,47.1107767]},"id":"node/3074786297","amenity":"townhall"},{"geometry":{"type":"Point","coordinates":[11.0957954,47.3044856]},"id":"node/3074786298","amenity":"townhall"},{"geometry":{"type":"Point","coordinates":[11.2474385,47.2443167]},"id":"node/3074786300","amenity":"townhall"},{"geometry":{"type":"Point","coordinates":[11.4150312,47.2049194]},"id":"node/3074786301","amenity":"townhall"},{"geometry":{"type":"Point","coordinates":[11.1597001,47.2923356]},"id":"node/3074786302","amenity":"townhall"},{"geometry":{"type":"Point","coordinates":[11.0814075,47.2987727]},"id":"node/3074786303","amenity":"townhall"},{"geometry":{"type":"Point","coordinates":[11.1500967,47.2821233]},"id":"node/3074812404","amenity":"townhall"},{"geometry":{"type":"Point","coordinates":[11.5026927,47.2500928]},"id":"node/3074812406","amenity":"townhall"},{"geometry":{"type":"Point","coordinates":[11.1007499,47.2028828]},"id":"node/3077094283","amenity":"townhall"},{"geometry":{"type":"Point","coordinates":[11.5633159,47.0790492]},"id":"node/3077094285","amenity":"townhall"},{"geometry":{"type":"Point","coordinates":[11.1868559,47.3292959]},"id":"node/3077094287","amenity":"townhall"},{"geometry":{"type":"Point","coordinates":[11.2171572,47.2156887]},"id":"node/3077094288","amenity":"townhall"},{"geometry":{"type":"Point","coordinates":[11.0721213,47.3068873]},"id":"node/3077131809","amenity":"townhall"},{"geometry":{"type":"Point","coordinates":[11.5337953,47.2590628]},"id":"node/3077131811","amenity":"townhall"},{"geometry":{"type":"Point","coordinates":[11.260254,47.2581505]},"id":"node/3077131812","amenity":"townhall"},{"geometry":{"type":"Point","coordinates":[11.5015068,47.0622163]},"id":"node/3077131813","amenity":"townhall"},{"geometry":{"type":"Point","coordinates":[11.5651532,47.2870207]},"id":"node/3077172148","amenity":"townhall"},{"geometry":{"type":"Point","coordinates":[11.3273792,47.2519047]},"id":"node/3077172149","amenity":"townhall"},{"geometry":{"type":"Point","coordinates":[11.6058203,47.2733282]},"id":"node/3077172150","amenity":"townhall"},{"geometry":{"type":"Point","coordinates":[11.2407933,47.2738885]},"id":"node/3077172152","amenity":"townhall"},{"geometry":{"type":"Point","coordinates":[9.7445556,47.4135786]},"id":"node/3145665399","amenity":"townhall"},{"geometry":{"type":"Point","coordinates":[13.0782975,47.9683376]},"id":"node/3223163994","amenity":"townhall"},{"geometry":{"type":"Point","coordinates":[14.9581527,47.0193989]},"id":"node/3233903075","amenity":"townhall"},{"geometry":{"type":"Point","coordinates":[15.2394886,47.4324939]},"id":"node/3244733661","amenity":"townhall"},{"geometry":{"type":"Point","coordinates":[16.3740102,48.1787585]},"id":"node/3256085961","amenity":"townhall"},{"geometry":{"type":"Point","coordinates":[13.1728895,47.7925537]},"id":"node/3286382559","amenity":"townhall"},{"geometry":{"type":"Point","coordinates":[13.0621566,47.9959305]},"id":"node/3333676100","amenity":"townhall"},{"geometry":{"type":"Point","coordinates":[13.0840492,48.0070666]},"id":"node/3340434254","amenity":"townhall"},{"geometry":{"type":"Point","coordinates":[13.1035121,47.9696892]},"id":"node/3423191127","amenity":"townhall"},{"geometry":{"type":"Point","coordinates":[10.8970927,47.2029055]},"id":"node/3571226597","amenity":"townhall"},{"geometry":{"type":"Point","coordinates":[15.8974439,47.0475403]},"id":"node/3641056795","amenity":"townhall"},{"geometry":{"type":"Point","coordinates":[13.9735406,46.6852897]},"id":"node/3660216159","amenity":"townhall"},{"geometry":{"type":"Point","coordinates":[16.1105176,47.4782548]},"id":"node/3770424667","amenity":"townhall"},{"geometry":{"type":"Point","coordinates":[12.9636671,47.293047]},"id":"node/3837111796","amenity":"townhall"},{"geometry":{"type":"Point","coordinates":[13.1509663,47.9553962]},"id":"node/3906054906","amenity":"townhall"},{"geometry":{"type":"Point","coordinates":[15.3403668,47.4249719]},"id":"node/3980756210","amenity":"townhall"},{"geometry":{"type":"Point","coordinates":[16.2445914,48.6632656]},"id":"node/4011559707","amenity":"townhall"},{"geometry":{"type":"Point","coordinates":[15.065172,47.0616733]},"id":"node/4152960243","amenity":"townhall"},{"geometry":{"type":"Point","coordinates":[13.167186,47.5964924]},"id":"node/4200886471","amenity":"townhall"},{"geometry":{"type":"Point","coordinates":[14.4357735,46.5755909]},"id":"node/4212655260","amenity":"townhall"},{"geometry":{"type":"Point","coordinates":[12.6365268,47.3915756]},"id":"node/4379139812","amenity":"townhall"},{"geometry":{"type":"Point","coordinates":[13.4689025,48.0813346]},"id":"node/4602154848","amenity":"townhall"},{"geometry":{"type":"Point","coordinates":[15.6468428,48.3856161]},"id":"node/4781343360","amenity":"townhall"},{"geometry":{"type":"Point","coordinates":[13.8856807,46.962694]},"id":"node/4995039865","amenity":"townhall"},{"geometry":{"type":"Point","coordinates":[15.2867713,47.4415609]},"id":"node/5271565786","amenity":"townhall"},{"geometry":{"type":"Point","coordinates":[15.2399877,47.544483]},"id":"node/5323523042","amenity":"townhall"},{"geometry":{"type":"Point","coordinates":[16.2039033,47.8676809]},"id":"node/5323691704","amenity":"townhall"},{"geometry":{"type":"Point","coordinates":[16.5056109,48.224176]},"id":"node/5337351914","amenity":"townhall"},{"geometry":{"type":"Point","coordinates":[11.0095093,46.9697133]},"id":"node/5349211432","amenity":"townhall"},{"geometry":{"type":"Point","coordinates":[14.42756,46.9146114]},"id":"node/5434814236","amenity":"townhall"},{"geometry":{"type":"Point","coordinates":[13.1068302,47.1700167]},"id":"node/5525038419","amenity":"townhall"},{"geometry":{"type":"Point","coordinates":[13.3716984,46.6264113]},"id":"node/5646198511","amenity":"townhall"},{"geometry":{"type":"Point","coordinates":[16.4618888,47.1082065]},"id":"node/5685243391","amenity":"townhall"},{"geometry":{"type":"Point","coordinates":[16.1452407,47.3838625]},"id":"node/5761441506","amenity":"townhall"},{"geometry":{"type":"Point","coordinates":[16.0643814,47.3628163]},"id":"node/5792152691","amenity":"townhall"},{"geometry":{"type":"Point","coordinates":[16.0772842,47.3358853]},"id":"node/6327303287","amenity":"townhall"},{"geometry":{"type":"Point","coordinates":[11.0306563,47.2862906]},"id":"node/6765005015","amenity":"townhall"},{"geometry":{"type":"Point","coordinates":[16.9879518,48.0977284]},"id":"node/6783181029","amenity":"townhall"},{"geometry":{"type":"Point","coordinates":[14.1117091,48.0963051]},"id":"node/7077902310","amenity":"townhall"},{"geometry":{"type":"Point","coordinates":[15.8480599,47.2276323]},"id":"node/7884489967","amenity":"townhall"},{"geometry":{"type":"Point","coordinates":[15.8579305,47.3152773]},"id":"node/8262263850","amenity":"townhall"},{"geometry":{"type":"Point","coordinates":[15.7970051,47.3243097]},"id":"node/8300576759","amenity":"townhall"},{"geometry":{"type":"Point","coordinates":[15.8528665,47.2689814]},"id":"node/8307128567","amenity":"townhall"},{"geometry":{"type":"Point","coordinates":[12.8066388,47.3614637]},"id":"node/8388206762","amenity":"townhall"},{"geometry":{"type":"Point","coordinates":[12.715445,47.2916232]},"id":"node/8406635062","amenity":"townhall"},{"geometry":{"type":"Point","coordinates":[10.6727564,47.2051717]},"id":"node/8655916097","amenity":"townhall"},{"geometry":{"type":"Point","coordinates":[10.6969808,47.2064974]},"id":"node/8697032335","amenity":"townhall"},{"geometry":{"type":"Point","coordinates":[13.6664866,48.231592]},"id":"node/8807518797","amenity":"townhall"},{"geometry":{"type":"Point","coordinates":[13.4977979,47.0989991]},"id":"node/9017321560","amenity":"townhall"},{"geometry":{"type":"Point","coordinates":[14.257699,48.359811]},"id":"node/9054023824","amenity":"townhall"},{"geometry":{"type":"Point","coordinates":[14.2993632,47.0696149]},"id":"node/9233774197","amenity":"townhall"},{"geometry":{"type":"Point","coordinates":[13.0801567,46.7395542]},"id":"node/9268114094","amenity":"townhall"},{"geometry":{"type":"Point","coordinates":[13.0015429,47.3808938]},"id":"node/9887883347","amenity":"townhall"},{"geometry":{"type":"Point","coordinates":[15.8959898,47.1482162]},"id":"node/9914197184","amenity":"townhall"},{"geometry":{"type":"Point","coordinates":[15.1586451,46.7492844]},"id":"node/10229499229","amenity":"townhall"},{"geometry":{"type":"Point","coordinates":[10.7751176,47.219682]},"id":"node/10741348415","amenity":"townhall"},{"geometry":{"type":"Point","coordinates":[10.766218,47.2254843]},"id":"node/10742198174","amenity":"townhall"},{"geometry":{"type":"Point","coordinates":[11.4497119,47.274312]},"id":"node/11078761504","amenity":"townhall"},{"geometry":{"type":"Point","coordinates":[15.4815763,47.0076587]},"id":"node/11217812842","amenity":"townhall"},{"geometry":{"type":"Point","coordinates":[13.4663764,47.5927244]},"id":"node/11425430639","amenity":"townhall"},{"geometry":{"type":"Point","coordinates":[14.9167666,46.718492]},"id":"node/11681689391","amenity":"townhall"}]}